{
"type": "FeatureCollection",
"name": "constituencies",
"crs": { "type": "name", "properties": { "name": "urn:ogc:def:crs:OGC:1.3:CRS84" } },
"features": [
{ "type": "Feature", "properties": { "state": "Selangor", "parlimen": "P.097 Selayang", "district": "Gombak" }, "geometry": { "type": "Polygon", "coordinates": [ [ [ 101.45841, 3.40041 ], [ 101.46231, 3.39824 ], [ 101.46203, 3.39584 ], [ 101.46538, 3.39715 ], [ 101.46676, 3.39501 ], [ 101.46877, 3.39569 ], [ 101.4701, 3.39268 ], [ 101.46878, 3.39118 ], [ 101.47229, 3.38728 ], [ 101.47685, 3.38674 ], [ 101.47957, 3.37531 ], [ 101.47842, 3.37316 ], [ 101.48104, 3.36936 ], [ 101.49326, 3.36736 ], [ 101.49612, 3.36545 ], [ 101.4964, 3.36037 ], [ 101.50462, 3.35038 ], [ 101.50984, 3.35303 ], [ 101.51226, 3.35172 ], [ 101.51231, 3.34995 ], [ 101.51708, 3.35016 ], [ 101.52126, 3.34807 ], [ 101.54842, 3.34798 ], [ 101.55261, 3.34706 ], [ 101.55319, 3.34446 ], [ 101.56059, 3.34502 ], [ 101.5614, 3.34255 ], [ 101.56775, 3.34134 ], [ 101.56776, 3.33918 ], [ 101.57768, 3.33891 ], [ 101.58382, 3.34451 ], [ 101.58747, 3.34449 ], [ 101.5908, 3.34248 ], [ 101.58764, 3.33982 ], [ 101.59092, 3.33276 ], [ 101.59062, 3.32738 ], [ 101.59622, 3.32726 ], [ 101.59642, 3.32571 ], [ 101.5987, 3.32704 ], [ 101.60921, 3.32591 ], [ 101.61454, 3.32306 ], [ 101.62688, 3.32368 ], [ 101.6276, 3.32224 ], [ 101.63203, 3.32445 ], [ 101.63938, 3.32125 ], [ 101.64309, 3.3283 ], [ 101.6503, 3.33557 ], [ 101.65594, 3.33343 ], [ 101.65825, 3.33034 ], [ 101.66317, 3.32906 ], [ 101.66459, 3.33084 ], [ 101.66855, 3.3287 ], [ 101.66957, 3.32668 ], [ 101.66533, 3.31089 ], [ 101.6678, 3.30343 ], [ 101.66584, 3.29561 ], [ 101.66862, 3.29241 ], [ 101.67002, 3.2872 ], [ 101.66771, 3.27951 ], [ 101.66545, 3.27607 ], [ 101.66315, 3.27624 ], [ 101.6674, 3.27282 ], [ 101.6786, 3.27216 ], [ 101.67942, 3.26362 ], [ 101.67231, 3.2597 ], [ 101.67284, 3.25457 ], [ 101.67524, 3.25247 ], [ 101.67507, 3.24871 ], [ 101.67186, 3.24704 ], [ 101.67003, 3.25054 ], [ 101.66737, 3.25132 ], [ 101.66609, 3.2499 ], [ 101.66618, 3.24348 ], [ 101.6607, 3.2436 ], [ 101.66052, 3.24154 ], [ 101.65768, 3.2409 ], [ 101.65704, 3.23681 ], [ 101.65309, 3.237 ], [ 101.65403, 3.23873 ], [ 101.65196, 3.2407 ], [ 101.65008, 3.23982 ], [ 101.6504, 3.24233 ], [ 101.6478, 3.24106 ], [ 101.64465, 3.24202 ], [ 101.64491, 3.24525 ], [ 101.6368, 3.24681 ], [ 101.63419, 3.24949 ], [ 101.61198, 3.25024 ], [ 101.57967, 3.23537 ], [ 101.57375, 3.2504 ], [ 101.57183, 3.24742 ], [ 101.56875, 3.25259 ], [ 101.55456, 3.25534 ], [ 101.55583, 3.25117 ], [ 101.55352, 3.25005 ], [ 101.55509, 3.2482 ], [ 101.557, 3.24904 ], [ 101.56034, 3.24402 ], [ 101.55944, 3.2322 ], [ 101.55249, 3.23247 ], [ 101.55143, 3.22537 ], [ 101.54734, 3.21808 ], [ 101.53068, 3.21814 ], [ 101.53048, 3.21601 ], [ 101.52752, 3.2205 ], [ 101.52428, 3.22094 ], [ 101.52105, 3.21662 ], [ 101.51616, 3.21905 ], [ 101.51408, 3.21794 ], [ 101.50918, 3.22253 ], [ 101.50546, 3.22234 ], [ 101.50428, 3.21966 ], [ 101.50215, 3.21963 ], [ 101.49978, 3.22262 ], [ 101.49791, 3.22245 ], [ 101.49185, 3.23304 ], [ 101.49231, 3.27505 ], [ 101.46223, 3.27519 ], [ 101.46229, 3.29924 ], [ 101.43847, 3.29949 ], [ 101.43498, 3.30402 ], [ 101.43032, 3.30419 ], [ 101.446, 3.3331 ], [ 101.44686, 3.35573 ], [ 101.44399, 3.35606 ], [ 101.44401, 3.39638 ], [ 101.45171, 3.40081 ], [ 101.4547, 3.40029 ], [ 101.45947, 3.40222 ], [ 101.45841, 3.40041 ] ] ] } },
{ "type": "Feature", "properties": { "state": "Selangor", "parlimen": "P.098 Gombak", "district": "Gombak" }, "geometry": { "type": "Polygon", "coordinates": [ [ [ 101.72052, 3.38837 ], [ 101.72816, 3.38312 ], [ 101.72966, 3.37964 ], [ 101.73604, 3.37818 ], [ 101.73948, 3.37424 ], [ 101.74556, 3.37451 ], [ 101.75211, 3.37042 ], [ 101.75963, 3.37301 ], [ 101.77521, 3.35994 ], [ 101.78067, 3.35832 ], [ 101.78234, 3.35015 ], [ 101.7808, 3.34503 ], [ 101.7825, 3.33932 ], [ 101.78817, 3.33573 ], [ 101.79864, 3.33389 ], [ 101.80119, 3.32349 ], [ 101.80665, 3.32027 ], [ 101.80682, 3.3152 ], [ 101.82474, 3.29415 ], [ 101.83829, 3.28684 ], [ 101.84834, 3.28611 ], [ 101.85146, 3.28262 ], [ 101.85361, 3.2757 ], [ 101.85007, 3.27172 ], [ 101.84443, 3.27231 ], [ 101.84046, 3.26426 ], [ 101.83067, 3.25774 ], [ 101.83062, 3.25 ], [ 101.81655, 3.2289 ], [ 101.81292, 3.2298 ], [ 101.81073, 3.22847 ], [ 101.80608, 3.22233 ], [ 101.80335, 3.22159 ], [ 101.79923, 3.21664 ], [ 101.79491, 3.21512 ], [ 101.7897, 3.20854 ], [ 101.79019, 3.21528 ], [ 101.78885, 3.21808 ], [ 101.78117, 3.21832 ], [ 101.78034, 3.21434 ], [ 101.77349, 3.21068 ], [ 101.77036, 3.20702 ], [ 101.76864, 3.19934 ], [ 101.7713, 3.19957 ], [ 101.76714, 3.19528 ], [ 101.76872, 3.19427 ], [ 101.76858, 3.19212 ], [ 101.76554, 3.19339 ], [ 101.76677, 3.19506 ], [ 101.7623, 3.19547 ], [ 101.76045, 3.1831 ], [ 101.75658, 3.17727 ], [ 101.755, 3.17127 ], [ 101.75079, 3.16854 ], [ 101.74495, 3.16813 ], [ 101.7426, 3.1659 ], [ 101.75208, 3.16299 ], [ 101.75069, 3.16034 ], [ 101.7483, 3.16203 ], [ 101.73985, 3.16203 ], [ 101.73935, 3.16453 ], [ 101.73513, 3.16424 ], [ 101.73485, 3.17167 ], [ 101.73303, 3.17283 ], [ 101.73107, 3.17155 ], [ 101.73343, 3.17806 ], [ 101.75004, 3.17548 ], [ 101.75537, 3.18003 ], [ 101.75702, 3.18435 ], [ 101.75558, 3.18466 ], [ 101.75614, 3.18586 ], [ 101.75793, 3.18503 ], [ 101.75883, 3.18818 ], [ 101.75637, 3.19697 ], [ 101.75372, 3.20035 ], [ 101.75081, 3.20025 ], [ 101.75041, 3.20243 ], [ 101.74734, 3.20271 ], [ 101.74594, 3.2094 ], [ 101.7407, 3.21509 ], [ 101.73799, 3.21576 ], [ 101.73935, 3.21738 ], [ 101.73931, 3.22243 ], [ 101.74367, 3.22807 ], [ 101.73973, 3.23366 ], [ 101.7386, 3.23374 ], [ 101.73929, 3.23196 ], [ 101.73215, 3.2318 ], [ 101.7301, 3.23355 ], [ 101.72481, 3.22819 ], [ 101.72376, 3.22921 ], [ 101.72373, 3.22715 ], [ 101.71833, 3.2212 ], [ 101.7183, 3.21811 ], [ 101.71552, 3.21805 ], [ 101.71485, 3.21455 ], [ 101.71723, 3.21527 ], [ 101.71476, 3.2127 ], [ 101.70984, 3.21618 ], [ 101.70849, 3.21497 ], [ 101.70247, 3.21637 ], [ 101.70152, 3.22343 ], [ 101.69675, 3.22341 ], [ 101.69695, 3.22833 ], [ 101.67202, 3.22797 ], [ 101.67313, 3.23283 ], [ 101.6654, 3.24472 ], [ 101.6662, 3.25033 ], [ 101.66783, 3.25158 ], [ 101.67186, 3.24704 ], [ 101.67507, 3.24871 ], [ 101.67524, 3.25247 ], [ 101.67284, 3.25457 ], [ 101.67231, 3.2597 ], [ 101.67942, 3.26362 ], [ 101.6786, 3.27216 ], [ 101.6674, 3.27282 ], [ 101.66315, 3.27624 ], [ 101.66545, 3.27607 ], [ 101.66771, 3.27951 ], [ 101.67002, 3.2872 ], [ 101.66862, 3.29241 ], [ 101.66584, 3.29561 ], [ 101.6678, 3.30343 ], [ 101.66534, 3.31013 ], [ 101.66892, 3.32839 ], [ 101.67672, 3.33928 ], [ 101.67905, 3.33824 ], [ 101.68022, 3.33227 ], [ 101.68211, 3.33267 ], [ 101.68611, 3.33665 ], [ 101.68648, 3.33967 ], [ 101.69263, 3.34272 ], [ 101.69527, 3.34852 ], [ 101.70019, 3.35146 ], [ 101.70208, 3.36107 ], [ 101.70644, 3.36381 ], [ 101.70977, 3.37387 ], [ 101.71207, 3.37566 ], [ 101.71361, 3.38357 ], [ 101.71585, 3.3848 ], [ 101.71708, 3.38823 ], [ 101.72052, 3.38837 ] ] ] } },
{ "type": "Feature", "properties": { "state": "Selangor", "parlimen": "P.099 Ampang", "district": "Gombak" }, "geometry": { "type": "Polygon", "coordinates": [ [ [ 101.81136, 3.21601 ], [ 101.81368, 3.20658 ], [ 101.81226, 3.20302 ], [ 101.80258, 3.18436 ], [ 101.80428, 3.17927 ], [ 101.80297, 3.17814 ], [ 101.8116, 3.15754 ], [ 101.80846, 3.14807 ], [ 101.79151, 3.12879 ], [ 101.78712, 3.12927 ], [ 101.78764, 3.13102 ], [ 101.78095, 3.13072 ], [ 101.77505, 3.13242 ], [ 101.77522, 3.12949 ], [ 101.77781, 3.12832 ], [ 101.77516, 3.12627 ], [ 101.77631, 3.12394 ], [ 101.77496, 3.12183 ], [ 101.76716, 3.12077 ], [ 101.76674, 3.1238 ], [ 101.76932, 3.13047 ], [ 101.76607, 3.1349 ], [ 101.76179, 3.13237 ], [ 101.75736, 3.13331 ], [ 101.75745, 3.13669 ], [ 101.75326, 3.14093 ], [ 101.75855, 3.15236 ], [ 101.74839, 3.15817 ], [ 101.75208, 3.16299 ], [ 101.7426, 3.1659 ], [ 101.74495, 3.16813 ], [ 101.75079, 3.16854 ], [ 101.755, 3.17127 ], [ 101.75658, 3.17727 ], [ 101.76045, 3.1831 ], [ 101.76246, 3.19578 ], [ 101.76677, 3.19506 ], [ 101.76554, 3.19339 ], [ 101.76858, 3.19212 ], [ 101.7676, 3.19679 ], [ 101.7713, 3.19957 ], [ 101.76864, 3.19934 ], [ 101.77036, 3.20702 ], [ 101.77619, 3.21302 ], [ 101.78034, 3.21434 ], [ 101.78117, 3.21832 ], [ 101.78885, 3.21808 ], [ 101.79019, 3.21528 ], [ 101.7897, 3.20854 ], [ 101.79491, 3.21512 ], [ 101.79923, 3.21664 ], [ 101.81073, 3.22847 ], [ 101.81367, 3.22971 ], [ 101.81655, 3.2289 ], [ 101.817, 3.22529 ], [ 101.81136, 3.21601 ] ] ] } },
{ "type": "Feature", "properties": { "state": "Selangor", "parlimen": "P.100 Pandan", "district": "Ulu Langat" }, "geometry": { "type": "Polygon", "coordinates": [ [ [ 101.75019, 3.15732 ], [ 101.75855, 3.15236 ], [ 101.75326, 3.14093 ], [ 101.75745, 3.13669 ], [ 101.75736, 3.13331 ], [ 101.76179, 3.13237 ], [ 101.76607, 3.1349 ], [ 101.76932, 3.13047 ], [ 101.76674, 3.1238 ], [ 101.76716, 3.12077 ], [ 101.77496, 3.12183 ], [ 101.77631, 3.12394 ], [ 101.77516, 3.12627 ], [ 101.77781, 3.12832 ], [ 101.77522, 3.12949 ], [ 101.77505, 3.13242 ], [ 101.78095, 3.13072 ], [ 101.78764, 3.13102 ], [ 101.78712, 3.12927 ], [ 101.79151, 3.12879 ], [ 101.7842, 3.11957 ], [ 101.78187, 3.11544 ], [ 101.78297, 3.11479 ], [ 101.74688, 3.08301 ], [ 101.74863, 3.08131 ], [ 101.74723, 3.08059 ], [ 101.74475, 3.08421 ], [ 101.74503, 3.08629 ], [ 101.75108, 3.09226 ], [ 101.75245, 3.09714 ], [ 101.75052, 3.10128 ], [ 101.75354, 3.10434 ], [ 101.75171, 3.10744 ], [ 101.74662, 3.10984 ], [ 101.74771, 3.11097 ], [ 101.74567, 3.11013 ], [ 101.74453, 3.11147 ], [ 101.74387, 3.10959 ], [ 101.74108, 3.1098 ], [ 101.73795, 3.11345 ], [ 101.73738, 3.11753 ], [ 101.73926, 3.11868 ], [ 101.74081, 3.12407 ], [ 101.73486, 3.13554 ], [ 101.7407, 3.14298 ], [ 101.73957, 3.14528 ], [ 101.74143, 3.14834 ], [ 101.7406, 3.15082 ], [ 101.74672, 3.14949 ], [ 101.74697, 3.15366 ], [ 101.75019, 3.15732 ] ] ] } },
{ "type": "Feature", "properties": { "state": "Selangor", "parlimen": "P.101 Hulu Langat", "district": "Ulu Langat" }, "geometry": { "type": "Polygon", "coordinates": [ [ [ 101.85361, 3.2757 ], [ 101.86285, 3.27028 ], [ 101.86953, 3.26996 ], [ 101.87523, 3.27193 ], [ 101.87772, 3.26767 ], [ 101.88545, 3.26073 ], [ 101.8904, 3.26016 ], [ 101.8937, 3.26552 ], [ 101.8991, 3.26645 ], [ 101.90784, 3.26316 ], [ 101.90994, 3.25844 ], [ 101.91376, 3.26003 ], [ 101.9253, 3.26016 ], [ 101.92825, 3.25756 ], [ 101.92851, 3.25434 ], [ 101.93127, 3.254 ], [ 101.93472, 3.25037 ], [ 101.93079, 3.24486 ], [ 101.93313, 3.24078 ], [ 101.94068, 3.23487 ], [ 101.94708, 3.22219 ], [ 101.94904, 3.2145 ], [ 101.94795, 3.21048 ], [ 101.95025, 3.20675 ], [ 101.94545, 3.20474 ], [ 101.94763, 3.19165 ], [ 101.94033, 3.1843 ], [ 101.94456, 3.18114 ], [ 101.94754, 3.16668 ], [ 101.95132, 3.15926 ], [ 101.95545, 3.15824 ], [ 101.95881, 3.15164 ], [ 101.95779, 3.1455 ], [ 101.96614, 3.13959 ], [ 101.96391, 3.13787 ], [ 101.9618, 3.13247 ], [ 101.96244, 3.12322 ], [ 101.95726, 3.11577 ], [ 101.94916, 3.11214 ], [ 101.94889, 3.10516 ], [ 101.95086, 3.10117 ], [ 101.95428, 3.0987 ], [ 101.95835, 3.08151 ], [ 101.9625, 3.07664 ], [ 101.96157, 3.06752 ], [ 101.95924, 3.062 ], [ 101.96729, 3.05697 ], [ 101.96415, 3.05207 ], [ 101.96764, 3.04505 ], [ 101.96973, 3.02905 ], [ 101.96804, 3.02516 ], [ 101.96428, 3.02602 ], [ 101.96185, 3.02408 ], [ 101.95519, 3.0255 ], [ 101.94653, 3.01609 ], [ 101.94163, 3.01615 ], [ 101.93978, 3.01466 ], [ 101.9411, 3.00923 ], [ 101.94333, 3.00732 ], [ 101.94274, 3.00393 ], [ 101.93946, 2.99794 ], [ 101.93329, 2.99858 ], [ 101.93137, 2.99716 ], [ 101.92974, 2.97857 ], [ 101.92407, 2.9735 ], [ 101.9236, 2.9686 ], [ 101.88176, 2.866 ], [ 101.78985, 2.86901 ], [ 101.78485, 2.87666 ], [ 101.76834, 2.88674 ], [ 101.76691, 2.89804 ], [ 101.7754, 2.89635 ], [ 101.78352, 2.88856 ], [ 101.78186, 2.89244 ], [ 101.78877, 2.89292 ], [ 101.79287, 2.89586 ], [ 101.80081, 2.89743 ], [ 101.80069, 2.9146 ], [ 101.79639, 2.91455 ], [ 101.79403, 2.9306 ], [ 101.80959, 2.93041 ], [ 101.80844, 2.93391 ], [ 101.82006, 2.93772 ], [ 101.82234, 2.94142 ], [ 101.82114, 2.9433 ], [ 101.82132, 2.95368 ], [ 101.82397, 2.95118 ], [ 101.82954, 2.95117 ], [ 101.83006, 2.96053 ], [ 101.83157, 2.96151 ], [ 101.83156, 2.96435 ], [ 101.83455, 2.96678 ], [ 101.83328, 2.97043 ], [ 101.83509, 2.96941 ], [ 101.83601, 2.97248 ], [ 101.83311, 2.97631 ], [ 101.84153, 2.98706 ], [ 101.846, 2.99605 ], [ 101.84, 2.99975 ], [ 101.83996, 3.00535 ], [ 101.83692, 3.00498 ], [ 101.83678, 3.00991 ], [ 101.82685, 3.00809 ], [ 101.82499, 3.01106 ], [ 101.81976, 3.0103 ], [ 101.82282, 3.00751 ], [ 101.81325, 2.99739 ], [ 101.80795, 3.00242 ], [ 101.80403, 3.00126 ], [ 101.80152, 3.00947 ], [ 101.7951, 3.01207 ], [ 101.81084, 3.02545 ], [ 101.81769, 3.02913 ], [ 101.82026, 3.0314 ], [ 101.81915, 3.03227 ], [ 101.8247, 3.03492 ], [ 101.82763, 3.03466 ], [ 101.82968, 3.03674 ], [ 101.83087, 3.03598 ], [ 101.83456, 3.03867 ], [ 101.84464, 3.05363 ], [ 101.83215, 3.05675 ], [ 101.84087, 3.08276 ], [ 101.83779, 3.09644 ], [ 101.83979, 3.09875 ], [ 101.83654, 3.10147 ], [ 101.83806, 3.10765 ], [ 101.8366, 3.11034 ], [ 101.82532, 3.11366 ], [ 101.81687, 3.10894 ], [ 101.81147, 3.10896 ], [ 101.81281, 3.1083 ], [ 101.80913, 3.10506 ], [ 101.80928, 3.10168 ], [ 101.80765, 3.10165 ], [ 101.8083, 3.09861 ], [ 101.80365, 3.09832 ], [ 101.8021, 3.09967 ], [ 101.78853, 3.08468 ], [ 101.7874, 3.08193 ], [ 101.78886, 3.08064 ], [ 101.78591, 3.08063 ], [ 101.78278, 3.07614 ], [ 101.78501, 3.06697 ], [ 101.78445, 3.06509 ], [ 101.78135, 3.06385 ], [ 101.78155, 3.06077 ], [ 101.77937, 3.05946 ], [ 101.78058, 3.05669 ], [ 101.77915, 3.05483 ], [ 101.77979, 3.05186 ], [ 101.77724, 3.04975 ], [ 101.77554, 3.04997 ], [ 101.77366, 3.05373 ], [ 101.77134, 3.05375 ], [ 101.771, 3.05944 ], [ 101.75737, 3.06072 ], [ 101.75551, 3.06665 ], [ 101.75213, 3.06653 ], [ 101.75367, 3.06884 ], [ 101.74987, 3.06893 ], [ 101.74947, 3.07618 ], [ 101.74762, 3.07619 ], [ 101.74784, 3.0787 ], [ 101.74571, 3.08178 ], [ 101.7481, 3.08075 ], [ 101.74688, 3.08301 ], [ 101.78297, 3.11479 ], [ 101.78187, 3.11544 ], [ 101.78899, 3.1263 ], [ 101.80803, 3.14724 ], [ 101.8116, 3.15754 ], [ 101.80297, 3.17814 ], [ 101.80428, 3.17927 ], [ 101.80258, 3.18436 ], [ 101.81368, 3.20658 ], [ 101.8113, 3.21563 ], [ 101.81546, 3.22125 ], [ 101.81655, 3.2289 ], [ 101.83062, 3.25 ], [ 101.83067, 3.25774 ], [ 101.84046, 3.26426 ], [ 101.84421, 3.27213 ], [ 101.85007, 3.27172 ], [ 101.85361, 3.2757 ] ] ] } },
{ "type": "Feature", "properties": { "state": "Selangor", "parlimen": "P.102 Bangi", "district": "Ulu Langat" }, "geometry": { "type": "Polygon", "coordinates": [ [ [ 101.82711, 3.1129 ], [ 101.83668, 3.1103 ], [ 101.83806, 3.10765 ], [ 101.83654, 3.10147 ], [ 101.83979, 3.09875 ], [ 101.83779, 3.09644 ], [ 101.84087, 3.08276 ], [ 101.83215, 3.05675 ], [ 101.84464, 3.05363 ], [ 101.83456, 3.03867 ], [ 101.83087, 3.03598 ], [ 101.82968, 3.03674 ], [ 101.82763, 3.03466 ], [ 101.8247, 3.03492 ], [ 101.81915, 3.03227 ], [ 101.82026, 3.0314 ], [ 101.81769, 3.02913 ], [ 101.81084, 3.02545 ], [ 101.7951, 3.01207 ], [ 101.80152, 3.00947 ], [ 101.80403, 3.00126 ], [ 101.80795, 3.00242 ], [ 101.81325, 2.99739 ], [ 101.82282, 3.00751 ], [ 101.81976, 3.0103 ], [ 101.82499, 3.01106 ], [ 101.82685, 3.00809 ], [ 101.83678, 3.00991 ], [ 101.83692, 3.00498 ], [ 101.83996, 3.00535 ], [ 101.84, 2.99975 ], [ 101.846, 2.99605 ], [ 101.84153, 2.98706 ], [ 101.83311, 2.97631 ], [ 101.83601, 2.97248 ], [ 101.83509, 2.96941 ], [ 101.83328, 2.97043 ], [ 101.83455, 2.96678 ], [ 101.83156, 2.96435 ], [ 101.83157, 2.96151 ], [ 101.83006, 2.96053 ], [ 101.82954, 2.95117 ], [ 101.82397, 2.95118 ], [ 101.82132, 2.95368 ], [ 101.82114, 2.9433 ], [ 101.82234, 2.94142 ], [ 101.82006, 2.93772 ], [ 101.80844, 2.93391 ], [ 101.80959, 2.93041 ], [ 101.79403, 2.9306 ], [ 101.79639, 2.91455 ], [ 101.80069, 2.9146 ], [ 101.80081, 2.89743 ], [ 101.79287, 2.89586 ], [ 101.78877, 2.89292 ], [ 101.78186, 2.89244 ], [ 101.78352, 2.88856 ], [ 101.78211, 2.8888 ], [ 101.7754, 2.89635 ], [ 101.76667, 2.89806 ], [ 101.7655, 2.90635 ], [ 101.75684, 2.91579 ], [ 101.75655, 2.92994 ], [ 101.75293, 2.94004 ], [ 101.75104, 2.9531 ], [ 101.74339, 2.96731 ], [ 101.74222, 2.98206 ], [ 101.73522, 2.99528 ], [ 101.72642, 3.00307 ], [ 101.72303, 3.00846 ], [ 101.72661, 3.01019 ], [ 101.73394, 3.00976 ], [ 101.73359, 3.01099 ], [ 101.73095, 3.01042 ], [ 101.73108, 3.01369 ], [ 101.7239, 3.01533 ], [ 101.72826, 3.02399 ], [ 101.73198, 3.02361 ], [ 101.73841, 3.02639 ], [ 101.73821, 3.03724 ], [ 101.7305, 3.03753 ], [ 101.73038, 3.05485 ], [ 101.74949, 3.05477 ], [ 101.74969, 3.06892 ], [ 101.75367, 3.06884 ], [ 101.75213, 3.06653 ], [ 101.75551, 3.06665 ], [ 101.75737, 3.06072 ], [ 101.771, 3.05944 ], [ 101.77134, 3.05375 ], [ 101.77366, 3.05373 ], [ 101.77554, 3.04997 ], [ 101.77724, 3.04975 ], [ 101.77979, 3.05186 ], [ 101.77915, 3.05483 ], [ 101.78058, 3.05669 ], [ 101.77937, 3.05946 ], [ 101.78155, 3.06077 ], [ 101.78135, 3.06385 ], [ 101.78445, 3.06509 ], [ 101.78501, 3.06697 ], [ 101.78252, 3.07559 ], [ 101.78591, 3.08063 ], [ 101.78886, 3.08064 ], [ 101.7874, 3.08193 ], [ 101.78853, 3.08468 ], [ 101.8021, 3.09967 ], [ 101.80365, 3.09832 ], [ 101.8083, 3.09861 ], [ 101.80765, 3.10165 ], [ 101.80928, 3.10168 ], [ 101.80836, 3.10334 ], [ 101.81281, 3.1083 ], [ 101.81172, 3.10919 ], [ 101.81687, 3.10894 ], [ 101.82173, 3.11274 ], [ 101.82711, 3.1129 ] ] ] } },
{ "type": "Feature", "properties": { "state": "Selangor", "parlimen": "P.103 Puchong", "district": "Petaling" }, "geometry": { "type": "Polygon", "coordinates": [ [ [ 101.71495, 3.05328 ], [ 101.7155, 3.04871 ], [ 101.71674, 3.04951 ], [ 101.71592, 3.04638 ], [ 101.71957, 3.04704 ], [ 101.72104, 3.04014 ], [ 101.72307, 3.04073 ], [ 101.72414, 3.03872 ], [ 101.72404, 3.03614 ], [ 101.72213, 3.03611 ], [ 101.72228, 3.03337 ], [ 101.72873, 3.03751 ], [ 101.73052, 3.03511 ], [ 101.7305, 3.03753 ], [ 101.73821, 3.03724 ], [ 101.73841, 3.02639 ], [ 101.73198, 3.02361 ], [ 101.72826, 3.02399 ], [ 101.7239, 3.01533 ], [ 101.73108, 3.01369 ], [ 101.73095, 3.01042 ], [ 101.73359, 3.01099 ], [ 101.73394, 3.00976 ], [ 101.72661, 3.01019 ], [ 101.72303, 3.00846 ], [ 101.72105, 3.01182 ], [ 101.71751, 3.00829 ], [ 101.71914, 2.99272 ], [ 101.71831, 2.98914 ], [ 101.71348, 2.98631 ], [ 101.71416, 2.98379 ], [ 101.68122, 2.98076 ], [ 101.5842, 2.97988 ], [ 101.57697, 2.97677 ], [ 101.57552, 2.97968 ], [ 101.57841, 2.97962 ], [ 101.57962, 2.98122 ], [ 101.58512, 3.00063 ], [ 101.58267, 3.00153 ], [ 101.58317, 3.00714 ], [ 101.58596, 3.00823 ], [ 101.58445, 3.01571 ], [ 101.58908, 3.02646 ], [ 101.58919, 3.03354 ], [ 101.59401, 3.03414 ], [ 101.59405, 3.03934 ], [ 101.60088, 3.03935 ], [ 101.59692, 3.02037 ], [ 101.59908, 3.02038 ], [ 101.596, 3.01289 ], [ 101.60098, 3.01212 ], [ 101.59976, 3.00779 ], [ 101.60276, 3.00781 ], [ 101.60278, 3.00543 ], [ 101.6007, 3.00544 ], [ 101.6007, 3.0042 ], [ 101.61891, 3.00439 ], [ 101.61868, 2.9994 ], [ 101.62154, 2.99688 ], [ 101.62442, 3.00114 ], [ 101.63237, 2.99988 ], [ 101.63107, 3.02133 ], [ 101.62871, 3.03182 ], [ 101.6675, 3.01837 ], [ 101.67094, 3.0164 ], [ 101.67493, 3.01021 ], [ 101.68106, 3.01029 ], [ 101.681, 3.02686 ], [ 101.68826, 3.03268 ], [ 101.68449, 3.04429 ], [ 101.6867, 3.04519 ], [ 101.69081, 3.04318 ], [ 101.69273, 3.04514 ], [ 101.69902, 3.04501 ], [ 101.69868, 3.04823 ], [ 101.7062, 3.04897 ], [ 101.70629, 3.04574 ], [ 101.70801, 3.04591 ], [ 101.71074, 3.05351 ], [ 101.71495, 3.05328 ] ] ] } },
{ "type": "Feature", "properties": { "state": "Selangor", "parlimen": "P.104 Subang", "district": "Petaling" }, "geometry": { "type": "Polygon", "coordinates": [ [ [ 101.59955, 3.08302 ], [ 101.60553, 3.08299 ], [ 101.60233, 3.07729 ], [ 101.59781, 3.07616 ], [ 101.59836, 3.07307 ], [ 101.61749, 3.07483 ], [ 101.6175, 3.07214 ], [ 101.61902, 3.07189 ], [ 101.62428, 3.07329 ], [ 101.63341, 3.07017 ], [ 101.64595, 3.07064 ], [ 101.65092, 3.06934 ], [ 101.65161, 3.06701 ], [ 101.6486, 3.06276 ], [ 101.64962, 3.05993 ], [ 101.64804, 3.05706 ], [ 101.65216, 3.05914 ], [ 101.6531, 3.05739 ], [ 101.65933, 3.05876 ], [ 101.65927, 3.04943 ], [ 101.65312, 3.05077 ], [ 101.65113, 3.0459 ], [ 101.66861, 3.04526 ], [ 101.6684, 3.04042 ], [ 101.67875, 3.04143 ], [ 101.68449, 3.04429 ], [ 101.68826, 3.03268 ], [ 101.681, 3.02686 ], [ 101.68106, 3.01029 ], [ 101.67493, 3.01021 ], [ 101.67094, 3.0164 ], [ 101.6675, 3.01837 ], [ 101.62959, 3.03233 ], [ 101.6285, 3.03169 ], [ 101.63107, 3.02133 ], [ 101.63237, 2.99988 ], [ 101.62442, 3.00114 ], [ 101.62154, 2.99688 ], [ 101.61868, 2.9994 ], [ 101.61891, 3.00439 ], [ 101.6007, 3.0042 ], [ 101.6007, 3.00544 ], [ 101.60278, 3.00543 ], [ 101.60276, 3.00781 ], [ 101.59976, 3.00779 ], [ 101.60098, 3.01212 ], [ 101.596, 3.01289 ], [ 101.59908, 3.02038 ], [ 101.59692, 3.02037 ], [ 101.60088, 3.03935 ], [ 101.59405, 3.03934 ], [ 101.59401, 3.03414 ], [ 101.58919, 3.03354 ], [ 101.58752, 3.02219 ], [ 101.58623, 3.02108 ], [ 101.58163, 3.02231 ], [ 101.5797, 3.02846 ], [ 101.57471, 3.0302 ], [ 101.57189, 3.03922 ], [ 101.56502, 3.0508 ], [ 101.56904, 3.05446 ], [ 101.56914, 3.061 ], [ 101.5724, 3.06299 ], [ 101.57306, 3.08181 ], [ 101.58086, 3.08223 ], [ 101.58652, 3.08499 ], [ 101.59955, 3.08302 ] ] ] } },
{ "type": "Feature", "properties": { "state": "Selangor", "parlimen": "P.105 Petaling Jaya", "district": "Petaling" }, "geometry": { "type": "Polygon", "coordinates": [ [ [ 101.63702, 3.13103 ], [ 101.64768, 3.12679 ], [ 101.64295, 3.11892 ], [ 101.64923, 3.11716 ], [ 101.65211, 3.10997 ], [ 101.65906, 3.11281 ], [ 101.65761, 3.10953 ], [ 101.65899, 3.1093 ], [ 101.66038, 3.09972 ], [ 101.65878, 3.09043 ], [ 101.66027, 3.09065 ], [ 101.66363, 3.08628 ], [ 101.65953, 3.08484 ], [ 101.65978, 3.08019 ], [ 101.64607, 3.07068 ], [ 101.64263, 3.06977 ], [ 101.63125, 3.07054 ], [ 101.62428, 3.07329 ], [ 101.6175, 3.07214 ], [ 101.61749, 3.07483 ], [ 101.59836, 3.07307 ], [ 101.59781, 3.07616 ], [ 101.60233, 3.07729 ], [ 101.60553, 3.08299 ], [ 101.58897, 3.08487 ], [ 101.58086, 3.08223 ], [ 101.57256, 3.0818 ], [ 101.55697, 3.07538 ], [ 101.55455, 3.08405 ], [ 101.555, 3.09347 ], [ 101.54997, 3.09283 ], [ 101.54637, 3.1023 ], [ 101.53412, 3.10985 ], [ 101.52617, 3.126 ], [ 101.52623, 3.12728 ], [ 101.54706, 3.1271 ], [ 101.55535, 3.11526 ], [ 101.5586, 3.10291 ], [ 101.56781, 3.11662 ], [ 101.56836, 3.12715 ], [ 101.59597, 3.12714 ], [ 101.59192, 3.10924 ], [ 101.59589, 3.10928 ], [ 101.59613, 3.10652 ], [ 101.60779, 3.10731 ], [ 101.61017, 3.10618 ], [ 101.60707, 3.10059 ], [ 101.60702, 3.09131 ], [ 101.6152, 3.09135 ], [ 101.61523, 3.08758 ], [ 101.61992, 3.08684 ], [ 101.61994, 3.08428 ], [ 101.62418, 3.08481 ], [ 101.62121, 3.08922 ], [ 101.62137, 3.09811 ], [ 101.62615, 3.0981 ], [ 101.62585, 3.10429 ], [ 101.62921, 3.10595 ], [ 101.63059, 3.11088 ], [ 101.62641, 3.11272 ], [ 101.6272, 3.11586 ], [ 101.62544, 3.11791 ], [ 101.62811, 3.13085 ], [ 101.63475, 3.13098 ], [ 101.63561, 3.13233 ], [ 101.63702, 3.13103 ] ] ] } },
{ "type": "Feature", "properties": { "state": "Selangor", "parlimen": "P.106 Damansara", "district": "Petaling" }, "geometry": { "type": "Polygon", "coordinates": [ [ [ 101.61197, 3.25022 ], [ 101.63419, 3.24949 ], [ 101.6368, 3.24681 ], [ 101.64491, 3.24525 ], [ 101.64465, 3.24202 ], [ 101.6478, 3.24106 ], [ 101.6504, 3.24233 ], [ 101.65008, 3.23982 ], [ 101.65196, 3.2407 ], [ 101.65408, 3.23811 ], [ 101.65291, 3.23741 ], [ 101.65379, 3.23514 ], [ 101.64658, 3.23492 ], [ 101.64609, 3.23262 ], [ 101.64026, 3.23179 ], [ 101.63822, 3.22872 ], [ 101.63645, 3.22866 ], [ 101.63926, 3.22171 ], [ 101.63639, 3.21591 ], [ 101.6339, 3.21728 ], [ 101.63332, 3.21338 ], [ 101.63136, 3.21231 ], [ 101.62501, 3.19958 ], [ 101.61863, 3.19653 ], [ 101.61963, 3.17863 ], [ 101.61681, 3.16997 ], [ 101.61508, 3.15284 ], [ 101.61796, 3.14966 ], [ 101.61918, 3.14515 ], [ 101.62291, 3.14197 ], [ 101.62652, 3.14146 ], [ 101.6296, 3.137 ], [ 101.62946, 3.13056 ], [ 101.62811, 3.13085 ], [ 101.62544, 3.11791 ], [ 101.6272, 3.11586 ], [ 101.62641, 3.11272 ], [ 101.63059, 3.11088 ], [ 101.62921, 3.10595 ], [ 101.62585, 3.10429 ], [ 101.62615, 3.0981 ], [ 101.62137, 3.09811 ], [ 101.62121, 3.08922 ], [ 101.62418, 3.08481 ], [ 101.61994, 3.08428 ], [ 101.61992, 3.08684 ], [ 101.61523, 3.08758 ], [ 101.6152, 3.09135 ], [ 101.60702, 3.09131 ], [ 101.60707, 3.10059 ], [ 101.61017, 3.10618 ], [ 101.60779, 3.10731 ], [ 101.59613, 3.10652 ], [ 101.59589, 3.10928 ], [ 101.59192, 3.10924 ], [ 101.59597, 3.12714 ], [ 101.59812, 3.15668 ], [ 101.59708, 3.16775 ], [ 101.60137, 3.17811 ], [ 101.59714, 3.18316 ], [ 101.58339, 3.19013 ], [ 101.58269, 3.20518 ], [ 101.57646, 3.20768 ], [ 101.5734, 3.21103 ], [ 101.58121, 3.21389 ], [ 101.5805, 3.21684 ], [ 101.58548, 3.21827 ], [ 101.58973, 3.21821 ], [ 101.59073, 3.21673 ], [ 101.59914, 3.22022 ], [ 101.60396, 3.23006 ], [ 101.59328, 3.22949 ], [ 101.57967, 3.23537 ], [ 101.61197, 3.25022 ] ] ] } },
{ "type": "Feature", "properties": { "state": "Selangor", "parlimen": "P.107 Sungai Buloh", "district": "Petaling" }, "geometry": { "type": "Polygon", "coordinates": [ [ [ 101.55809, 3.25414 ], [ 101.56875, 3.25259 ], [ 101.57183, 3.24742 ], [ 101.57375, 3.2504 ], [ 101.57967, 3.23537 ], [ 101.59328, 3.22949 ], [ 101.60396, 3.23006 ], [ 101.59914, 3.22022 ], [ 101.59073, 3.21673 ], [ 101.58973, 3.21821 ], [ 101.58548, 3.21827 ], [ 101.5805, 3.21684 ], [ 101.58121, 3.21389 ], [ 101.5734, 3.21103 ], [ 101.57646, 3.20768 ], [ 101.58269, 3.20518 ], [ 101.58339, 3.19013 ], [ 101.59714, 3.18316 ], [ 101.60137, 3.17811 ], [ 101.59708, 3.16775 ], [ 101.59812, 3.15668 ], [ 101.59537, 3.12715 ], [ 101.56836, 3.12715 ], [ 101.56781, 3.11662 ], [ 101.5586, 3.10291 ], [ 101.55535, 3.11526 ], [ 101.54706, 3.1271 ], [ 101.52623, 3.12728 ], [ 101.52498, 3.14852 ], [ 101.52282, 3.15432 ], [ 101.52465, 3.15732 ], [ 101.52913, 3.15703 ], [ 101.52913, 3.15907 ], [ 101.52609, 3.15832 ], [ 101.52609, 3.15914 ], [ 101.52631, 3.16094 ], [ 101.52914, 3.16079 ], [ 101.52917, 3.18452 ], [ 101.51531, 3.18099 ], [ 101.51438, 3.17634 ], [ 101.4992, 3.17666 ], [ 101.49916, 3.18242 ], [ 101.49558, 3.18237 ], [ 101.49088, 3.18529 ], [ 101.48889, 3.19173 ], [ 101.48744, 3.19219 ], [ 101.48382, 3.19302 ], [ 101.47675, 3.19123 ], [ 101.46822, 3.19335 ], [ 101.43182, 3.19232 ], [ 101.43179, 3.19422 ], [ 101.43306, 3.19425 ], [ 101.43384, 3.19861 ], [ 101.43883, 3.20237 ], [ 101.43941, 3.21138 ], [ 101.45582, 3.2352 ], [ 101.45945, 3.23974 ], [ 101.46733, 3.24524 ], [ 101.47027, 3.24638 ], [ 101.47889, 3.23705 ], [ 101.48057, 3.23034 ], [ 101.48694, 3.22305 ], [ 101.49258, 3.21962 ], [ 101.49247, 3.23101 ], [ 101.49791, 3.22245 ], [ 101.49978, 3.22262 ], [ 101.50215, 3.21963 ], [ 101.50428, 3.21966 ], [ 101.50546, 3.22234 ], [ 101.50862, 3.22265 ], [ 101.51408, 3.21794 ], [ 101.51616, 3.21905 ], [ 101.52105, 3.21662 ], [ 101.52308, 3.22032 ], [ 101.52675, 3.22095 ], [ 101.53048, 3.21601 ], [ 101.53068, 3.21814 ], [ 101.54734, 3.21808 ], [ 101.55143, 3.22537 ], [ 101.55249, 3.23247 ], [ 101.55944, 3.2322 ], [ 101.56034, 3.24402 ], [ 101.557, 3.24904 ], [ 101.55509, 3.2482 ], [ 101.55352, 3.25005 ], [ 101.55583, 3.25117 ], [ 101.55456, 3.25534 ], [ 101.55809, 3.25414 ] ] ] } },
{ "type": "Feature", "properties": { "state": "Selangor", "parlimen": "P.108 Shah Alam", "district": "Petaling" }, "geometry": { "type": "Polygon", "coordinates": [ [ [ 101.52917, 3.18452 ], [ 101.52914, 3.16079 ], [ 101.52631, 3.16094 ], [ 101.52609, 3.15914 ], [ 101.52913, 3.15907 ], [ 101.52913, 3.15703 ], [ 101.52465, 3.15732 ], [ 101.52282, 3.15432 ], [ 101.52498, 3.14852 ], [ 101.52617, 3.126 ], [ 101.53412, 3.10985 ], [ 101.54637, 3.1023 ], [ 101.54997, 3.09283 ], [ 101.555, 3.09347 ], [ 101.55455, 3.08405 ], [ 101.55697, 3.07538 ], [ 101.57306, 3.08181 ], [ 101.5724, 3.06299 ], [ 101.56914, 3.061 ], [ 101.56904, 3.05446 ], [ 101.56502, 3.0508 ], [ 101.57236, 3.03806 ], [ 101.54892, 3.04222 ], [ 101.54748, 3.03874 ], [ 101.54526, 3.04644 ], [ 101.54113, 3.04472 ], [ 101.53616, 3.03844 ], [ 101.52763, 3.0389 ], [ 101.52773, 3.03633 ], [ 101.52544, 3.03481 ], [ 101.52473, 3.02849 ], [ 101.52264, 3.03614 ], [ 101.51902, 3.02936 ], [ 101.5154, 3.03209 ], [ 101.51043, 3.04328 ], [ 101.50719, 3.03973 ], [ 101.49663, 3.04037 ], [ 101.4955, 3.04165 ], [ 101.49697, 3.047 ], [ 101.49218, 3.04492 ], [ 101.4834, 3.04802 ], [ 101.48029, 3.04689 ], [ 101.47666, 3.04852 ], [ 101.474, 3.04684 ], [ 101.4735, 3.05191 ], [ 101.46923, 3.04748 ], [ 101.46675, 3.04701 ], [ 101.46409, 3.03805 ], [ 101.45609, 3.03929 ], [ 101.45276, 3.04481 ], [ 101.45344, 3.04636 ], [ 101.46377, 3.04756 ], [ 101.46739, 3.05341 ], [ 101.471, 3.05314 ], [ 101.47553, 3.05628 ], [ 101.47229, 3.06447 ], [ 101.45738, 3.06681 ], [ 101.45127, 3.07374 ], [ 101.44935, 3.07322 ], [ 101.44357, 3.09275 ], [ 101.44161, 3.10995 ], [ 101.44453, 3.11012 ], [ 101.44441, 3.1121 ], [ 101.45023, 3.11213 ], [ 101.45018, 3.11346 ], [ 101.45303, 3.11365 ], [ 101.45269, 3.11957 ], [ 101.45495, 3.11941 ], [ 101.45493, 3.13413 ], [ 101.47083, 3.13429 ], [ 101.47242, 3.1522 ], [ 101.47057, 3.15795 ], [ 101.4734, 3.16026 ], [ 101.47343, 3.16581 ], [ 101.47674, 3.17064 ], [ 101.49911, 3.16946 ], [ 101.4992, 3.17666 ], [ 101.51438, 3.17634 ], [ 101.51531, 3.18099 ], [ 101.52917, 3.18452 ] ] ] } },
{ "type": "Feature", "properties": { "state": "Selangor", "parlimen": "P.109 Kapar", "district": "Klang" }, "geometry": { "type": "MultiPolygon", "coordinates": [ [ [ [ 101.25953, 2.92961 ], [ 101.25827, 2.92719 ], [ 101.25955, 2.91658 ], [ 101.25567, 2.9082 ], [ 101.25125, 2.90496 ], [ 101.23434, 2.90166 ], [ 101.23395, 2.92116 ], [ 101.23965, 2.92209 ], [ 101.24442, 2.92531 ], [ 101.24922, 2.92922 ], [ 101.25705, 2.9391 ], [ 101.25934, 2.93843 ], [ 101.25953, 2.92961 ] ] ], [ [ [ 101.24444, 2.92609 ], [ 101.23797, 2.92213 ], [ 101.23525, 2.92187 ], [ 101.23359, 2.92348 ], [ 101.23425, 2.92684 ], [ 101.23169, 2.93064 ], [ 101.23416, 2.94083 ], [ 101.23415, 2.94845 ], [ 101.23627, 2.9531 ], [ 101.24103, 2.95733 ], [ 101.25539, 2.96579 ], [ 101.25866, 2.95156 ], [ 101.25878, 2.94094 ], [ 101.24444, 2.92609 ] ] ], [ [ [ 101.27089, 2.9552 ], [ 101.27808, 2.96709 ], [ 101.28216, 2.96915 ], [ 101.27899, 2.96095 ], [ 101.27089, 2.9552 ] ] ], [ [ [ 101.29314, 2.94702 ], [ 101.29189, 2.94694 ], [ 101.2926, 2.94613 ], [ 101.2746, 2.91701 ], [ 101.2691, 2.91299 ], [ 101.26313, 2.91403 ], [ 101.26319, 2.94376 ], [ 101.26469, 2.94856 ], [ 101.2783, 2.95959 ], [ 101.28915, 2.96553 ], [ 101.29499, 2.97317 ], [ 101.30213, 2.97495 ], [ 101.30418, 2.97362 ], [ 101.29314, 2.94702 ] ] ], [ [ [ 101.30542, 2.97642 ], [ 101.29584, 2.97472 ], [ 101.29158, 2.9709 ], [ 101.2882, 2.96551 ], [ 101.27984, 2.96148 ], [ 101.2826, 2.96849 ], [ 101.2905, 2.97577 ], [ 101.30278, 2.98056 ], [ 101.30587, 2.978 ], [ 101.30542, 2.97642 ] ] ], [ [ [ 101.30809, 2.98023 ], [ 101.30509, 2.98183 ], [ 101.31058, 2.98493 ], [ 101.31266, 2.98417 ], [ 101.3128, 2.98234 ], [ 101.30809, 2.98023 ] ] ], [ [ [ 101.32129, 2.98884 ], [ 101.31457, 2.98437 ], [ 101.3129, 2.98527 ], [ 101.32235, 2.99048 ], [ 101.32129, 2.98884 ] ] ], [ [ [ 101.2231, 3.00015 ], [ 101.22303, 3.00053 ], [ 101.22378, 3.00064 ], [ 101.2231, 3.00015 ] ] ], [ [ [ 101.24927, 3.01613 ], [ 101.26124, 3.01625 ], [ 101.26222, 3.01425 ], [ 101.26208, 3.00293 ], [ 101.26025, 2.99926 ], [ 101.24851, 2.99188 ], [ 101.23807, 2.98011 ], [ 101.23273, 2.97763 ], [ 101.23362, 2.97666 ], [ 101.23104, 2.97115 ], [ 101.2271, 2.96649 ], [ 101.22164, 2.96502 ], [ 101.21861, 2.96626 ], [ 101.21674, 2.96991 ], [ 101.22061, 2.98318 ], [ 101.2229, 2.98467 ], [ 101.22617, 2.98324 ], [ 101.22352, 2.98494 ], [ 101.2244, 2.98561 ], [ 101.22149, 2.98608 ], [ 101.22279, 2.99445 ], [ 101.22511, 2.99503 ], [ 101.22889, 2.99273 ], [ 101.23052, 2.99397 ], [ 101.22486, 2.9981 ], [ 101.22482, 3.00473 ], [ 101.23496, 3.00997 ], [ 101.23593, 3.00849 ], [ 101.23618, 3.01038 ], [ 101.24927, 3.01613 ] ] ], [ [ [ 101.26977, 3.01272 ], [ 101.26648, 3.00991 ], [ 101.26635, 3.01377 ], [ 101.2672, 3.01717 ], [ 101.26684, 3.01257 ], [ 101.26784, 3.01914 ], [ 101.27051, 3.02232 ], [ 101.27159, 3.01625 ], [ 101.26977, 3.01272 ] ] ], [ [ [ 101.25973, 3.05946 ], [ 101.26866, 3.05814 ], [ 101.26965, 3.0571 ], [ 101.26776, 3.05702 ], [ 101.27245, 3.05541 ], [ 101.27773, 3.04892 ], [ 101.28001, 3.04154 ], [ 101.2748, 3.03237 ], [ 101.27159, 3.0311 ], [ 101.25901, 3.01928 ], [ 101.25282, 3.01761 ], [ 101.24736, 3.01816 ], [ 101.22667, 3.00792 ], [ 101.21935, 3.00801 ], [ 101.21837, 3.01181 ], [ 101.22052, 3.0199 ], [ 101.23392, 3.04421 ], [ 101.24499, 3.05421 ], [ 101.25973, 3.05946 ] ] ], [ [ [ 101.32258, 3.06915 ], [ 101.33343, 3.06651 ], [ 101.33762, 3.06121 ], [ 101.33805, 3.05215 ], [ 101.33507, 3.03937 ], [ 101.33497, 3.03054 ], [ 101.33827, 3.01775 ], [ 101.33626, 3.01678 ], [ 101.33886, 3.01065 ], [ 101.33946, 3.00004 ], [ 101.33575, 2.99915 ], [ 101.3331, 2.99539 ], [ 101.29051, 2.97657 ], [ 101.28387, 2.97059 ], [ 101.27863, 2.96812 ], [ 101.26857, 2.95464 ], [ 101.26541, 2.95513 ], [ 101.26613, 2.95348 ], [ 101.26405, 2.95296 ], [ 101.26216, 2.96082 ], [ 101.26322, 2.96055 ], [ 101.26235, 2.96314 ], [ 101.26394, 2.96358 ], [ 101.26228, 2.96382 ], [ 101.26356, 2.97848 ], [ 101.281, 3.00831 ], [ 101.29692, 3.04964 ], [ 101.3052, 3.06342 ], [ 101.31276, 3.06764 ], [ 101.32258, 3.06915 ] ] ], [ [ [ 101.46958, 3.19314 ], [ 101.47675, 3.19123 ], [ 101.48382, 3.19302 ], [ 101.48889, 3.19173 ], [ 101.49088, 3.18529 ], [ 101.49558, 3.18237 ], [ 101.49916, 3.18242 ], [ 101.49911, 3.16946 ], [ 101.47674, 3.17064 ], [ 101.47343, 3.16581 ], [ 101.4734, 3.16026 ], [ 101.47057, 3.15795 ], [ 101.47242, 3.1522 ], [ 101.47083, 3.13429 ], [ 101.45493, 3.13413 ], [ 101.45495, 3.11941 ], [ 101.45269, 3.11957 ], [ 101.45303, 3.11365 ], [ 101.45018, 3.11346 ], [ 101.45023, 3.11213 ], [ 101.44441, 3.1121 ], [ 101.44453, 3.11012 ], [ 101.4417, 3.10893 ], [ 101.42299, 3.1116 ], [ 101.42305, 3.0928 ], [ 101.39397, 3.09282 ], [ 101.3926, 3.09014 ], [ 101.39814, 3.08654 ], [ 101.40537, 3.08303 ], [ 101.41035, 3.08479 ], [ 101.4104, 3.08167 ], [ 101.41232, 3.0816 ], [ 101.41232, 3.07969 ], [ 101.41747, 3.07961 ], [ 101.41748, 3.07826 ], [ 101.43623, 3.07779 ], [ 101.4384, 3.07019 ], [ 101.43362, 3.06704 ], [ 101.44273, 3.0607 ], [ 101.4413, 3.05816 ], [ 101.43279, 3.06299 ], [ 101.43294, 3.06022 ], [ 101.43586, 3.05776 ], [ 101.43117, 3.05292 ], [ 101.42835, 3.05208 ], [ 101.42406, 3.05539 ], [ 101.42392, 3.04921 ], [ 101.42691, 3.04865 ], [ 101.42411, 3.03328 ], [ 101.41489, 3.02477 ], [ 101.41887, 3.02425 ], [ 101.41945, 3.02284 ], [ 101.41061, 3.01304 ], [ 101.40654, 3.01687 ], [ 101.39448, 3.00565 ], [ 101.3966, 3.00139 ], [ 101.39358, 3.00019 ], [ 101.39281, 3.00144 ], [ 101.39086, 3.00028 ], [ 101.39193, 2.99847 ], [ 101.38771, 2.99803 ], [ 101.39141, 2.99299 ], [ 101.38798, 2.99288 ], [ 101.38655, 2.98645 ], [ 101.38298, 2.98992 ], [ 101.37678, 2.98715 ], [ 101.36318, 2.99438 ], [ 101.36452, 3.00026 ], [ 101.35951, 3.01088 ], [ 101.35781, 3.04248 ], [ 101.36046, 3.06088 ], [ 101.35852, 3.06089 ], [ 101.35606, 3.07015 ], [ 101.35867, 3.07114 ], [ 101.35875, 3.07301 ], [ 101.35522, 3.07321 ], [ 101.35439, 3.07439 ], [ 101.35604, 3.07767 ], [ 101.3531, 3.07623 ], [ 101.34829, 3.08308 ], [ 101.3493, 3.08461 ], [ 101.32926, 3.10568 ], [ 101.32704, 3.11078 ], [ 101.31963, 3.11311 ], [ 101.31195, 3.13033 ], [ 101.31208, 3.13489 ], [ 101.31051, 3.13668 ], [ 101.31248, 3.13876 ], [ 101.30936, 3.14421 ], [ 101.30744, 3.16279 ], [ 101.31576, 3.16403 ], [ 101.31569, 3.16541 ], [ 101.32346, 3.15707 ], [ 101.32801, 3.16255 ], [ 101.34328, 3.16193 ], [ 101.34326, 3.17491 ], [ 101.36956, 3.17498 ], [ 101.36954, 3.18588 ], [ 101.40063, 3.18593 ], [ 101.40059, 3.19185 ], [ 101.46958, 3.19314 ] ] ] ] } },
{ "type": "Feature", "properties": { "state": "Selangor", "parlimen": "P.110 Klang", "district": "Klang" }, "geometry": { "type": "Polygon", "coordinates": [ [ [ 101.44354, 3.09297 ], [ 101.44935, 3.07322 ], [ 101.45127, 3.07374 ], [ 101.45738, 3.06681 ], [ 101.47229, 3.06447 ], [ 101.47553, 3.05626 ], [ 101.471, 3.05314 ], [ 101.46739, 3.05341 ], [ 101.46377, 3.04756 ], [ 101.45344, 3.04636 ], [ 101.45276, 3.04481 ], [ 101.4546, 3.04125 ], [ 101.45199, 3.04115 ], [ 101.4513, 3.03414 ], [ 101.44928, 3.03183 ], [ 101.45064, 3.03103 ], [ 101.44967, 3.02951 ], [ 101.44378, 3.02994 ], [ 101.44436, 3.02632 ], [ 101.44245, 3.02596 ], [ 101.43982, 3.01345 ], [ 101.43185, 3.01494 ], [ 101.4321, 3.01069 ], [ 101.42543, 3.01066 ], [ 101.42544, 3.00657 ], [ 101.42817, 3.00659 ], [ 101.42902, 3.00458 ], [ 101.42847, 3.00248 ], [ 101.42547, 3.00124 ], [ 101.42569, 2.99765 ], [ 101.42778, 2.99763 ], [ 101.42764, 2.99127 ], [ 101.42349, 2.99131 ], [ 101.42359, 2.98353 ], [ 101.45228, 2.98378 ], [ 101.46299, 2.97074 ], [ 101.46962, 2.95172 ], [ 101.452, 2.95163 ], [ 101.44329, 2.94967 ], [ 101.42163, 2.94984 ], [ 101.42527, 2.95357 ], [ 101.43686, 2.95897 ], [ 101.43936, 2.96314 ], [ 101.43759, 2.96658 ], [ 101.42814, 2.97408 ], [ 101.4206, 2.97751 ], [ 101.41524, 2.97747 ], [ 101.40983, 2.97249 ], [ 101.40352, 2.95304 ], [ 101.3906, 2.94268 ], [ 101.38801, 2.93874 ], [ 101.38625, 2.91808 ], [ 101.3827, 2.91007 ], [ 101.37885, 2.90571 ], [ 101.37317, 2.90353 ], [ 101.36466, 2.90765 ], [ 101.35546, 2.91742 ], [ 101.35112, 2.9284 ], [ 101.34054, 2.92547 ], [ 101.33699, 2.92123 ], [ 101.33878, 2.9165 ], [ 101.34868, 2.90546 ], [ 101.35022, 2.89906 ], [ 101.34718, 2.89496 ], [ 101.34234, 2.89411 ], [ 101.33986, 2.89519 ], [ 101.32818, 2.90835 ], [ 101.32021, 2.91197 ], [ 101.31506, 2.90901 ], [ 101.30142, 2.8924 ], [ 101.28482, 2.88132 ], [ 101.28278, 2.88393 ], [ 101.2762, 2.88391 ], [ 101.26954, 2.88692 ], [ 101.26826, 2.88982 ], [ 101.27053, 2.89651 ], [ 101.2788, 2.90623 ], [ 101.28096, 2.90473 ], [ 101.28168, 2.90575 ], [ 101.29267, 2.93061 ], [ 101.3095, 2.95932 ], [ 101.31903, 2.9721 ], [ 101.32745, 2.97891 ], [ 101.33352, 2.9815 ], [ 101.33364, 2.98326 ], [ 101.33943, 2.98837 ], [ 101.35469, 2.99609 ], [ 101.36318, 2.99438 ], [ 101.37678, 2.98715 ], [ 101.38124, 2.98983 ], [ 101.38458, 2.98962 ], [ 101.38655, 2.98645 ], [ 101.38798, 2.99288 ], [ 101.39141, 2.99299 ], [ 101.38771, 2.99803 ], [ 101.39193, 2.99847 ], [ 101.39086, 3.00028 ], [ 101.39281, 3.00144 ], [ 101.39358, 3.00019 ], [ 101.3966, 3.00139 ], [ 101.39448, 3.00565 ], [ 101.40654, 3.01687 ], [ 101.41061, 3.01304 ], [ 101.41945, 3.02284 ], [ 101.41887, 3.02425 ], [ 101.41489, 3.02477 ], [ 101.42411, 3.03328 ], [ 101.42691, 3.04865 ], [ 101.42392, 3.04921 ], [ 101.42406, 3.05539 ], [ 101.42835, 3.05208 ], [ 101.43117, 3.05292 ], [ 101.43586, 3.05776 ], [ 101.43294, 3.06022 ], [ 101.43279, 3.06299 ], [ 101.4413, 3.05816 ], [ 101.44258, 3.05983 ], [ 101.43362, 3.06704 ], [ 101.4384, 3.07019 ], [ 101.43623, 3.07779 ], [ 101.41748, 3.07826 ], [ 101.41747, 3.07961 ], [ 101.41232, 3.07969 ], [ 101.41232, 3.0816 ], [ 101.4104, 3.08167 ], [ 101.41035, 3.08479 ], [ 101.40537, 3.08303 ], [ 101.39814, 3.08654 ], [ 101.3926, 3.09014 ], [ 101.39397, 3.09282 ], [ 101.42305, 3.0928 ], [ 101.42326, 3.11171 ], [ 101.4417, 3.10893 ], [ 101.44354, 3.09297 ] ] ] } },
{ "type": "Feature", "properties": { "state": "Selangor", "parlimen": "P.111 Kota Raja", "district": "Klang" }, "geometry": { "type": "Polygon", "coordinates": [ [ [ 101.47371, 3.04757 ], [ 101.4834, 3.04802 ], [ 101.49144, 3.04492 ], [ 101.49697, 3.047 ], [ 101.4955, 3.04165 ], [ 101.49806, 3.04014 ], [ 101.50793, 3.03991 ], [ 101.51043, 3.04328 ], [ 101.5154, 3.03209 ], [ 101.51902, 3.02936 ], [ 101.52264, 3.03614 ], [ 101.52473, 3.02849 ], [ 101.52544, 3.03481 ], [ 101.52773, 3.03633 ], [ 101.52763, 3.0389 ], [ 101.53616, 3.03844 ], [ 101.54113, 3.04472 ], [ 101.54526, 3.04644 ], [ 101.54748, 3.03874 ], [ 101.54892, 3.04222 ], [ 101.57236, 3.03806 ], [ 101.57471, 3.0302 ], [ 101.5797, 3.02846 ], [ 101.58163, 3.02231 ], [ 101.58627, 3.02103 ], [ 101.58427, 3.01419 ], [ 101.5863, 3.01072 ], [ 101.58596, 3.00823 ], [ 101.58317, 3.00714 ], [ 101.58267, 3.00153 ], [ 101.58512, 3.00063 ], [ 101.57962, 2.98122 ], [ 101.56072, 2.97015 ], [ 101.56245, 2.9642 ], [ 101.55004, 2.95764 ], [ 101.54969, 2.96451 ], [ 101.52417, 2.94963 ], [ 101.47019, 2.94985 ], [ 101.46299, 2.97074 ], [ 101.45228, 2.98378 ], [ 101.42359, 2.98353 ], [ 101.42349, 2.99131 ], [ 101.42764, 2.99127 ], [ 101.42778, 2.99763 ], [ 101.42569, 2.99765 ], [ 101.42547, 3.00124 ], [ 101.42847, 3.00248 ], [ 101.42902, 3.00458 ], [ 101.42817, 3.00659 ], [ 101.42544, 3.00657 ], [ 101.42543, 3.01066 ], [ 101.4321, 3.01069 ], [ 101.43185, 3.01494 ], [ 101.43982, 3.01345 ], [ 101.44245, 3.02596 ], [ 101.44436, 3.02632 ], [ 101.44378, 3.02994 ], [ 101.44967, 3.02951 ], [ 101.45199, 3.04115 ], [ 101.46295, 3.03754 ], [ 101.46507, 3.03922 ], [ 101.46499, 3.04334 ], [ 101.46749, 3.04779 ], [ 101.46923, 3.04748 ], [ 101.4735, 3.05191 ], [ 101.47371, 3.04757 ] ] ] } },
{ "type": "Feature", "properties": { "state": "W.P. Kuala Lumpur", "parlimen": "P.114 Kepong", "district": "W.P. Kuala Lumpur" }, "geometry": { "type": "Polygon", "coordinates": [ [ [ 101.6461, 3.2326 ], [ 101.64522, 3.22858 ], [ 101.65085, 3.22908 ], [ 101.65085, 3.22705 ], [ 101.65909, 3.22735 ], [ 101.65902, 3.22447 ], [ 101.66254, 3.22424 ], [ 101.66375, 3.20885 ], [ 101.66704, 3.20569 ], [ 101.66586, 3.2021 ], [ 101.66498, 3.20267 ], [ 101.66281, 3.19952 ], [ 101.66501, 3.19419 ], [ 101.66163, 3.19226 ], [ 101.6584, 3.19965 ], [ 101.65219, 3.19961 ], [ 101.65206, 3.19588 ], [ 101.65096, 3.19372 ], [ 101.64922, 3.19448 ], [ 101.64752, 3.1888 ], [ 101.64416, 3.19028 ], [ 101.64298, 3.18782 ], [ 101.64106, 3.18891 ], [ 101.64103, 3.1986 ], [ 101.63255, 3.20741 ], [ 101.6293, 3.20875 ], [ 101.63329, 3.21321 ], [ 101.63394, 3.21733 ], [ 101.63638, 3.21604 ], [ 101.6392, 3.22166 ], [ 101.6365, 3.22863 ], [ 101.64029, 3.23174 ], [ 101.6461, 3.2326 ] ] ] } },
{ "type": "Feature", "properties": { "state": "W.P. Kuala Lumpur", "parlimen": "P.115 Batu", "district": "W.P. Kuala Lumpur" }, "geometry": { "type": "Polygon", "coordinates": [ [ [ 101.66633, 3.24345 ], [ 101.67318, 3.23272 ], [ 101.67214, 3.22801 ], [ 101.69693, 3.22829 ], [ 101.69343, 3.2184 ], [ 101.69303, 3.20883 ], [ 101.69602, 3.20298 ], [ 101.69062, 3.19773 ], [ 101.69834, 3.19908 ], [ 101.69964, 3.19139 ], [ 101.70524, 3.19231 ], [ 101.70585, 3.18965 ], [ 101.7025, 3.18697 ], [ 101.70206, 3.18343 ], [ 101.70006, 3.18442 ], [ 101.69822, 3.1774 ], [ 101.69447, 3.17638 ], [ 101.69448, 3.17018 ], [ 101.68084, 3.18167 ], [ 101.68179, 3.18679 ], [ 101.67788, 3.19737 ], [ 101.67392, 3.19968 ], [ 101.67271, 3.19867 ], [ 101.67124, 3.20079 ], [ 101.66813, 3.19752 ], [ 101.66451, 3.20051 ], [ 101.66704, 3.20569 ], [ 101.66375, 3.20885 ], [ 101.66254, 3.22424 ], [ 101.65902, 3.22447 ], [ 101.65909, 3.22735 ], [ 101.65085, 3.22705 ], [ 101.65085, 3.22908 ], [ 101.64522, 3.22858 ], [ 101.64657, 3.23492 ], [ 101.65373, 3.23512 ], [ 101.65379, 3.23698 ], [ 101.65703, 3.23678 ], [ 101.65767, 3.2409 ], [ 101.66055, 3.24155 ], [ 101.66071, 3.24358 ], [ 101.66633, 3.24345 ] ] ] } },
{ "type": "Feature", "properties": { "state": "W.P. Kuala Lumpur", "parlimen": "P.116 Wangsa Maju", "district": "W.P. Kuala Lumpur" }, "geometry": { "type": "Polygon", "coordinates": [ [ [ 101.741, 3.23237 ], [ 101.74395, 3.22797 ], [ 101.73954, 3.22241 ], [ 101.73838, 3.21587 ], [ 101.74082, 3.21508 ], [ 101.74589, 3.20933 ], [ 101.74836, 3.20014 ], [ 101.74595, 3.20006 ], [ 101.74427, 3.20188 ], [ 101.74082, 3.19862 ], [ 101.73714, 3.19786 ], [ 101.73546, 3.20217 ], [ 101.72571, 3.1983 ], [ 101.72182, 3.20344 ], [ 101.70579, 3.18969 ], [ 101.70524, 3.19231 ], [ 101.69964, 3.19139 ], [ 101.69834, 3.19908 ], [ 101.69062, 3.19773 ], [ 101.69602, 3.20298 ], [ 101.69303, 3.20883 ], [ 101.69327, 3.21499 ], [ 101.69407, 3.22147 ], [ 101.69696, 3.22613 ], [ 101.69674, 3.22342 ], [ 101.70169, 3.22336 ], [ 101.70248, 3.21642 ], [ 101.70849, 3.21507 ], [ 101.7099, 3.21636 ], [ 101.71478, 3.21284 ], [ 101.71728, 3.21528 ], [ 101.71483, 3.2145 ], [ 101.71559, 3.21809 ], [ 101.71828, 3.21816 ], [ 101.71826, 3.22128 ], [ 101.72376, 3.22713 ], [ 101.72379, 3.22921 ], [ 101.72481, 3.22818 ], [ 101.7301, 3.23347 ], [ 101.73177, 3.23179 ], [ 101.73929, 3.23196 ], [ 101.73861, 3.23367 ], [ 101.741, 3.23237 ] ] ] } },
{ "type": "Feature", "properties": { "state": "W.P. Kuala Lumpur", "parlimen": "P.117 Segambut", "district": "W.P. Kuala Lumpur" }, "geometry": { "type": "Polygon", "coordinates": [ [ [ 101.64048, 3.19917 ], [ 101.64106, 3.18891 ], [ 101.64298, 3.18782 ], [ 101.64416, 3.19028 ], [ 101.64752, 3.1888 ], [ 101.64922, 3.19448 ], [ 101.65096, 3.19372 ], [ 101.65206, 3.19588 ], [ 101.65219, 3.19961 ], [ 101.6584, 3.19965 ], [ 101.66163, 3.19226 ], [ 101.66501, 3.19419 ], [ 101.66281, 3.19952 ], [ 101.66451, 3.20051 ], [ 101.66617, 3.19811 ], [ 101.66921, 3.19737 ], [ 101.67124, 3.20079 ], [ 101.67271, 3.19867 ], [ 101.67392, 3.19968 ], [ 101.67788, 3.19737 ], [ 101.68034, 3.19155 ], [ 101.68179, 3.18679 ], [ 101.68084, 3.18167 ], [ 101.69445, 3.1702 ], [ 101.69248, 3.16304 ], [ 101.69428, 3.15651 ], [ 101.69297, 3.15103 ], [ 101.68365, 3.14786 ], [ 101.68087, 3.14861 ], [ 101.67848, 3.14518 ], [ 101.67883, 3.14281 ], [ 101.67607, 3.14358 ], [ 101.67459, 3.14603 ], [ 101.67337, 3.14454 ], [ 101.67041, 3.14479 ], [ 101.67007, 3.14653 ], [ 101.66736, 3.14776 ], [ 101.66094, 3.14287 ], [ 101.65708, 3.13665 ], [ 101.65256, 3.13438 ], [ 101.64577, 3.12759 ], [ 101.63613, 3.13238 ], [ 101.62946, 3.13051 ], [ 101.62958, 3.13694 ], [ 101.62652, 3.14146 ], [ 101.61928, 3.1452 ], [ 101.61507, 3.15284 ], [ 101.61686, 3.16989 ], [ 101.61892, 3.17306 ], [ 101.61968, 3.17883 ], [ 101.61903, 3.19719 ], [ 101.62441, 3.1989 ], [ 101.62943, 3.20865 ], [ 101.63255, 3.20741 ], [ 101.64048, 3.19917 ] ] ] } },
{ "type": "Feature", "properties": { "state": "W.P. Kuala Lumpur", "parlimen": "P.118 Setiawangsa", "district": "W.P. Kuala Lumpur" }, "geometry": { "type": "Polygon", "coordinates": [ [ [ 101.72506, 3.19911 ], [ 101.73137, 3.19971 ], [ 101.73546, 3.20217 ], [ 101.73714, 3.19786 ], [ 101.74082, 3.19862 ], [ 101.74427, 3.20188 ], [ 101.74595, 3.20006 ], [ 101.74836, 3.20014 ], [ 101.74825, 3.20285 ], [ 101.75056, 3.2025 ], [ 101.75093, 3.2003 ], [ 101.75373, 3.20038 ], [ 101.75646, 3.19698 ], [ 101.75873, 3.18808 ], [ 101.75767, 3.18544 ], [ 101.75606, 3.18563 ], [ 101.75588, 3.18102 ], [ 101.74962, 3.17541 ], [ 101.73343, 3.17806 ], [ 101.73372, 3.1761 ], [ 101.73112, 3.17266 ], [ 101.72726, 3.17156 ], [ 101.72031, 3.17556 ], [ 101.71338, 3.16761 ], [ 101.70696, 3.17238 ], [ 101.69968, 3.174 ], [ 101.70006, 3.18442 ], [ 101.70206, 3.18343 ], [ 101.7026, 3.18709 ], [ 101.72182, 3.20344 ], [ 101.72506, 3.19911 ] ] ] } },
{ "type": "Feature", "properties": { "state": "W.P. Kuala Lumpur", "parlimen": "P.119 Titiwangsa", "district": "W.P. Kuala Lumpur" }, "geometry": { "type": "Polygon", "coordinates": [ [ [ 101.71312, 3.16783 ], [ 101.71498, 3.16798 ], [ 101.72153, 3.17549 ], [ 101.72726, 3.17156 ], [ 101.73175, 3.17272 ], [ 101.73489, 3.17181 ], [ 101.73491, 3.16438 ], [ 101.73933, 3.16464 ], [ 101.73944, 3.16221 ], [ 101.74827, 3.16207 ], [ 101.75048, 3.1604 ], [ 101.74855, 3.15826 ], [ 101.75022, 3.1573 ], [ 101.74706, 3.15358 ], [ 101.74671, 3.14934 ], [ 101.74059, 3.15071 ], [ 101.74146, 3.14829 ], [ 101.7388, 3.14447 ], [ 101.74022, 3.14349 ], [ 101.73493, 3.1356 ], [ 101.73816, 3.12999 ], [ 101.7297, 3.12529 ], [ 101.72779, 3.12987 ], [ 101.7251, 3.13062 ], [ 101.7245, 3.12847 ], [ 101.72161, 3.13143 ], [ 101.71961, 3.13209 ], [ 101.71863, 3.13002 ], [ 101.71751, 3.13095 ], [ 101.72294, 3.14873 ], [ 101.72001, 3.16016 ], [ 101.70989, 3.15932 ], [ 101.70062, 3.15566 ], [ 101.70227, 3.16074 ], [ 101.69804, 3.16375 ], [ 101.69832, 3.16676 ], [ 101.69448, 3.17018 ], [ 101.69447, 3.17638 ], [ 101.70068, 3.17952 ], [ 101.69968, 3.174 ], [ 101.70696, 3.17238 ], [ 101.71312, 3.16783 ] ] ] } },
{ "type": "Feature", "properties": { "state": "W.P. Kuala Lumpur", "parlimen": "P.120 Bukit Bintang", "district": "W.P. Kuala Lumpur" }, "geometry": { "type": "Polygon", "coordinates": [ [ [ 101.69445, 3.1702 ], [ 101.69832, 3.16676 ], [ 101.69804, 3.16375 ], [ 101.70227, 3.16074 ], [ 101.70062, 3.15566 ], [ 101.70989, 3.15932 ], [ 101.72001, 3.16016 ], [ 101.72279, 3.15283 ], [ 101.72057, 3.14146 ], [ 101.71864, 3.14204 ], [ 101.71411, 3.13859 ], [ 101.71315, 3.13428 ], [ 101.71128, 3.13661 ], [ 101.70685, 3.13664 ], [ 101.70471, 3.13846 ], [ 101.70176, 3.13275 ], [ 101.70181, 3.12857 ], [ 101.69845, 3.12591 ], [ 101.70484, 3.1205 ], [ 101.70851, 3.11973 ], [ 101.70825, 3.11721 ], [ 101.71298, 3.11372 ], [ 101.71549, 3.11448 ], [ 101.70711, 3.10383 ], [ 101.70586, 3.09953 ], [ 101.70595, 3.09758 ], [ 101.70958, 3.0944 ], [ 101.71067, 3.08694 ], [ 101.71444, 3.08505 ], [ 101.7151, 3.0815 ], [ 101.70609, 3.08244 ], [ 101.70305, 3.07871 ], [ 101.69397, 3.08689 ], [ 101.69675, 3.08813 ], [ 101.69507, 3.09634 ], [ 101.6984, 3.10369 ], [ 101.68944, 3.11092 ], [ 101.67883, 3.11466 ], [ 101.67857, 3.12681 ], [ 101.68563, 3.13664 ], [ 101.69197, 3.13806 ], [ 101.6932, 3.14057 ], [ 101.69227, 3.1481 ], [ 101.69428, 3.15651 ], [ 101.69227, 3.16029 ], [ 101.69445, 3.1702 ] ] ] } },
{ "type": "Feature", "properties": { "state": "W.P. Kuala Lumpur", "parlimen": "P.121 Lembah Pantai", "district": "W.P. Kuala Lumpur" }, "geometry": { "type": "Polygon", "coordinates": [ [ [ 101.69295, 3.15096 ], [ 101.69256, 3.13859 ], [ 101.68563, 3.13664 ], [ 101.67788, 3.12539 ], [ 101.67927, 3.11656 ], [ 101.67895, 3.11478 ], [ 101.67521, 3.11502 ], [ 101.67631, 3.10863 ], [ 101.67562, 3.1017 ], [ 101.67238, 3.09421 ], [ 101.67468, 3.09226 ], [ 101.67317, 3.08553 ], [ 101.66742, 3.08172 ], [ 101.6642, 3.0823 ], [ 101.66289, 3.07846 ], [ 101.65633, 3.07472 ], [ 101.65203, 3.06985 ], [ 101.64622, 3.07078 ], [ 101.65431, 3.07758 ], [ 101.65965, 3.07968 ], [ 101.65895, 3.08161 ], [ 101.6606, 3.08226 ], [ 101.65933, 3.08452 ], [ 101.6636, 3.08622 ], [ 101.66027, 3.0921 ], [ 101.65881, 3.09211 ], [ 101.66032, 3.09976 ], [ 101.65882, 3.10908 ], [ 101.65749, 3.10942 ], [ 101.65903, 3.11281 ], [ 101.65223, 3.11016 ], [ 101.64916, 3.11741 ], [ 101.64351, 3.11871 ], [ 101.64803, 3.12578 ], [ 101.64577, 3.12759 ], [ 101.65256, 3.13438 ], [ 101.65708, 3.13665 ], [ 101.66094, 3.14287 ], [ 101.66736, 3.14776 ], [ 101.67007, 3.14653 ], [ 101.67041, 3.14479 ], [ 101.67337, 3.14454 ], [ 101.67459, 3.14603 ], [ 101.67607, 3.14358 ], [ 101.67883, 3.14281 ], [ 101.67848, 3.14518 ], [ 101.68087, 3.14861 ], [ 101.68365, 3.14786 ], [ 101.69295, 3.15096 ] ] ] } },
{ "type": "Feature", "properties": { "state": "W.P. Kuala Lumpur", "parlimen": "P.122 Seputeh", "district": "W.P. Kuala Lumpur" }, "geometry": { "type": "Polygon", "coordinates": [ [ [ 101.67521, 3.11502 ], [ 101.68944, 3.11092 ], [ 101.6984, 3.10369 ], [ 101.69507, 3.09634 ], [ 101.69675, 3.08813 ], [ 101.69397, 3.08689 ], [ 101.70417, 3.07811 ], [ 101.70362, 3.07362 ], [ 101.7079, 3.06282 ], [ 101.70641, 3.04897 ], [ 101.69859, 3.0483 ], [ 101.69896, 3.045 ], [ 101.69272, 3.04512 ], [ 101.69087, 3.04315 ], [ 101.68676, 3.04526 ], [ 101.67875, 3.04143 ], [ 101.6684, 3.04042 ], [ 101.66861, 3.04526 ], [ 101.65114, 3.0459 ], [ 101.65338, 3.05093 ], [ 101.65924, 3.04937 ], [ 101.65933, 3.05879 ], [ 101.65304, 3.05736 ], [ 101.65212, 3.05897 ], [ 101.64804, 3.05707 ], [ 101.64938, 3.06174 ], [ 101.64873, 3.06288 ], [ 101.64707, 3.06204 ], [ 101.65183, 3.06701 ], [ 101.6509, 3.06939 ], [ 101.66289, 3.07846 ], [ 101.6642, 3.0823 ], [ 101.66742, 3.08172 ], [ 101.67317, 3.08553 ], [ 101.67468, 3.09226 ], [ 101.67238, 3.09421 ], [ 101.67562, 3.1017 ], [ 101.67521, 3.11502 ] ] ] } },
{ "type": "Feature", "properties": { "state": "W.P. Kuala Lumpur", "parlimen": "P.123 Cheras", "district": "W.P. Kuala Lumpur" }, "geometry": { "type": "Polygon", "coordinates": [ [ [ 101.72057, 3.14146 ], [ 101.71751, 3.13095 ], [ 101.71863, 3.13002 ], [ 101.71961, 3.13209 ], [ 101.72161, 3.13143 ], [ 101.7245, 3.12847 ], [ 101.7251, 3.13062 ], [ 101.72779, 3.12987 ], [ 101.7297, 3.12529 ], [ 101.73816, 3.12999 ], [ 101.74085, 3.12403 ], [ 101.73929, 3.11865 ], [ 101.73739, 3.11754 ], [ 101.73799, 3.11351 ], [ 101.74111, 3.10983 ], [ 101.74381, 3.10961 ], [ 101.74447, 3.11147 ], [ 101.74571, 3.11011 ], [ 101.74764, 3.11098 ], [ 101.74675, 3.10984 ], [ 101.75167, 3.10743 ], [ 101.75353, 3.10435 ], [ 101.75055, 3.10131 ], [ 101.75245, 3.09714 ], [ 101.75117, 3.09234 ], [ 101.74511, 3.08618 ], [ 101.74593, 3.07895 ], [ 101.7298, 3.07735 ], [ 101.72944, 3.08843 ], [ 101.72168, 3.08769 ], [ 101.72249, 3.09022 ], [ 101.72511, 3.09087 ], [ 101.72587, 3.09717 ], [ 101.72941, 3.09678 ], [ 101.72638, 3.10285 ], [ 101.72824, 3.10394 ], [ 101.72925, 3.102 ], [ 101.73122, 3.10331 ], [ 101.72836, 3.11315 ], [ 101.72849, 3.12182 ], [ 101.72255, 3.11915 ], [ 101.71609, 3.12278 ], [ 101.7162, 3.11542 ], [ 101.71298, 3.11372 ], [ 101.70825, 3.11721 ], [ 101.70851, 3.11973 ], [ 101.70484, 3.1205 ], [ 101.69845, 3.12591 ], [ 101.70181, 3.12857 ], [ 101.70176, 3.13275 ], [ 101.70471, 3.13846 ], [ 101.70685, 3.13664 ], [ 101.71128, 3.13661 ], [ 101.71315, 3.13428 ], [ 101.71429, 3.13491 ], [ 101.71286, 3.13729 ], [ 101.71864, 3.14204 ], [ 101.72057, 3.14146 ] ] ] } },
{ "type": "Feature", "properties": { "state": "W.P. Kuala Lumpur", "parlimen": "P.124 Bandar Tun Razak", "district": "W.P. Kuala Lumpur" }, "geometry": { "type": "Polygon", "coordinates": [ [ [ 101.71609, 3.12278 ], [ 101.72287, 3.11917 ], [ 101.72849, 3.12182 ], [ 101.72836, 3.11315 ], [ 101.73148, 3.1058 ], [ 101.73037, 3.10521 ], [ 101.73122, 3.10331 ], [ 101.72925, 3.102 ], [ 101.72824, 3.10394 ], [ 101.72638, 3.10285 ], [ 101.72941, 3.09678 ], [ 101.72587, 3.09717 ], [ 101.72511, 3.09087 ], [ 101.72249, 3.09022 ], [ 101.72168, 3.08769 ], [ 101.72944, 3.08843 ], [ 101.7298, 3.07735 ], [ 101.74593, 3.07895 ], [ 101.74592, 3.08093 ], [ 101.74992, 3.07275 ], [ 101.74949, 3.05494 ], [ 101.73042, 3.05487 ], [ 101.73054, 3.03513 ], [ 101.72875, 3.03749 ], [ 101.72339, 3.03331 ], [ 101.72218, 3.03335 ], [ 101.72211, 3.03614 ], [ 101.72402, 3.03616 ], [ 101.72411, 3.0387 ], [ 101.72308, 3.0407 ], [ 101.72108, 3.04016 ], [ 101.71952, 3.04709 ], [ 101.71592, 3.04638 ], [ 101.71495, 3.05328 ], [ 101.71073, 3.05351 ], [ 101.70805, 3.04588 ], [ 101.70642, 3.04574 ], [ 101.70789, 3.06292 ], [ 101.70362, 3.07362 ], [ 101.70453, 3.07733 ], [ 101.70305, 3.07871 ], [ 101.70609, 3.08244 ], [ 101.7151, 3.0815 ], [ 101.71444, 3.08505 ], [ 101.71067, 3.08694 ], [ 101.70958, 3.0944 ], [ 101.70595, 3.09758 ], [ 101.7059, 3.09996 ], [ 101.70711, 3.10383 ], [ 101.7162, 3.11542 ], [ 101.71609, 3.12278 ] ] ] } },
{ "type": "Feature", "properties": { "state": "W.P. Putrajaya", "parlimen": "P.125 Putrajaya", "district": "W.P. Putrajaya" }, "geometry": { "type": "Polygon", "coordinates": [ [ [ 101.70806, 2.98038 ], [ 101.69982, 2.97181 ], [ 101.69958, 2.96836 ], [ 101.70318, 2.96695 ], [ 101.70321, 2.9634 ], [ 101.70863, 2.96346 ], [ 101.70865, 2.96189 ], [ 101.71118, 2.96155 ], [ 101.71517, 2.96403 ], [ 101.7152, 2.95525 ], [ 101.73094, 2.9552 ], [ 101.73243, 2.9532 ], [ 101.73266, 2.92915 ], [ 101.70753, 2.92923 ], [ 101.70722, 2.91292 ], [ 101.70042, 2.913 ], [ 101.70036, 2.90936 ], [ 101.69738, 2.9093 ], [ 101.69741, 2.90627 ], [ 101.70145, 2.90527 ], [ 101.70171, 2.90118 ], [ 101.69749, 2.89845 ], [ 101.69751, 2.89391 ], [ 101.68983, 2.89293 ], [ 101.6848, 2.88159 ], [ 101.68064, 2.88144 ], [ 101.68073, 2.87988 ], [ 101.67849, 2.87891 ], [ 101.67535, 2.88092 ], [ 101.67454, 2.87594 ], [ 101.67123, 2.88321 ], [ 101.66584, 2.87906 ], [ 101.6627, 2.88522 ], [ 101.66373, 2.88885 ], [ 101.66203, 2.89038 ], [ 101.65976, 2.89913 ], [ 101.66311, 2.9041 ], [ 101.66375, 2.90848 ], [ 101.66928, 2.91 ], [ 101.66917, 2.9149 ], [ 101.67182, 2.91544 ], [ 101.67212, 2.91723 ], [ 101.67239, 2.92273 ], [ 101.6674, 2.93105 ], [ 101.66856, 2.93885 ], [ 101.66485, 2.94392 ], [ 101.67351, 2.94597 ], [ 101.67475, 2.94956 ], [ 101.66928, 2.95518 ], [ 101.66416, 2.95785 ], [ 101.66267, 2.96433 ], [ 101.66769, 2.96903 ], [ 101.67329, 2.97149 ], [ 101.68466, 2.97057 ], [ 101.68963, 2.9722 ], [ 101.70461, 2.9788 ], [ 101.7079, 2.98313 ], [ 101.70806, 2.98038 ] ] ] } }
]
}
