{
"type": "FeatureCollection",
"name": "districts_income",
"crs": { "type": "name", "properties": { "name": "urn:ogc:def:crs:OGC:1.3:CRS84" } },
"features": [
{ "type": "Feature", "properties": { "state": "Selangor", "district": "Gombak", "income_mean": 14168, "income_median": 10777, "income_year": 2024 }, "geometry": { "type": "Polygon", "coordinates": [ [ [ 101.45862, 3.4012 ], [ 101.46291, 3.4 ], [ 101.4629, 3.39672 ], [ 101.46551, 3.39587 ], [ 101.46843, 3.38775 ], [ 101.47797, 3.38518 ], [ 101.48001, 3.37292 ], [ 101.48537, 3.36953 ], [ 101.49381, 3.36869 ], [ 101.50136, 3.3519 ], [ 101.51246, 3.35221 ], [ 101.52234, 3.34832 ], [ 101.54589, 3.3505 ], [ 101.55667, 3.34487 ], [ 101.55922, 3.34637 ], [ 101.562, 3.34381 ], [ 101.56702, 3.34321 ], [ 101.56799, 3.34061 ], [ 101.57733, 3.34094 ], [ 101.58305, 3.34499 ], [ 101.58613, 3.34544 ], [ 101.58964, 3.34358 ], [ 101.58784, 3.34077 ], [ 101.59063, 3.3298 ], [ 101.59767, 3.32994 ], [ 101.60018, 3.32771 ], [ 101.61506, 3.32436 ], [ 101.62423, 3.32451 ], [ 101.62581, 3.32604 ], [ 101.62728, 3.32494 ], [ 101.63127, 3.32695 ], [ 101.63783, 3.32388 ], [ 101.64912, 3.3371 ], [ 101.65582, 3.33256 ], [ 101.66324, 3.3327 ], [ 101.66891, 3.32917 ], [ 101.67119, 3.3346 ], [ 101.67614, 3.33993 ], [ 101.67881, 3.34024 ], [ 101.67962, 3.33511 ], [ 101.68247, 3.33599 ], [ 101.69848, 3.35498 ], [ 101.70043, 3.36228 ], [ 101.7056, 3.36718 ], [ 101.71059, 3.3768 ], [ 101.71116, 3.38212 ], [ 101.71624, 3.38993 ], [ 101.7187, 3.39032 ], [ 101.72261, 3.38804 ], [ 101.72904, 3.38111 ], [ 101.73411, 3.38113 ], [ 101.73767, 3.37611 ], [ 101.7433, 3.37619 ], [ 101.75049, 3.37393 ], [ 101.7571, 3.37516 ], [ 101.75944, 3.37418 ], [ 101.76959, 3.36538 ], [ 101.77743, 3.36193 ], [ 101.78109, 3.35344 ], [ 101.77944, 3.34646 ], [ 101.78187, 3.3418 ], [ 101.79654, 3.33605 ], [ 101.80055, 3.32817 ], [ 101.80648, 3.3249 ], [ 101.80575, 3.32013 ], [ 101.81148, 3.31244 ], [ 101.82082, 3.30406 ], [ 101.82388, 3.29936 ], [ 101.83807, 3.29155 ], [ 101.84558, 3.29124 ], [ 101.85281, 3.28288 ], [ 101.85288, 3.27981 ], [ 101.85058, 3.27763 ], [ 101.84752, 3.27612 ], [ 101.84368, 3.27656 ], [ 101.83852, 3.26815 ], [ 101.83359, 3.26604 ], [ 101.83021, 3.26234 ], [ 101.82777, 3.25183 ], [ 101.81606, 3.2357 ], [ 101.81392, 3.22687 ], [ 101.81064, 3.22137 ], [ 101.81087, 3.21022 ], [ 101.80208, 3.18927 ], [ 101.80252, 3.18145 ], [ 101.81121, 3.16031 ], [ 101.8098, 3.15552 ], [ 101.80807, 3.15636 ], [ 101.80214, 3.15343 ], [ 101.79826, 3.15462 ], [ 101.78738, 3.16264 ], [ 101.77897, 3.15122 ], [ 101.77314, 3.15506 ], [ 101.77079, 3.15358 ], [ 101.76818, 3.15523 ], [ 101.76618, 3.16208 ], [ 101.76135, 3.16283 ], [ 101.76264, 3.16546 ], [ 101.75809, 3.16342 ], [ 101.74946, 3.16379 ], [ 101.74813, 3.16521 ], [ 101.73924, 3.16554 ], [ 101.73879, 3.16786 ], [ 101.73457, 3.16784 ], [ 101.73473, 3.17545 ], [ 101.73182, 3.17608 ], [ 101.73359, 3.17978 ], [ 101.73274, 3.18123 ], [ 101.74964, 3.1789 ], [ 101.75532, 3.18322 ], [ 101.75676, 3.18747 ], [ 101.75545, 3.18803 ], [ 101.75785, 3.18837 ], [ 101.75872, 3.19142 ], [ 101.75657, 3.19969 ], [ 101.754, 3.20339 ], [ 101.75106, 3.20345 ], [ 101.75045, 3.20575 ], [ 101.74748, 3.20601 ], [ 101.74585, 3.21243 ], [ 101.74158, 3.21746 ], [ 101.7384, 3.21878 ], [ 101.73964, 3.2262 ], [ 101.74373, 3.23145 ], [ 101.73981, 3.23664 ], [ 101.73941, 3.23527 ], [ 101.73219, 3.23485 ], [ 101.73033, 3.23641 ], [ 101.72502, 3.2314 ], [ 101.72416, 3.23217 ], [ 101.72403, 3.23023 ], [ 101.71872, 3.22435 ], [ 101.71855, 3.22128 ], [ 101.71596, 3.22113 ], [ 101.71528, 3.21769 ], [ 101.71758, 3.21843 ], [ 101.71488, 3.21596 ], [ 101.71045, 3.21927 ], [ 101.70899, 3.21826 ], [ 101.70265, 3.21977 ], [ 101.7021, 3.2266 ], [ 101.69736, 3.22639 ], [ 101.69724, 3.23134 ], [ 101.6723, 3.23086 ], [ 101.67329, 3.23577 ], [ 101.66641, 3.246 ], [ 101.66374, 3.2472 ], [ 101.65756, 3.24396 ], [ 101.65676, 3.2395 ], [ 101.65365, 3.23959 ], [ 101.65347, 3.23798 ], [ 101.64997, 3.23705 ], [ 101.64651, 3.23776 ], [ 101.64577, 3.23544 ], [ 101.64032, 3.23452 ], [ 101.63647, 3.23137 ], [ 101.63897, 3.22422 ], [ 101.63617, 3.21903 ], [ 101.63363, 3.21994 ], [ 101.63326, 3.21618 ], [ 101.62998, 3.2117 ], [ 101.6174, 3.21036 ], [ 101.60576, 3.20232 ], [ 101.59901, 3.20429 ], [ 101.5908, 3.20402 ], [ 101.57635, 3.2111 ], [ 101.56576, 3.22238 ], [ 101.55981, 3.23158 ], [ 101.54994, 3.22747 ], [ 101.54612, 3.22137 ], [ 101.53504, 3.2208 ], [ 101.53085, 3.21826 ], [ 101.5257, 3.22333 ], [ 101.5225, 3.22294 ], [ 101.5202, 3.21954 ], [ 101.51561, 3.2218 ], [ 101.51358, 3.22068 ], [ 101.50891, 3.22505 ], [ 101.50488, 3.22519 ], [ 101.50328, 3.22254 ], [ 101.49701, 3.2252 ], [ 101.49234, 3.23104 ], [ 101.49196, 3.27626 ], [ 101.46176, 3.27607 ], [ 101.46158, 3.2999 ], [ 101.43857, 3.29989 ], [ 101.43676, 3.30267 ], [ 101.42964, 3.30537 ], [ 101.44505, 3.33441 ], [ 101.44514, 3.35707 ], [ 101.44294, 3.35754 ], [ 101.44343, 3.39724 ], [ 101.44994, 3.40144 ], [ 101.45375, 3.40072 ], [ 101.45994, 3.40278 ], [ 101.45862, 3.4012 ] ] ] } },
{ "type": "Feature", "properties": { "state": "Selangor", "district": "Klang", "income_mean": 10912, "income_median": 8837, "income_year": 2024 }, "geometry": { "type": "MultiPolygon", "coordinates": [ [ [ [ 101.42695, 3.19372 ], [ 101.47345, 3.16201 ], [ 101.46263, 3.15375 ], [ 101.45486, 3.13976 ], [ 101.45158, 3.13944 ], [ 101.45165, 3.13609 ], [ 101.45524, 3.13575 ], [ 101.45582, 3.12085 ], [ 101.45351, 3.12062 ], [ 101.45355, 3.11522 ], [ 101.45067, 3.11325 ], [ 101.44524, 3.11315 ], [ 101.44531, 3.11154 ], [ 101.442, 3.11071 ], [ 101.44404, 3.09375 ], [ 101.4683, 3.09316 ], [ 101.47676, 3.08632 ], [ 101.47741, 3.07486 ], [ 101.48043, 3.07425 ], [ 101.48144, 3.05964 ], [ 101.49116, 3.06302 ], [ 101.49164, 3.04593 ], [ 101.49938, 3.04656 ], [ 101.49782, 3.04234 ], [ 101.49868, 3.04039 ], [ 101.50789, 3.03971 ], [ 101.51199, 3.04351 ], [ 101.51943, 3.03085 ], [ 101.52162, 3.03102 ], [ 101.52379, 3.03732 ], [ 101.52607, 3.03362 ], [ 101.52691, 3.03614 ], [ 101.52882, 3.03681 ], [ 101.53087, 3.03097 ], [ 101.53221, 3.03232 ], [ 101.53085, 3.03616 ], [ 101.5318, 3.03815 ], [ 101.52825, 3.03896 ], [ 101.52736, 3.04073 ], [ 101.52748, 3.04617 ], [ 101.52895, 3.04798 ], [ 101.53017, 3.03976 ], [ 101.53657, 3.03924 ], [ 101.53922, 3.04047 ], [ 101.54102, 3.03641 ], [ 101.5439, 3.03784 ], [ 101.54752, 3.03464 ], [ 101.54573, 3.03296 ], [ 101.54635, 3.03172 ], [ 101.55344, 3.02898 ], [ 101.55207, 3.02523 ], [ 101.55666, 3.02613 ], [ 101.55915, 3.02052 ], [ 101.55605, 3.01955 ], [ 101.55502, 3.02251 ], [ 101.55288, 3.02015 ], [ 101.55807, 3.01728 ], [ 101.5577, 3.01365 ], [ 101.55458, 3.01481 ], [ 101.55449, 3.01623 ], [ 101.55044, 3.01476 ], [ 101.54822, 3.01641 ], [ 101.54638, 3.01487 ], [ 101.54931, 3.01113 ], [ 101.54955, 3.00495 ], [ 101.55544, 3.00121 ], [ 101.55328, 3.00042 ], [ 101.55536, 2.99729 ], [ 101.55284, 2.9935 ], [ 101.55597, 2.99184 ], [ 101.55488, 2.98935 ], [ 101.55801, 2.98846 ], [ 101.55815, 2.98561 ], [ 101.56463, 2.97876 ], [ 101.56966, 2.97783 ], [ 101.577, 2.97983 ], [ 101.56178, 2.9687 ], [ 101.56398, 2.9639 ], [ 101.5513, 2.95675 ], [ 101.55159, 2.96395 ], [ 101.52504, 2.95144 ], [ 101.47211, 2.95457 ], [ 101.46736, 2.95626 ], [ 101.4506, 2.95604 ], [ 101.44481, 2.9539 ], [ 101.42255, 2.95372 ], [ 101.42712, 2.95879 ], [ 101.43664, 2.96322 ], [ 101.43838, 2.96552 ], [ 101.43791, 2.96858 ], [ 101.42682, 2.97619 ], [ 101.41926, 2.97878 ], [ 101.41494, 2.97779 ], [ 101.40804, 2.97312 ], [ 101.40218, 2.95418 ], [ 101.3863, 2.93853 ], [ 101.3845, 2.93428 ], [ 101.38301, 2.91993 ], [ 101.3781, 2.91059 ], [ 101.37388, 2.90685 ], [ 101.36762, 2.90733 ], [ 101.35764, 2.91798 ], [ 101.35778, 2.92787 ], [ 101.36262, 2.93701 ], [ 101.36915, 2.96066 ], [ 101.37785, 2.97095 ], [ 101.38989, 2.97852 ], [ 101.3931, 2.98596 ], [ 101.39305, 2.99237 ], [ 101.38869, 2.99976 ], [ 101.38507, 3.00212 ], [ 101.37481, 3.00233 ], [ 101.36404, 2.99967 ], [ 101.36047, 3.00315 ], [ 101.35798, 3.01086 ], [ 101.35745, 3.02056 ], [ 101.35572, 3.0212 ], [ 101.35602, 3.02822 ], [ 101.35775, 3.02819 ], [ 101.35722, 3.03035 ], [ 101.35903, 3.02881 ], [ 101.35685, 3.03294 ], [ 101.35788, 3.05047 ], [ 101.35834, 3.05167 ], [ 101.36347, 3.04792 ], [ 101.36365, 3.05032 ], [ 101.35902, 3.05415 ], [ 101.35854, 3.05632 ], [ 101.35663, 3.0723 ], [ 101.3591, 3.07319 ], [ 101.35513, 3.07625 ], [ 101.35774, 3.07806 ], [ 101.3542, 3.07899 ], [ 101.35025, 3.08631 ], [ 101.351, 3.08837 ], [ 101.3486, 3.08743 ], [ 101.34383, 3.08878 ], [ 101.33916, 3.09394 ], [ 101.32816, 3.10814 ], [ 101.32995, 3.10941 ], [ 101.32759, 3.1112 ], [ 101.32721, 3.11583 ], [ 101.3257, 3.11409 ], [ 101.3199, 3.11373 ], [ 101.31611, 3.11652 ], [ 101.30939, 3.13894 ], [ 101.31202, 3.14083 ], [ 101.31042, 3.14048 ], [ 101.30893, 3.14267 ], [ 101.30703, 3.14826 ], [ 101.3059, 3.16806 ], [ 101.31302, 3.17123 ], [ 101.32245, 3.16112 ], [ 101.32609, 3.16452 ], [ 101.34157, 3.16338 ], [ 101.34153, 3.17724 ], [ 101.36874, 3.17758 ], [ 101.36884, 3.18776 ], [ 101.40023, 3.18784 ], [ 101.40042, 3.1935 ], [ 101.41525, 3.19395 ], [ 101.42695, 3.19372 ] ] ], [ [ [ 101.35504, 2.99348 ], [ 101.35674, 2.99539 ], [ 101.38537, 2.99337 ], [ 101.38933, 2.99131 ], [ 101.38651, 2.98713 ], [ 101.3727, 2.97807 ], [ 101.36592, 2.96894 ], [ 101.35726, 2.94439 ], [ 101.35103, 2.93359 ], [ 101.3476, 2.9298 ], [ 101.3398, 2.92769 ], [ 101.3352, 2.92443 ], [ 101.335, 2.91616 ], [ 101.34376, 2.9055 ], [ 101.34698, 2.89746 ], [ 101.34176, 2.89448 ], [ 101.3266, 2.91065 ], [ 101.318, 2.91233 ], [ 101.30829, 2.90586 ], [ 101.29574, 2.89074 ], [ 101.27804, 2.88068 ], [ 101.2695, 2.88872 ], [ 101.26932, 2.89278 ], [ 101.27508, 2.89619 ], [ 101.28362, 2.91226 ], [ 101.28505, 2.91157 ], [ 101.28409, 2.91291 ], [ 101.28797, 2.92382 ], [ 101.31004, 2.96232 ], [ 101.31242, 2.96448 ], [ 101.31417, 2.964 ], [ 101.31285, 2.96526 ], [ 101.31426, 2.96786 ], [ 101.32635, 2.97954 ], [ 101.33506, 2.97988 ], [ 101.33498, 2.98116 ], [ 101.33156, 2.98095 ], [ 101.33104, 2.98226 ], [ 101.34236, 2.99179 ], [ 101.35315, 2.99616 ], [ 101.35475, 2.9958 ], [ 101.35504, 2.99348 ] ] ], [ [ [ 101.32013, 3.07007 ], [ 101.33234, 3.06694 ], [ 101.33595, 3.06211 ], [ 101.33593, 3.05088 ], [ 101.33383, 3.04843 ], [ 101.33291, 3.03635 ], [ 101.33656, 3.01761 ], [ 101.33314, 3.01769 ], [ 101.33656, 3.01344 ], [ 101.33768, 3.00034 ], [ 101.334, 2.99928 ], [ 101.33064, 2.99503 ], [ 101.30949, 2.98682 ], [ 101.30018, 2.98042 ], [ 101.28887, 2.97601 ], [ 101.28229, 2.96998 ], [ 101.2766, 2.9679 ], [ 101.26757, 2.95421 ], [ 101.26245, 2.95191 ], [ 101.26072, 2.95475 ], [ 101.26158, 2.9626 ], [ 101.26042, 2.9636 ], [ 101.26223, 2.97661 ], [ 101.27304, 2.99908 ], [ 101.27398, 2.99815 ], [ 101.27377, 2.99987 ], [ 101.27514, 3.00009 ], [ 101.27546, 3.0034 ], [ 101.27995, 3.01031 ], [ 101.28202, 3.00953 ], [ 101.28018, 3.01296 ], [ 101.28736, 3.02623 ], [ 101.28633, 3.02786 ], [ 101.2942, 3.0498 ], [ 101.30006, 3.06012 ], [ 101.30211, 3.06049 ], [ 101.30299, 3.06333 ], [ 101.30741, 3.06655 ], [ 101.32013, 3.07007 ] ] ], [ [ [ 101.25562, 3.05981 ], [ 101.26491, 3.05925 ], [ 101.26665, 3.05786 ], [ 101.26513, 3.05752 ], [ 101.27032, 3.05519 ], [ 101.27403, 3.04992 ], [ 101.27717, 3.04212 ], [ 101.27427, 3.03659 ], [ 101.25702, 3.01941 ], [ 101.24484, 3.01758 ], [ 101.22278, 3.00722 ], [ 101.2168, 3.00692 ], [ 101.21498, 3.01072 ], [ 101.21717, 3.01891 ], [ 101.22894, 3.04173 ], [ 101.24277, 3.05496 ], [ 101.25562, 3.05981 ] ] ], [ [ [ 101.25531, 2.93797 ], [ 101.25681, 2.93666 ], [ 101.25597, 2.92515 ], [ 101.25762, 2.91924 ], [ 101.25535, 2.90846 ], [ 101.2493, 2.90303 ], [ 101.23392, 2.89921 ], [ 101.23224, 2.90454 ], [ 101.23404, 2.91125 ], [ 101.23242, 2.91152 ], [ 101.23149, 2.91861 ], [ 101.23449, 2.9202 ], [ 101.23181, 2.92157 ], [ 101.23252, 2.92554 ], [ 101.22984, 2.92814 ], [ 101.23207, 2.93924 ], [ 101.23174, 2.94678 ], [ 101.23788, 2.95516 ], [ 101.25325, 2.96509 ], [ 101.25652, 2.95004 ], [ 101.2566, 2.93948 ], [ 101.25531, 2.93797 ] ] ], [ [ [ 101.2512, 3.01474 ], [ 101.25339, 3.01374 ], [ 101.2578, 3.01576 ], [ 101.25928, 3.01488 ], [ 101.2594, 3.00183 ], [ 101.25774, 2.99882 ], [ 101.24182, 2.98781 ], [ 101.23496, 2.9792 ], [ 101.23212, 2.97745 ], [ 101.22994, 2.97903 ], [ 101.23085, 2.97743 ], [ 101.22919, 2.97698 ], [ 101.23112, 2.97598 ], [ 101.22974, 2.97565 ], [ 101.22832, 2.96981 ], [ 101.22353, 2.96463 ], [ 101.217, 2.96438 ], [ 101.21412, 2.96829 ], [ 101.21822, 2.98284 ], [ 101.22229, 2.98331 ], [ 101.21893, 2.9849 ], [ 101.22012, 2.99326 ], [ 101.2221, 2.99416 ], [ 101.22609, 2.99214 ], [ 101.2281, 2.99332 ], [ 101.22307, 2.99691 ], [ 101.22204, 3.00152 ], [ 101.22378, 3.00358 ], [ 101.2266, 3.00326 ], [ 101.22656, 3.00551 ], [ 101.23854, 3.01237 ], [ 101.24718, 3.01591 ], [ 101.25305, 3.01566 ], [ 101.2512, 3.01474 ] ] ], [ [ [ 101.29292, 2.95115 ], [ 101.2914, 2.94548 ], [ 101.2846, 2.93679 ], [ 101.27467, 2.91708 ], [ 101.26868, 2.9117 ], [ 101.26253, 2.91198 ], [ 101.26322, 2.92449 ], [ 101.26154, 2.93853 ], [ 101.26299, 2.94672 ], [ 101.2697, 2.95307 ], [ 101.29002, 2.96621 ], [ 101.28965, 2.96795 ], [ 101.29305, 2.97192 ], [ 101.30086, 2.97413 ], [ 101.30221, 2.97337 ], [ 101.29877, 2.96199 ], [ 101.29292, 2.95115 ] ] ], [ [ [ 101.30341, 2.97561 ], [ 101.29293, 2.97306 ], [ 101.28722, 2.96522 ], [ 101.27882, 2.96042 ], [ 101.28108, 2.9676 ], [ 101.28977, 2.97504 ], [ 101.30186, 2.98017 ], [ 101.3042, 2.97765 ], [ 101.30341, 2.97561 ] ] ], [ [ [ 101.26944, 2.95417 ], [ 101.27657, 2.9659 ], [ 101.28045, 2.96823 ], [ 101.27749, 2.96002 ], [ 101.26944, 2.95417 ] ] ], [ [ [ 101.26502, 3.00958 ], [ 101.26416, 3.01357 ], [ 101.26539, 3.01859 ], [ 101.26858, 3.02164 ], [ 101.26903, 3.01626 ], [ 101.26502, 3.00958 ] ] ], [ [ [ 101.37466, 2.9744 ], [ 101.37844, 2.97997 ], [ 101.38446, 2.98239 ], [ 101.38196, 2.97926 ], [ 101.37466, 2.9744 ] ] ], [ [ [ 101.30712, 2.98049 ], [ 101.30346, 2.98164 ], [ 101.309, 2.98505 ], [ 101.31091, 2.984 ], [ 101.30712, 2.98049 ] ] ], [ [ [ 101.31245, 2.98461 ], [ 101.31142, 2.98495 ], [ 101.31276, 2.98679 ], [ 101.32091, 2.99058 ], [ 101.31245, 2.98461 ] ] ] ] } },
{ "type": "Feature", "properties": { "state": "Selangor", "district": "Petaling", "income_mean": 14422, "income_median": 10688, "income_year": 2024 }, "geometry": { "type": "Polygon", "coordinates": [ [ [ 101.56576, 3.22238 ], [ 101.57635, 3.2111 ], [ 101.5908, 3.20402 ], [ 101.59901, 3.20429 ], [ 101.60576, 3.20232 ], [ 101.6174, 3.21036 ], [ 101.62853, 3.21138 ], [ 101.62439, 3.20249 ], [ 101.61842, 3.19964 ], [ 101.61786, 3.198 ], [ 101.61745, 3.18028 ], [ 101.61347, 3.15534 ], [ 101.61812, 3.14787 ], [ 101.62847, 3.13964 ], [ 101.62879, 3.13349 ], [ 101.63428, 3.13514 ], [ 101.64671, 3.1301 ], [ 101.647, 3.1279 ], [ 101.64274, 3.12214 ], [ 101.64853, 3.12061 ], [ 101.65176, 3.11291 ], [ 101.65912, 3.11719 ], [ 101.65796, 3.11439 ], [ 101.65942, 3.11301 ], [ 101.65865, 3.09556 ], [ 101.66208, 3.09362 ], [ 101.66334, 3.08921 ], [ 101.6592, 3.08776 ], [ 101.66047, 3.08327 ], [ 101.64724, 3.07484 ], [ 101.65246, 3.07283 ], [ 101.65289, 3.07034 ], [ 101.6481, 3.06528 ], [ 101.64993, 3.06617 ], [ 101.65109, 3.06339 ], [ 101.64939, 3.06235 ], [ 101.64959, 3.06039 ], [ 101.65339, 3.06239 ], [ 101.65451, 3.0606 ], [ 101.66073, 3.06218 ], [ 101.66073, 3.05279 ], [ 101.65468, 3.05426 ], [ 101.65262, 3.04972 ], [ 101.66975, 3.04952 ], [ 101.66979, 3.04489 ], [ 101.67203, 3.04601 ], [ 101.67926, 3.04516 ], [ 101.68672, 3.04906 ], [ 101.69157, 3.04712 ], [ 101.69347, 3.04886 ], [ 101.69949, 3.04913 ], [ 101.69986, 3.05207 ], [ 101.70254, 3.05277 ], [ 101.7073, 3.05299 ], [ 101.7073, 3.05107 ], [ 101.70864, 3.05109 ], [ 101.71166, 3.05761 ], [ 101.71545, 3.05742 ], [ 101.71609, 3.05307 ], [ 101.7174, 3.05346 ], [ 101.71663, 3.05048 ], [ 101.72014, 3.05096 ], [ 101.72163, 3.0443 ], [ 101.72459, 3.04231 ], [ 101.72442, 3.04012 ], [ 101.72269, 3.03998 ], [ 101.72284, 3.03708 ], [ 101.72938, 3.0409 ], [ 101.73125, 3.03426 ], [ 101.72408, 3.01695 ], [ 101.7179, 3.01075 ], [ 101.71923, 3.01067 ], [ 101.71957, 2.9942 ], [ 101.71886, 2.9916 ], [ 101.71417, 2.98981 ], [ 101.71431, 2.987 ], [ 101.68144, 2.98356 ], [ 101.58541, 2.98159 ], [ 101.573, 2.97822 ], [ 101.56463, 2.97876 ], [ 101.55815, 2.98561 ], [ 101.55801, 2.98846 ], [ 101.55488, 2.98935 ], [ 101.55597, 2.99184 ], [ 101.55284, 2.9935 ], [ 101.55536, 2.99729 ], [ 101.55328, 3.00042 ], [ 101.55544, 3.00121 ], [ 101.54955, 3.00495 ], [ 101.54931, 3.01113 ], [ 101.54638, 3.01487 ], [ 101.54822, 3.01641 ], [ 101.55044, 3.01476 ], [ 101.55449, 3.01623 ], [ 101.55458, 3.01481 ], [ 101.5577, 3.01365 ], [ 101.55807, 3.01728 ], [ 101.55288, 3.02015 ], [ 101.55502, 3.02251 ], [ 101.55605, 3.01955 ], [ 101.55915, 3.02052 ], [ 101.55666, 3.02613 ], [ 101.55207, 3.02523 ], [ 101.55397, 3.02844 ], [ 101.54635, 3.03172 ], [ 101.54573, 3.03296 ], [ 101.54752, 3.03464 ], [ 101.5439, 3.03784 ], [ 101.54102, 3.03641 ], [ 101.53977, 3.04034 ], [ 101.52987, 3.03999 ], [ 101.52924, 3.04796 ], [ 101.52748, 3.04617 ], [ 101.52736, 3.04073 ], [ 101.52825, 3.03896 ], [ 101.5318, 3.03815 ], [ 101.53085, 3.03616 ], [ 101.53221, 3.03232 ], [ 101.53087, 3.03097 ], [ 101.52882, 3.03681 ], [ 101.52691, 3.03614 ], [ 101.52607, 3.03362 ], [ 101.52379, 3.03732 ], [ 101.52162, 3.03102 ], [ 101.51943, 3.03085 ], [ 101.51199, 3.04351 ], [ 101.50789, 3.03971 ], [ 101.49868, 3.04039 ], [ 101.49782, 3.04234 ], [ 101.49938, 3.04656 ], [ 101.49164, 3.04593 ], [ 101.49116, 3.06302 ], [ 101.48144, 3.05964 ], [ 101.48043, 3.07425 ], [ 101.47741, 3.07486 ], [ 101.47676, 3.08632 ], [ 101.4683, 3.09316 ], [ 101.44404, 3.09375 ], [ 101.442, 3.11071 ], [ 101.44531, 3.11154 ], [ 101.44524, 3.11315 ], [ 101.45067, 3.11325 ], [ 101.45355, 3.11522 ], [ 101.45351, 3.12062 ], [ 101.45582, 3.12085 ], [ 101.45524, 3.13575 ], [ 101.45165, 3.13609 ], [ 101.45158, 3.13944 ], [ 101.45486, 3.13976 ], [ 101.46263, 3.15375 ], [ 101.47345, 3.16201 ], [ 101.42695, 3.19372 ], [ 101.46209, 3.19366 ], [ 101.47125, 3.19789 ], [ 101.4758, 3.19536 ], [ 101.48687, 3.19403 ], [ 101.48929, 3.18858 ], [ 101.49196, 3.18654 ], [ 101.49234, 3.23104 ], [ 101.49701, 3.2252 ], [ 101.50166, 3.22266 ], [ 101.50688, 3.22541 ], [ 101.50979, 3.22461 ], [ 101.51358, 3.22068 ], [ 101.51561, 3.2218 ], [ 101.5202, 3.21954 ], [ 101.5225, 3.22294 ], [ 101.5257, 3.22333 ], [ 101.53085, 3.21826 ], [ 101.53504, 3.2208 ], [ 101.54612, 3.22137 ], [ 101.54994, 3.22747 ], [ 101.55981, 3.23158 ], [ 101.56576, 3.22238 ] ] ] } },
{ "type": "Feature", "properties": { "state": "Selangor", "district": "Sepang", "income_mean": 15906, "income_median": 11131, "income_year": 2024 }, "geometry": { "type": "Polygon", "coordinates": [ [ [ 101.7432, 2.97969 ], [ 101.74656, 2.96448 ], [ 101.75276, 2.9523 ], [ 101.75707, 2.92681 ], [ 101.7569, 2.91939 ], [ 101.76319, 2.90531 ], [ 101.7652, 2.88895 ], [ 101.77926, 2.88007 ], [ 101.78518, 2.87223 ], [ 101.74993, 2.87321 ], [ 101.76121, 2.70694 ], [ 101.75839, 2.70238 ], [ 101.75349, 2.70075 ], [ 101.75014, 2.68939 ], [ 101.75116, 2.68612 ], [ 101.7453, 2.68443 ], [ 101.73867, 2.67658 ], [ 101.73882, 2.67244 ], [ 101.74322, 2.66881 ], [ 101.7454, 2.65765 ], [ 101.72908, 2.64934 ], [ 101.72428, 2.64278 ], [ 101.72341, 2.63928 ], [ 101.72892, 2.62883 ], [ 101.72798, 2.62056 ], [ 101.72575, 2.6202 ], [ 101.72244, 2.62369 ], [ 101.71933, 2.62415 ], [ 101.70717, 2.61722 ], [ 101.70168, 2.61156 ], [ 101.70244, 2.60664 ], [ 101.70974, 2.60216 ], [ 101.70992, 2.59758 ], [ 101.70506, 2.59618 ], [ 101.69218, 2.59888 ], [ 101.68758, 2.6035 ], [ 101.68851, 2.6045 ], [ 101.68526, 2.612 ], [ 101.67212, 2.61973 ], [ 101.63227, 2.63083 ], [ 101.62824, 2.63383 ], [ 101.60827, 2.6357 ], [ 101.58929, 2.64605 ], [ 101.59566, 2.64772 ], [ 101.59643, 2.65027 ], [ 101.59513, 2.66155 ], [ 101.59444, 2.72921 ], [ 101.63164, 2.73034 ], [ 101.63247, 2.75861 ], [ 101.68152, 2.81765 ], [ 101.67035, 2.82457 ], [ 101.66941, 2.82667 ], [ 101.6634, 2.8275 ], [ 101.6453, 2.8444 ], [ 101.60146, 2.93814 ], [ 101.577, 2.97983 ], [ 101.58541, 2.98159 ], [ 101.68144, 2.98356 ], [ 101.71431, 2.987 ], [ 101.71417, 2.98981 ], [ 101.71886, 2.9916 ], [ 101.71957, 2.9942 ], [ 101.71923, 3.01067 ], [ 101.7179, 3.01075 ], [ 101.72049, 3.01464 ], [ 101.72582, 3.00629 ], [ 101.73498, 2.99639 ], [ 101.7432, 2.97969 ] ], [ [ 101.70517, 2.98061 ], [ 101.68541, 2.97107 ], [ 101.66958, 2.97063 ], [ 101.66138, 2.96365 ], [ 101.6628, 2.95778 ], [ 101.67062, 2.95298 ], [ 101.67317, 2.94812 ], [ 101.67272, 2.94624 ], [ 101.66333, 2.94389 ], [ 101.66729, 2.93837 ], [ 101.66614, 2.93055 ], [ 101.67057, 2.92317 ], [ 101.67094, 2.91906 ], [ 101.67047, 2.91537 ], [ 101.66783, 2.91467 ], [ 101.66793, 2.90993 ], [ 101.66233, 2.90813 ], [ 101.66175, 2.90402 ], [ 101.65841, 2.89906 ], [ 101.66448, 2.87899 ], [ 101.66987, 2.88314 ], [ 101.67319, 2.876 ], [ 101.67399, 2.88085 ], [ 101.67713, 2.87885 ], [ 101.67937, 2.87981 ], [ 101.67929, 2.88137 ], [ 101.68344, 2.88152 ], [ 101.68846, 2.89286 ], [ 101.69614, 2.89384 ], [ 101.69612, 2.89818 ], [ 101.70034, 2.90111 ], [ 101.70008, 2.9052 ], [ 101.69605, 2.9062 ], [ 101.69602, 2.90932 ], [ 101.69909, 2.90928 ], [ 101.69906, 2.91293 ], [ 101.70586, 2.91285 ], [ 101.70635, 2.92915 ], [ 101.73129, 2.92907 ], [ 101.73106, 2.95313 ], [ 101.72933, 2.95512 ], [ 101.71383, 2.95516 ], [ 101.71381, 2.96396 ], [ 101.70906, 2.96148 ], [ 101.70727, 2.96338 ], [ 101.70185, 2.96332 ], [ 101.70182, 2.96688 ], [ 101.69829, 2.96828 ], [ 101.69922, 2.97308 ], [ 101.7067, 2.9803 ], [ 101.70644, 2.98313 ], [ 101.70517, 2.98061 ] ] ] } },
{ "type": "Feature", "properties": { "state": "Selangor", "district": "Ulu Langat", "income_mean": 13822, "income_median": 11404, "income_year": 2024 }, "geometry": { "type": "Polygon", "coordinates": [ [ [ 101.85643, 3.27635 ], [ 101.87366, 3.27477 ], [ 101.87528, 3.27106 ], [ 101.88358, 3.26574 ], [ 101.88871, 3.26663 ], [ 101.89203, 3.27072 ], [ 101.89625, 3.2709 ], [ 101.90578, 3.26799 ], [ 101.90841, 3.26334 ], [ 101.91272, 3.26453 ], [ 101.91615, 3.2633 ], [ 101.92258, 3.2639 ], [ 101.92666, 3.25848 ], [ 101.93076, 3.25717 ], [ 101.93178, 3.2552 ], [ 101.92935, 3.24877 ], [ 101.93795, 3.24101 ], [ 101.94552, 3.22744 ], [ 101.94856, 3.21224 ], [ 101.94504, 3.2097 ], [ 101.94701, 3.19855 ], [ 101.93984, 3.18992 ], [ 101.94385, 3.18491 ], [ 101.94721, 3.1712 ], [ 101.95719, 3.15772 ], [ 101.95743, 3.15053 ], [ 101.96545, 3.14352 ], [ 101.96218, 3.13666 ], [ 101.9622, 3.12676 ], [ 101.95705, 3.11824 ], [ 101.94944, 3.11489 ], [ 101.94969, 3.10823 ], [ 101.95549, 3.09935 ], [ 101.95905, 3.08346 ], [ 101.96329, 3.08021 ], [ 101.96075, 3.06408 ], [ 101.96771, 3.06033 ], [ 101.96535, 3.05282 ], [ 101.96773, 3.04875 ], [ 101.97075, 3.0325 ], [ 101.96865, 3.02848 ], [ 101.965, 3.02936 ], [ 101.96216, 3.02712 ], [ 101.9578, 3.02902 ], [ 101.94673, 3.01988 ], [ 101.94079, 3.01918 ], [ 101.94016, 3.01538 ], [ 101.9429, 3.00827 ], [ 101.93998, 3.0014 ], [ 101.93197, 3.00133 ], [ 101.92962, 2.9913 ], [ 101.92949, 2.98268 ], [ 101.92415, 2.97603 ], [ 101.92294, 2.96757 ], [ 101.88177, 2.86999 ], [ 101.78518, 2.87223 ], [ 101.77926, 2.88007 ], [ 101.7652, 2.88895 ], [ 101.76319, 2.90531 ], [ 101.7569, 2.91939 ], [ 101.75707, 2.92681 ], [ 101.75276, 2.9523 ], [ 101.74656, 2.96448 ], [ 101.74188, 2.98391 ], [ 101.73381, 2.99815 ], [ 101.72582, 3.00629 ], [ 101.72049, 3.01464 ], [ 101.72408, 3.01695 ], [ 101.73125, 3.03426 ], [ 101.73075, 3.05697 ], [ 101.74838, 3.0573 ], [ 101.74823, 3.07899 ], [ 101.74491, 3.08424 ], [ 101.746, 3.08516 ], [ 101.74507, 3.08908 ], [ 101.75104, 3.09509 ], [ 101.75232, 3.09993 ], [ 101.75045, 3.10421 ], [ 101.75368, 3.10748 ], [ 101.75184, 3.11023 ], [ 101.74678, 3.11286 ], [ 101.74736, 3.1137 ], [ 101.74447, 3.11436 ], [ 101.74383, 3.11262 ], [ 101.74126, 3.11274 ], [ 101.73804, 3.11636 ], [ 101.73742, 3.12049 ], [ 101.7393, 3.12193 ], [ 101.74084, 3.12716 ], [ 101.73538, 3.13988 ], [ 101.74003, 3.14645 ], [ 101.73856, 3.14746 ], [ 101.74115, 3.15106 ], [ 101.74043, 3.15359 ], [ 101.74639, 3.1526 ], [ 101.74679, 3.15646 ], [ 101.74999, 3.16079 ], [ 101.74819, 3.16159 ], [ 101.75058, 3.16406 ], [ 101.75809, 3.16342 ], [ 101.76264, 3.16546 ], [ 101.76135, 3.16283 ], [ 101.76618, 3.16208 ], [ 101.76818, 3.15523 ], [ 101.77079, 3.15358 ], [ 101.77314, 3.15506 ], [ 101.77897, 3.15122 ], [ 101.78738, 3.16264 ], [ 101.79826, 3.15462 ], [ 101.80214, 3.15343 ], [ 101.80807, 3.15636 ], [ 101.8098, 3.15552 ], [ 101.81121, 3.16031 ], [ 101.80252, 3.18145 ], [ 101.80208, 3.18927 ], [ 101.8104, 3.20848 ], [ 101.81044, 3.22067 ], [ 101.81392, 3.22687 ], [ 101.81559, 3.2346 ], [ 101.82777, 3.25183 ], [ 101.83021, 3.26234 ], [ 101.83359, 3.26604 ], [ 101.83852, 3.26815 ], [ 101.84368, 3.27656 ], [ 101.84821, 3.27634 ], [ 101.85288, 3.27981 ], [ 101.85643, 3.27635 ] ] ] } },
{ "type": "Feature", "properties": { "state": "W.P. Kuala Lumpur", "district": "W.P. Kuala Lumpur", "income_mean": 13325, "income_median": 10234, "income_year": 2022 }, "geometry": { "type": "Polygon", "coordinates": [ [ [ 101.66725, 3.24432 ], [ 101.67329, 3.23577 ], [ 101.6723, 3.23086 ], [ 101.69724, 3.23134 ], [ 101.69736, 3.22639 ], [ 101.7021, 3.2266 ], [ 101.70265, 3.21977 ], [ 101.70899, 3.21826 ], [ 101.71045, 3.21927 ], [ 101.71488, 3.21596 ], [ 101.71758, 3.21843 ], [ 101.71528, 3.21769 ], [ 101.71596, 3.22113 ], [ 101.71855, 3.22128 ], [ 101.71872, 3.22435 ], [ 101.72403, 3.23023 ], [ 101.72416, 3.23217 ], [ 101.72502, 3.2314 ], [ 101.73033, 3.23641 ], [ 101.73219, 3.23485 ], [ 101.73941, 3.23527 ], [ 101.73981, 3.23664 ], [ 101.74373, 3.23145 ], [ 101.73964, 3.2262 ], [ 101.73839, 3.2188 ], [ 101.74158, 3.21746 ], [ 101.74585, 3.21243 ], [ 101.74748, 3.20601 ], [ 101.75045, 3.20575 ], [ 101.75106, 3.20345 ], [ 101.7538, 3.20359 ], [ 101.75657, 3.19969 ], [ 101.75872, 3.19142 ], [ 101.75785, 3.18837 ], [ 101.75545, 3.18803 ], [ 101.75676, 3.18747 ], [ 101.75532, 3.18322 ], [ 101.74859, 3.17876 ], [ 101.73274, 3.18123 ], [ 101.73356, 3.17962 ], [ 101.73182, 3.17608 ], [ 101.73473, 3.17545 ], [ 101.73457, 3.16784 ], [ 101.73904, 3.16775 ], [ 101.73924, 3.16554 ], [ 101.75058, 3.16406 ], [ 101.74819, 3.16159 ], [ 101.74999, 3.16079 ], [ 101.74679, 3.15646 ], [ 101.74639, 3.1526 ], [ 101.74043, 3.15359 ], [ 101.74115, 3.15106 ], [ 101.73856, 3.14746 ], [ 101.74003, 3.14645 ], [ 101.73538, 3.13988 ], [ 101.74084, 3.12716 ], [ 101.7393, 3.12193 ], [ 101.73742, 3.12049 ], [ 101.73804, 3.11636 ], [ 101.74126, 3.11274 ], [ 101.74383, 3.11262 ], [ 101.74447, 3.11436 ], [ 101.74736, 3.1137 ], [ 101.74678, 3.11286 ], [ 101.75184, 3.11023 ], [ 101.75368, 3.10748 ], [ 101.75045, 3.10421 ], [ 101.75232, 3.09993 ], [ 101.75104, 3.09509 ], [ 101.74507, 3.08908 ], [ 101.746, 3.08516 ], [ 101.74491, 3.08424 ], [ 101.74823, 3.07899 ], [ 101.74838, 3.0573 ], [ 101.73075, 3.05697 ], [ 101.731, 3.03872 ], [ 101.72938, 3.0409 ], [ 101.72284, 3.03708 ], [ 101.72269, 3.03998 ], [ 101.72442, 3.04012 ], [ 101.72459, 3.04231 ], [ 101.72163, 3.0443 ], [ 101.72014, 3.05096 ], [ 101.71663, 3.05048 ], [ 101.7174, 3.05346 ], [ 101.71609, 3.05307 ], [ 101.71545, 3.05742 ], [ 101.71372, 3.05778 ], [ 101.71166, 3.05761 ], [ 101.70864, 3.05109 ], [ 101.7073, 3.05107 ], [ 101.7073, 3.05299 ], [ 101.70254, 3.05277 ], [ 101.69986, 3.05207 ], [ 101.69949, 3.04913 ], [ 101.69347, 3.04886 ], [ 101.69157, 3.04712 ], [ 101.68672, 3.04906 ], [ 101.67926, 3.04516 ], [ 101.67203, 3.04601 ], [ 101.66979, 3.04489 ], [ 101.66975, 3.04952 ], [ 101.65262, 3.04972 ], [ 101.65468, 3.05426 ], [ 101.66073, 3.05279 ], [ 101.66073, 3.06218 ], [ 101.65451, 3.0606 ], [ 101.65339, 3.06239 ], [ 101.64959, 3.06039 ], [ 101.64939, 3.06235 ], [ 101.65109, 3.06339 ], [ 101.64993, 3.06617 ], [ 101.6481, 3.06528 ], [ 101.65289, 3.07034 ], [ 101.65246, 3.07283 ], [ 101.64724, 3.07484 ], [ 101.66047, 3.08327 ], [ 101.6592, 3.08776 ], [ 101.66334, 3.08921 ], [ 101.66208, 3.09362 ], [ 101.65865, 3.09556 ], [ 101.65942, 3.11301 ], [ 101.65796, 3.11439 ], [ 101.65912, 3.11719 ], [ 101.65176, 3.11291 ], [ 101.64853, 3.12061 ], [ 101.64274, 3.12214 ], [ 101.647, 3.1279 ], [ 101.64671, 3.1301 ], [ 101.63428, 3.13514 ], [ 101.62879, 3.13349 ], [ 101.62847, 3.13964 ], [ 101.61812, 3.14787 ], [ 101.61347, 3.15534 ], [ 101.61745, 3.18028 ], [ 101.61786, 3.198 ], [ 101.61842, 3.19964 ], [ 101.62439, 3.20249 ], [ 101.62853, 3.21138 ], [ 101.63363, 3.21647 ], [ 101.63364, 3.21995 ], [ 101.63617, 3.21903 ], [ 101.63816, 3.22258 ], [ 101.63895, 3.22564 ], [ 101.63637, 3.23125 ], [ 101.64032, 3.23452 ], [ 101.64577, 3.23544 ], [ 101.64651, 3.23776 ], [ 101.64997, 3.23705 ], [ 101.65347, 3.23798 ], [ 101.65365, 3.23959 ], [ 101.65676, 3.2395 ], [ 101.65756, 3.24396 ], [ 101.66044, 3.24444 ], [ 101.66051, 3.24626 ], [ 101.66445, 3.24707 ], [ 101.66725, 3.24432 ] ] ] } },
{ "type": "Feature", "properties": { "state": "W.P. Putrajaya", "district": "W.P. Putrajaya", "income_mean": 13473, "income_median": 10056, "income_year": 2022 }, "geometry": { "type": "Polygon", "coordinates": [ [ [ 101.69854, 2.97171 ], [ 101.69829, 2.96828 ], [ 101.70182, 2.96688 ], [ 101.70185, 2.96332 ], [ 101.70727, 2.96338 ], [ 101.70906, 2.96148 ], [ 101.71381, 2.96396 ], [ 101.71383, 2.95516 ], [ 101.72933, 2.95512 ], [ 101.73106, 2.95313 ], [ 101.73129, 2.92907 ], [ 101.70635, 2.92915 ], [ 101.70586, 2.91285 ], [ 101.69906, 2.91293 ], [ 101.69909, 2.90928 ], [ 101.69602, 2.90932 ], [ 101.69605, 2.9062 ], [ 101.70008, 2.9052 ], [ 101.70034, 2.90111 ], [ 101.69612, 2.89818 ], [ 101.69614, 2.89384 ], [ 101.68846, 2.89286 ], [ 101.68344, 2.88152 ], [ 101.67929, 2.88137 ], [ 101.67937, 2.87981 ], [ 101.67713, 2.87885 ], [ 101.67399, 2.88085 ], [ 101.67319, 2.876 ], [ 101.66987, 2.88314 ], [ 101.66448, 2.87899 ], [ 101.65841, 2.89906 ], [ 101.66175, 2.90402 ], [ 101.66233, 2.90813 ], [ 101.66793, 2.90993 ], [ 101.66783, 2.91467 ], [ 101.67047, 2.91537 ], [ 101.67094, 2.91906 ], [ 101.67057, 2.92317 ], [ 101.66614, 2.93055 ], [ 101.66729, 2.93837 ], [ 101.66333, 2.94389 ], [ 101.67272, 2.94624 ], [ 101.67317, 2.94812 ], [ 101.67062, 2.95298 ], [ 101.6628, 2.95778 ], [ 101.66138, 2.96365 ], [ 101.66904, 2.97041 ], [ 101.67469, 2.97174 ], [ 101.68541, 2.97107 ], [ 101.70324, 2.97873 ], [ 101.70644, 2.98313 ], [ 101.70589, 2.97895 ], [ 101.69854, 2.97171 ] ] ] } }
]
}
