{
"type": "FeatureCollection",
"name": "komuter_stations",
"crs": { "type": "name", "properties": { "name": "urn:ogc:def:crs:OGC:1.3:CRS84" } },
"features": [
{ "type": "Feature", "properties": { "station": "Putra", "same_as": null, "region": "Klang Valley", "district": "W.P. Kuala Lumpur", "corridor": "Shared core", "lat": 3.165399, "lon": 101.691101, "source": "GTFS", "rr_station": "PWTC", "rr_key": "pwtc", "rr_distance_m": 296.0, "interchange": true }, "geometry": { "type": "Point", "coordinates": [ 101.691101, 3.165399 ] } },
{ "type": "Feature", "properties": { "station": "Bank Negara", "same_as": null, "region": "Klang Valley", "district": "W.P. Kuala Lumpur", "corridor": "Shared core", "lat": 3.155105, "lon": 101.693118, "source": "GTFS", "rr_station": "Bandaraya", "rr_key": "bandaraya", "rr_distance_m": 161.0, "interchange": true }, "geometry": { "type": "Point", "coordinates": [ 101.693118, 3.155105 ] } },
{ "type": "Feature", "properties": { "station": "Kuala Lumpur", "same_as": null, "region": "Klang Valley", "district": "W.P. Kuala Lumpur", "corridor": "Shared core", "lat": 3.139444, "lon": 101.693333, "source": "GTFS", "rr_station": "Pasar Seni", "rr_key": "pasarseni", "rr_distance_m": 401.0, "interchange": true }, "geometry": { "type": "Point", "coordinates": [ 101.693333, 3.139444 ] } },
{ "type": "Feature", "properties": { "station": "KL Sentral", "same_as": null, "region": "Klang Valley", "district": "W.P. Kuala Lumpur", "corridor": "Shared core", "lat": 3.134167, "lon": 101.686111, "source": "GTFS", "rr_station": "KL Sentral", "rr_key": "klsentral", "rr_distance_m": 119.0, "interchange": true }, "geometry": { "type": "Point", "coordinates": [ 101.686111, 3.134167 ] } },
{ "type": "Feature", "properties": { "station": "Batu Caves", "same_as": null, "region": "Klang Valley", "district": "Gombak", "corridor": "Seremban Line", "lat": 3.237796, "lon": 101.681215, "source": "GTFS", "rr_station": "Kampung Batu", "rr_key": "kampungbatu", "rr_distance_m": 3655.0, "interchange": false }, "geometry": { "type": "Point", "coordinates": [ 101.681215, 3.237796 ] } },
{ "type": "Feature", "properties": { "station": "Taman Wahyu", "same_as": null, "region": "Klang Valley", "district": "W.P. Kuala Lumpur", "corridor": "Seremban Line", "lat": 3.21451, "lon": 101.672178, "source": "GTFS", "rr_station": "Kampung Batu", "rr_key": "kampungbatu", "rr_distance_m": 1067.0, "interchange": false }, "geometry": { "type": "Point", "coordinates": [ 101.672178, 3.21451 ] } },
{ "type": "Feature", "properties": { "station": "Kampung Batu", "same_as": null, "region": "Klang Valley", "district": "W.P. Kuala Lumpur", "corridor": "Seremban Line", "lat": 3.204892, "lon": 101.675584, "source": "GTFS", "rr_station": "Kampung Batu", "rr_key": "kampungbatu", "rr_distance_m": 71.0, "interchange": true }, "geometry": { "type": "Point", "coordinates": [ 101.675584, 3.204892 ] } },
{ "type": "Feature", "properties": { "station": "Batu Kentonmen", "same_as": null, "region": "Klang Valley", "district": "W.P. Kuala Lumpur", "corridor": "Seremban Line", "lat": 3.198485, "lon": 101.681138, "source": "GTFS", "rr_station": "Kentomen", "rr_key": "kentomen", "rr_distance_m": 356.0, "interchange": true }, "geometry": { "type": "Point", "coordinates": [ 101.681138, 3.198485 ] } },
{ "type": "Feature", "properties": { "station": "Sentul", "same_as": null, "region": "Klang Valley", "district": "W.P. Kuala Lumpur", "corridor": "Seremban Line", "lat": 3.183581, "lon": 101.688802, "source": "GTFS", "rr_station": "Sentul Barat", "rr_key": "sentulbarat", "rr_distance_m": 652.0, "interchange": false }, "geometry": { "type": "Point", "coordinates": [ 101.688802, 3.183581 ] } },
{ "type": "Feature", "properties": { "station": "Midvalley", "same_as": null, "region": "Klang Valley", "district": "W.P. Kuala Lumpur", "corridor": "Seremban Line", "lat": 3.119211, "lon": 101.678865, "source": "GTFS", "rr_station": "Abdullah Hukum", "rr_key": "abdullahhukum", "rr_distance_m": 666.0, "interchange": false }, "geometry": { "type": "Point", "coordinates": [ 101.678865, 3.119211 ] } },
{ "type": "Feature", "properties": { "station": "Seputeh", "same_as": null, "region": "Klang Valley", "district": "W.P. Kuala Lumpur", "corridor": "Seremban Line", "lat": 3.113612, "lon": 101.681474, "source": "GTFS", "rr_station": "Abdullah Hukum", "rr_key": "abdullahhukum", "rr_distance_m": 1113.0, "interchange": false }, "geometry": { "type": "Point", "coordinates": [ 101.681474, 3.113612 ] } },
{ "type": "Feature", "properties": { "station": "Salak Selatan", "same_as": null, "region": "Klang Valley", "district": "W.P. Kuala Lumpur", "corridor": "Seremban Line", "lat": 3.098413, "lon": 101.705055, "source": "GTFS", "rr_station": "Salak Selatan", "rr_key": "salakselatan", "rr_distance_m": 440.0, "interchange": true }, "geometry": { "type": "Point", "coordinates": [ 101.705055, 3.098413 ] } },
{ "type": "Feature", "properties": { "station": "Bandar Tasek Selatan", "same_as": null, "region": "Klang Valley", "district": "W.P. Kuala Lumpur", "corridor": "Seremban Line", "lat": 3.076229, "lon": 101.711119, "source": "GTFS", "rr_station": "Bandar Tasik Selatan", "rr_key": "bandartasikselatan", "rr_distance_m": 19.0, "interchange": true }, "geometry": { "type": "Point", "coordinates": [ 101.711119, 3.076229 ] } },
{ "type": "Feature", "properties": { "station": "Serdang", "same_as": null, "region": "Klang Valley", "district": "Petaling", "corridor": "Seremban Line", "lat": 3.023404, "lon": 101.716056, "source": "GTFS", "rr_station": "Serdang Jaya", "rr_key": "serdangjaya", "rr_distance_m": 811.0, "interchange": false }, "geometry": { "type": "Point", "coordinates": [ 101.716056, 3.023404 ] } },
{ "type": "Feature", "properties": { "station": "Kajang", "same_as": null, "region": "Klang Valley", "district": "Ulu Langat", "corridor": "Seremban Line", "lat": 2.983222, "lon": 101.790669, "source": "GTFS", "rr_station": "Kajang", "rr_key": "kajang", "rr_distance_m": 66.0, "interchange": true }, "geometry": { "type": "Point", "coordinates": [ 101.790669, 2.983222 ] } },
{ "type": "Feature", "properties": { "station": "Kajang 2", "same_as": null, "region": "Klang Valley", "district": "Ulu Langat", "corridor": "Seremban Line", "lat": 2.96264, "lon": 101.79207, "source": "GTFS", "rr_station": "Kajang", "rr_key": "kajang", "rr_distance_m": 2254.0, "interchange": false }, "geometry": { "type": "Point", "coordinates": [ 101.79207, 2.96264 ] } },
{ "type": "Feature", "properties": { "station": "UKM", "same_as": null, "region": "Klang Valley", "district": "Ulu Langat", "corridor": "Seremban Line", "lat": 2.939775, "lon": 101.787623, "source": "GTFS", "rr_station": "Kajang", "rr_key": "kajang", "rr_distance_m": 4803.0, "interchange": false }, "geometry": { "type": "Point", "coordinates": [ 101.787623, 2.939775 ] } },
{ "type": "Feature", "properties": { "station": "Bangi", "same_as": null, "region": "Klang Valley", "district": "Ulu Langat", "corridor": "Seremban Line", "lat": 2.904467, "lon": 101.785943, "source": "GTFS", "rr_station": "Kajang", "rr_key": "kajang", "rr_distance_m": 8742.0, "interchange": false }, "geometry": { "type": "Point", "coordinates": [ 101.785943, 2.904467 ] } },
{ "type": "Feature", "properties": { "station": "Batang Benar", "same_as": null, "region": "Outer belt", "district": "Negeri Sembilan", "corridor": "Seremban Line", "lat": 2.829904, "lon": 101.826655, "source": "GTFS", "rr_station": "Kajang", "rr_key": "kajang", "rr_distance_m": 17514.0, "interchange": false }, "geometry": { "type": "Point", "coordinates": [ 101.826655, 2.829904 ] } },
{ "type": "Feature", "properties": { "station": "Nilai", "same_as": null, "region": "Outer belt", "district": "Negeri Sembilan", "corridor": "Seremban Line", "lat": 2.802356, "lon": 101.799303, "source": "GTFS", "rr_station": "Kajang", "rr_key": "kajang", "rr_distance_m": 20135.0, "interchange": false }, "geometry": { "type": "Point", "coordinates": [ 101.799303, 2.802356 ] } },
{ "type": "Feature", "properties": { "station": "Labu", "same_as": null, "region": "Outer belt", "district": "Negeri Sembilan", "corridor": "Seremban Line", "lat": 2.754501, "lon": 101.826656, "source": "GTFS", "rr_station": "Kajang", "rr_key": "kajang", "rr_distance_m": 25764.0, "interchange": false }, "geometry": { "type": "Point", "coordinates": [ 101.826656, 2.754501 ] } },
{ "type": "Feature", "properties": { "station": "Tiroi", "same_as": null, "region": "Outer belt", "district": "Negeri Sembilan", "corridor": "Seremban Line", "lat": 2.741459, "lon": 101.871914, "source": "GTFS", "rr_station": "Kajang", "rr_key": "kajang", "rr_distance_m": 28391.0, "interchange": false }, "geometry": { "type": "Point", "coordinates": [ 101.871914, 2.741459 ] } },
{ "type": "Feature", "properties": { "station": "Seremban", "same_as": null, "region": "Outer belt", "district": "Negeri Sembilan", "corridor": "Seremban Line", "lat": 2.719169, "lon": 101.940792, "source": "GTFS", "rr_station": "Kajang", "rr_key": "kajang", "rr_distance_m": 33823.0, "interchange": false }, "geometry": { "type": "Point", "coordinates": [ 101.940792, 2.719169 ] } },
{ "type": "Feature", "properties": { "station": "Senawang", "same_as": null, "region": "Outer belt", "district": "Negeri Sembilan", "corridor": "Seremban Line", "lat": 2.690138, "lon": 101.972336, "source": "GTFS", "rr_station": "Kajang", "rr_key": "kajang", "rr_distance_m": 38400.0, "interchange": false }, "geometry": { "type": "Point", "coordinates": [ 101.972336, 2.690138 ] } },
{ "type": "Feature", "properties": { "station": "Sungai Gadut", "same_as": null, "region": "Outer belt", "district": "Negeri Sembilan", "corridor": "Seremban Line", "lat": 2.660898, "lon": 101.996158, "source": "GTFS", "rr_station": "Kajang", "rr_key": "kajang", "rr_distance_m": 42571.0, "interchange": false }, "geometry": { "type": "Point", "coordinates": [ 101.996158, 2.660898 ] } },
{ "type": "Feature", "properties": { "station": "Rembau", "same_as": null, "region": "Outer belt", "district": "Negeri Sembilan", "corridor": "Seremban Line", "lat": 2.593055, "lon": 102.094653, "source": "GTFS", "rr_station": "Kajang", "rr_key": "kajang", "rr_distance_m": 55088.0, "interchange": false }, "geometry": { "type": "Point", "coordinates": [ 102.094653, 2.593055 ] } },
{ "type": "Feature", "properties": { "station": "Pulau Sebang (Tampin)", "same_as": null, "region": "Outer belt", "district": "Melaka / Negeri Sembilan", "corridor": "Seremban Line", "lat": 2.46396, "lon": 102.226308, "source": "GTFS", "rr_station": "Kajang", "rr_key": "kajang", "rr_distance_m": 75493.0, "interchange": false }, "geometry": { "type": "Point", "coordinates": [ 102.226308, 2.46396 ] } },
{ "type": "Feature", "properties": { "station": "Tanjong Malim", "same_as": null, "region": "Outer belt", "district": "Perak (Tanjong Malim)", "corridor": "Port Klang Line", "lat": 3.685142, "lon": 101.518165, "source": "GTFS", "rr_station": "Sungai Buloh", "rr_key": "sungaibuloh", "rr_distance_m": 53854.0, "interchange": false }, "geometry": { "type": "Point", "coordinates": [ 101.518165, 3.685142 ] } },
{ "type": "Feature", "properties": { "station": "Kuala Kubu Bharu", "same_as": null, "region": "Outer belt", "district": "Hulu Selangor", "corridor": "Port Klang Line", "lat": 3.553215, "lon": 101.639591, "source": "GTFS", "rr_station": "Gombak", "rr_key": "gombak", "rr_distance_m": 37067.0, "interchange": false }, "geometry": { "type": "Point", "coordinates": [ 101.639591, 3.553215 ] } },
{ "type": "Feature", "properties": { "station": "Rasa", "same_as": null, "region": "Outer belt", "district": "Hulu Selangor", "corridor": "Port Klang Line", "lat": 3.500586, "lon": 101.634113, "source": "GTFS", "rr_station": "Gombak", "rr_key": "gombak", "rr_distance_m": 31615.0, "interchange": false }, "geometry": { "type": "Point", "coordinates": [ 101.634113, 3.500586 ] } },
{ "type": "Feature", "properties": { "station": "Batang Kali", "same_as": null, "region": "Outer belt", "district": "Hulu Selangor", "corridor": "Port Klang Line", "lat": 3.46838, "lon": 101.637759, "source": "GTFS", "rr_station": "Gombak", "rr_key": "gombak", "rr_distance_m": 28091.0, "interchange": false }, "geometry": { "type": "Point", "coordinates": [ 101.637759, 3.46838 ] } },
{ "type": "Feature", "properties": { "station": "Serendah", "same_as": null, "region": "Outer belt", "district": "Hulu Selangor", "corridor": "Port Klang Line", "lat": 3.376172, "lon": 101.614532, "source": "GTFS", "rr_station": "Metro Prima", "rr_key": "metroprima", "rr_distance_m": 18245.0, "interchange": false }, "geometry": { "type": "Point", "coordinates": [ 101.614532, 3.376172 ] } },
{ "type": "Feature", "properties": { "station": "Rawang", "same_as": null, "region": "Klang Valley", "district": "Gombak", "corridor": "Port Klang Line", "lat": 3.318955, "lon": 101.575012, "source": "GTFS", "rr_station": "Sungai Buloh", "rr_key": "sungaibuloh", "rr_distance_m": 12569.0, "interchange": false }, "geometry": { "type": "Point", "coordinates": [ 101.575012, 3.318955 ] } },
{ "type": "Feature", "properties": { "station": "Kuang", "same_as": null, "region": "Klang Valley", "district": "Gombak", "corridor": "Port Klang Line", "lat": 3.258267, "lon": 101.554794, "source": "GTFS", "rr_station": "Sungai Buloh", "rr_key": "sungaibuloh", "rr_distance_m": 6514.0, "interchange": false }, "geometry": { "type": "Point", "coordinates": [ 101.554794, 3.258267 ] } },
{ "type": "Feature", "properties": { "station": "Sungai Buloh", "same_as": null, "region": "Klang Valley", "district": "Petaling", "corridor": "Port Klang Line", "lat": 3.206356, "lon": 101.580128, "source": "GTFS", "rr_station": "Sungai Buloh", "rr_key": "sungaibuloh", "rr_distance_m": 184.0, "interchange": true }, "geometry": { "type": "Point", "coordinates": [ 101.580128, 3.206356 ] } },
{ "type": "Feature", "properties": { "station": "Kepong Sentral", "same_as": null, "region": "Klang Valley", "district": "W.P. Kuala Lumpur", "corridor": "Port Klang Line", "lat": 3.208653, "lon": 101.62849, "source": "GTFS", "rr_station": "Sri Damansara Timur", "rr_key": "sridamansaratimur", "rr_distance_m": 95.0, "interchange": true }, "geometry": { "type": "Point", "coordinates": [ 101.62849, 3.208653 ] } },
{ "type": "Feature", "properties": { "station": "Kepong", "same_as": null, "region": "Klang Valley", "district": "W.P. Kuala Lumpur", "corridor": "Port Klang Line", "lat": 3.202996, "lon": 101.637381, "source": "GTFS", "rr_station": "Sri Damansara Timur", "rr_key": "sridamansaratimur", "rr_distance_m": 1105.0, "interchange": false }, "geometry": { "type": "Point", "coordinates": [ 101.637381, 3.202996 ] } },
{ "type": "Feature", "properties": { "station": "Segambut", "same_as": null, "region": "Klang Valley", "district": "W.P. Kuala Lumpur", "corridor": "Port Klang Line", "lat": 3.186514, "lon": 101.664032, "source": "GTFS", "rr_station": "Jalan Ipoh", "rr_key": "jalanipoh", "rr_distance_m": 1931.0, "interchange": false }, "geometry": { "type": "Point", "coordinates": [ 101.664032, 3.186514 ] } },
{ "type": "Feature", "properties": { "station": "Segambut 2", "same_as": "Segambut Utara", "region": "Klang Valley", "district": "W.P. Kuala Lumpur", "corridor": "Port Klang Line", "lat": 3.192022, "lon": 101.655138, "source": "OpenStreetMap", "rr_station": "Jinjang", "rr_key": "jinjang", "rr_distance_m": 1955.0, "interchange": false }, "geometry": { "type": "Point", "coordinates": [ 101.655138, 3.192022 ] } },
{ "type": "Feature", "properties": { "station": "Segambut Utara", "same_as": null, "region": "Klang Valley", "district": "W.P. Kuala Lumpur", "corridor": "Port Klang Line", "lat": 3.192022, "lon": 101.655138, "source": "OpenStreetMap", "rr_station": "Jinjang", "rr_key": "jinjang", "rr_distance_m": 1955.0, "interchange": false }, "geometry": { "type": "Point", "coordinates": [ 101.655138, 3.192022 ] } },
{ "type": "Feature", "properties": { "station": "Abdullah Hukum", "same_as": null, "region": "Klang Valley", "district": "W.P. Kuala Lumpur", "corridor": "Port Klang Line", "lat": 3.11869, "lon": 101.67293, "source": "GTFS", "rr_station": "Abdullah Hukum", "rr_key": "abdullahhukum", "rr_distance_m": 6.0, "interchange": true }, "geometry": { "type": "Point", "coordinates": [ 101.67293, 3.11869 ] } },
{ "type": "Feature", "properties": { "station": "Angkasapuri", "same_as": null, "region": "Klang Valley", "district": "W.P. Kuala Lumpur", "corridor": "Port Klang Line", "lat": 3.113212, "lon": 101.673367, "source": "GTFS", "rr_station": "Kerinchi", "rr_key": "kerinchi", "rr_distance_m": 592.0, "interchange": false }, "geometry": { "type": "Point", "coordinates": [ 101.673367, 3.113212 ] } },
{ "type": "Feature", "properties": { "station": "Pantai Dalam", "same_as": null, "region": "Klang Valley", "district": "W.P. Kuala Lumpur", "corridor": "Port Klang Line", "lat": 3.095607, "lon": 101.669927, "source": "GTFS", "rr_station": "Kerinchi", "rr_key": "kerinchi", "rr_distance_m": 2224.0, "interchange": false }, "geometry": { "type": "Point", "coordinates": [ 101.669927, 3.095607 ] } },
{ "type": "Feature", "properties": { "station": "Petaling", "same_as": null, "region": "Klang Valley", "district": "W.P. Kuala Lumpur", "corridor": "Port Klang Line", "lat": 3.086485, "lon": 101.664338, "source": "GTFS", "rr_station": "Muhibbah", "rr_key": "muhibbah", "rr_distance_m": 2711.0, "interchange": false }, "geometry": { "type": "Point", "coordinates": [ 101.664338, 3.086485 ] } },
{ "type": "Feature", "properties": { "station": "Jalan Templer", "same_as": null, "region": "Klang Valley", "district": "Petaling", "corridor": "Port Klang Line", "lat": 3.084013, "lon": 101.656402, "source": "GTFS", "rr_station": "Muhibbah", "rr_key": "muhibbah", "rr_distance_m": 2523.0, "interchange": false }, "geometry": { "type": "Point", "coordinates": [ 101.656402, 3.084013 ] } },
{ "type": "Feature", "properties": { "station": "Kampung Dato Harun", "same_as": null, "region": "Klang Valley", "district": "Petaling", "corridor": "Port Klang Line", "lat": 3.084828, "lon": 101.632339, "source": "GTFS", "rr_station": "Asia Jaya", "rr_key": "asiajaya", "rr_distance_m": 2256.0, "interchange": false }, "geometry": { "type": "Point", "coordinates": [ 101.632339, 3.084828 ] } },
{ "type": "Feature", "properties": { "station": "Seri Setia", "same_as": null, "region": "Klang Valley", "district": "Petaling", "corridor": "Port Klang Line", "lat": 3.084535, "lon": 101.621904, "source": "OpenStreetMap", "rr_station": "Taman Paramount", "rr_key": "tamanparamount", "rr_distance_m": 2254.0, "interchange": false }, "geometry": { "type": "Point", "coordinates": [ 101.621904, 3.084535 ] } },
{ "type": "Feature", "properties": { "station": "Setia Jaya", "same_as": null, "region": "Klang Valley", "district": "Petaling", "corridor": "Port Klang Line", "lat": 3.083373, "lon": 101.61143, "source": "GTFS", "rr_station": "Subang Jaya", "rr_key": "subangjaya", "rr_distance_m": 2598.0, "interchange": false }, "geometry": { "type": "Point", "coordinates": [ 101.61143, 3.083373 ] } },
{ "type": "Feature", "properties": { "station": "Subang Jaya", "same_as": null, "region": "Klang Valley", "district": "Petaling", "corridor": "Port Klang Line", "lat": 3.084554, "lon": 101.587373, "source": "GTFS", "rr_station": "Subang Jaya", "rr_key": "subangjaya", "rr_distance_m": 85.0, "interchange": true }, "geometry": { "type": "Point", "coordinates": [ 101.587373, 3.084554 ] } },
{ "type": "Feature", "properties": { "station": "Batu Tiga", "same_as": null, "region": "Klang Valley", "district": "Petaling", "corridor": "Port Klang Line", "lat": 3.076091, "lon": 101.559811, "source": "GTFS", "rr_station": "Kerjaya", "rr_key": "kerjaya", "rr_distance_m": 724.0, "interchange": false }, "geometry": { "type": "Point", "coordinates": [ 101.559811, 3.076091 ] } },
{ "type": "Feature", "properties": { "station": "Shah Alam", "same_as": null, "region": "Klang Valley", "district": "Petaling", "corridor": "Port Klang Line", "lat": 3.056388, "lon": 101.525302, "source": "GTFS", "rr_station": "Dato' Menteri - SA Sentral", "rr_key": "datomenteri", "rr_distance_m": 1558.0, "interchange": false }, "geometry": { "type": "Point", "coordinates": [ 101.525302, 3.056388 ] } },
{ "type": "Feature", "properties": { "station": "Padang Jawa", "same_as": null, "region": "Klang Valley", "district": "Petaling", "corridor": "Port Klang Line", "lat": 3.052532, "lon": 101.492742, "source": "GTFS", "rr_station": "UiTM Shah Alam", "rr_key": "uitmshahalam", "rr_distance_m": 1450.0, "interchange": false }, "geometry": { "type": "Point", "coordinates": [ 101.492742, 3.052532 ] } },
{ "type": "Feature", "properties": { "station": "Bukit Badak", "same_as": null, "region": "Klang Valley", "district": "Klang", "corridor": "Port Klang Line", "lat": 3.036147, "lon": 101.470176, "source": "GTFS", "rr_station": "Jambatan Kota", "rr_key": "jambatankota", "rr_distance_m": 2810.0, "interchange": false }, "geometry": { "type": "Point", "coordinates": [ 101.470176, 3.036147 ] } },
{ "type": "Feature", "properties": { "station": "Klang", "same_as": null, "region": "Klang Valley", "district": "Klang", "corridor": "Port Klang Line", "lat": 3.043078, "lon": 101.449543, "source": "GTFS", "rr_station": "Jambatan Kota", "rr_key": "jambatankota", "rr_distance_m": 515.0, "interchange": false }, "geometry": { "type": "Point", "coordinates": [ 101.449543, 3.043078 ] } },
{ "type": "Feature", "properties": { "station": "Kampung Raja Uda", "same_as": null, "region": "Klang Valley", "district": "Klang", "corridor": "Port Klang Line", "lat": 3.020253, "lon": 101.41023, "source": "GTFS", "rr_station": "Seri Andalas", "rr_key": "seriandalas", "rr_distance_m": 3412.0, "interchange": false }, "geometry": { "type": "Point", "coordinates": [ 101.41023, 3.020253 ] } },
{ "type": "Feature", "properties": { "station": "Telok Gadong", "same_as": null, "region": "Klang Valley", "district": "Klang", "corridor": "Port Klang Line", "lat": 3.033932, "lon": 101.424947, "source": "GTFS", "rr_station": "Taman Selatan", "rr_key": "tamanselatan", "rr_distance_m": 2087.0, "interchange": false }, "geometry": { "type": "Point", "coordinates": [ 101.424947, 3.033932 ] } },
{ "type": "Feature", "properties": { "station": "Telok Pulai", "same_as": null, "region": "Klang Valley", "district": "Klang", "corridor": "Port Klang Line", "lat": 3.04089, "lon": 101.432153, "source": "GTFS", "rr_station": "Jambatan Kota", "rr_key": "jambatankota", "rr_distance_m": 1849.0, "interchange": false }, "geometry": { "type": "Point", "coordinates": [ 101.432153, 3.04089 ] } },
{ "type": "Feature", "properties": { "station": "Jalan Kastam", "same_as": null, "region": "Klang Valley", "district": "Klang", "corridor": "Port Klang Line", "lat": 3.013128, "lon": 101.402599, "source": "GTFS", "rr_station": "Seri Andalas", "rr_key": "seriandalas", "rr_distance_m": 4236.0, "interchange": false }, "geometry": { "type": "Point", "coordinates": [ 101.402599, 3.013128 ] } },
{ "type": "Feature", "properties": { "station": "Pelabuhan Klang Selatan", "same_as": null, "region": "Klang Valley", "district": "Klang", "corridor": "Port Klang Line", "lat": 2.999323, "lon": 101.39179, "source": "GTFS", "rr_station": "Klang Jaya", "rr_key": "klangjaya", "rr_distance_m": 5592.0, "interchange": false }, "geometry": { "type": "Point", "coordinates": [ 101.39179, 2.999323 ] } },
{ "type": "Feature", "properties": { "station": "Sungkai", "same_as": null, "region": "Other", "district": "Perak", "corridor": "Other", "lat": 4.006223, "lon": 101.301512, "source": "GTFS", "rr_station": "Sungai Buloh", "rr_key": "sungaibuloh", "rr_distance_m": 94508.0, "interchange": false }, "geometry": { "type": "Point", "coordinates": [ 101.301512, 4.006223 ] } },
{ "type": "Feature", "properties": { "station": "Tapah Road", "same_as": null, "region": "Other", "district": "Perak", "corridor": "Other", "lat": 4.173861, "lon": 101.189333, "source": "GTFS", "rr_station": "Sungai Buloh", "rr_key": "sungaibuloh", "rr_distance_m": 116426.0, "interchange": false }, "geometry": { "type": "Point", "coordinates": [ 101.189333, 4.173861 ] } },
{ "type": "Feature", "properties": { "station": "Kampar", "same_as": null, "region": "Other", "district": "Perak", "corridor": "Other", "lat": 4.302787, "lon": 101.153512, "source": "GTFS", "rr_station": "Sungai Buloh", "rr_key": "sungaibuloh", "rr_distance_m": 131273.0, "interchange": false }, "geometry": { "type": "Point", "coordinates": [ 101.153512, 4.302787 ] } },
{ "type": "Feature", "properties": { "station": "Kempas Baru", "same_as": null, "region": "Other", "district": "Johor", "corridor": "Other", "lat": 1.535744, "lon": 103.721801, "source": "GTFS", "rr_station": "Kajang", "rr_key": "kajang", "rr_distance_m": 268741.0, "interchange": false }, "geometry": { "type": "Point", "coordinates": [ 103.721801, 1.535744 ] } },
{ "type": "Feature", "properties": { "station": "Kulai", "same_as": null, "region": "Other", "district": "Johor", "corridor": "Other", "lat": 1.663129, "lon": 103.600489, "source": "GTFS", "rr_station": "Kajang", "rr_key": "kajang", "rr_distance_m": 249447.0, "interchange": false }, "geometry": { "type": "Point", "coordinates": [ 103.600489, 1.663129 ] } },
{ "type": "Feature", "properties": { "station": "Layang-Layang", "same_as": null, "region": "Other", "district": "Johor", "corridor": "Other", "lat": 1.813828, "lon": 103.475791, "source": "GTFS", "rr_station": "Kajang", "rr_key": "kajang", "rr_distance_m": 228404.0, "interchange": false }, "geometry": { "type": "Point", "coordinates": [ 103.475791, 1.813828 ] } },
{ "type": "Feature", "properties": { "station": "Rengam", "same_as": null, "region": "Other", "district": "Johor", "corridor": "Other", "lat": 1.884852, "lon": 103.403207, "source": "GTFS", "rr_station": "Kajang", "rr_key": "kajang", "rr_distance_m": 217264.0, "interchange": false }, "geometry": { "type": "Point", "coordinates": [ 103.403207, 1.884852 ] } },
{ "type": "Feature", "properties": { "station": "Pasir Gudang", "same_as": null, "region": "Other", "district": "Johor", "corridor": "Other", "lat": 1.444783, "lon": 103.92152, "source": "GTFS", "rr_station": "Kajang", "rr_key": "kajang", "rr_distance_m": 292652.0, "interchange": false }, "geometry": { "type": "Point", "coordinates": [ 103.92152, 1.444783 ] } }
]
}
