{
"type": "FeatureCollection",
"name": "stations",
"crs": { "type": "name", "properties": { "name": "urn:ogc:def:crs:OGC:1.3:CRS84" } },
"features": [
{ "type": "Feature", "properties": { "key": "16sierra", "avg_daily_entries": 464.0, "avg_working_day": 562.0, "avg_weekend_holiday": 271.0, "weekend_ratio": 0.482, "name": "16 Sierra", "codes": "PYL38", "lat": 2.964974, "lon": 101.654812, "district": "Sepang", "parlimen": null }, "geometry": { "type": "Point", "coordinates": [ 101.654812, 2.964974 ] } },
{ "type": "Feature", "properties": { "key": "abdullahhukum", "avg_daily_entries": 13604.0, "avg_working_day": 16738.0, "avg_weekend_holiday": 7438.0, "weekend_ratio": 0.444, "name": "Abdullah Hukum", "codes": "KJ17", "lat": 3.118735, "lon": 101.672897, "district": "W.P. Kuala Lumpur", "parlimen": "P.121 Lembah Pantai" }, "geometry": { "type": "Point", "coordinates": [ 101.672897, 3.118735 ] } },
{ "type": "Feature", "properties": { "key": "alammegah", "avg_daily_entries": 1489.0, "avg_working_day": 1764.0, "avg_weekend_holiday": 949.0, "weekend_ratio": 0.538, "name": "Alam Megah", "codes": "KJ35", "lat": 3.023151, "lon": 101.572029, "district": "Petaling", "parlimen": "P.111 Kota Raja" }, "geometry": { "type": "Point", "coordinates": [ 101.572029, 3.023151 ] } },
{ "type": "Feature", "properties": { "key": "alamsutera", "avg_daily_entries": 1503.0, "avg_working_day": 1809.0, "avg_weekend_holiday": 901.0, "weekend_ratio": 0.498, "name": "Alam Sutera", "codes": "SP21", "lat": 3.0547, "lon": 101.656468, "district": "Petaling", "parlimen": "P.104 Subang" }, "geometry": { "type": "Point", "coordinates": [ 101.656468, 3.0547 ] } },
{ "type": "Feature", "properties": { "key": "ampang", "avg_daily_entries": 3886.0, "avg_working_day": 4391.0, "avg_weekend_holiday": 2892.0, "weekend_ratio": 0.659, "name": "Ampang", "codes": "AG18", "lat": 3.150318, "lon": 101.760049, "district": "Ulu Langat", "parlimen": "P.099 Ampang" }, "geometry": { "type": "Point", "coordinates": [ 101.760049, 3.150318 ] } },
{ "type": "Feature", "properties": { "key": "ampangpark", "avg_daily_entries": 19078.0, "avg_working_day": 23758.0, "avg_weekend_holiday": 9868.0, "weekend_ratio": 0.415, "name": "Ampang Park", "codes": "KJ9, PYL20", "lat": 3.161072, "lon": 101.7184135, "district": "W.P. Kuala Lumpur", "parlimen": "P.119 Titiwangsa" }, "geometry": { "type": "Point", "coordinates": [ 101.7184135, 3.161072 ] } },
{ "type": "Feature", "properties": { "key": "aradamansara", "avg_daily_entries": 4727.0, "avg_working_day": 5825.0, "avg_weekend_holiday": 2567.0, "weekend_ratio": 0.441, "name": "Ara Damansara", "codes": "KJ26", "lat": 3.108643, "lon": 101.586372, "district": "Petaling", "parlimen": "P.105 Petaling Jaya" }, "geometry": { "type": "Point", "coordinates": [ 101.586372, 3.108643 ] } },
{ "type": "Feature", "properties": { "key": "asiajaya", "avg_daily_entries": 5115.0, "avg_working_day": 6505.0, "avg_weekend_holiday": 2380.0, "weekend_ratio": 0.366, "name": "Asia Jaya", "codes": "KJ21", "lat": 3.104343, "lon": 101.637695, "district": "Petaling", "parlimen": "P.105 Petaling Jaya" }, "geometry": { "type": "Point", "coordinates": [ 101.637695, 3.104343 ] } },
{ "type": "Feature", "properties": { "key": "awanbesar", "avg_daily_entries": 2628.0, "avg_working_day": 2915.0, "avg_weekend_holiday": 2063.0, "weekend_ratio": 0.708, "name": "Awan Besar", "codes": "SP19", "lat": 3.062131, "lon": 101.670555, "district": "W.P. Kuala Lumpur", "parlimen": "P.122 Seputeh" }, "geometry": { "type": "Point", "coordinates": [ 101.670555, 3.062131 ] } },
{ "type": "Feature", "properties": { "key": "bandaraya", "avg_daily_entries": 5757.0, "avg_working_day": 6653.0, "avg_weekend_holiday": 3995.0, "weekend_ratio": 0.6, "name": "Bandaraya", "codes": "AG6", "lat": 3.155567, "lon": 101.694485, "district": "W.P. Kuala Lumpur", "parlimen": "P.120 Bukit Bintang" }, "geometry": { "type": "Point", "coordinates": [ 101.694485, 3.155567 ] } },
{ "type": "Feature", "properties": { "key": "bandarbaruklang", "avg_daily_entries": 241.0, "avg_working_day": 244.0, "avg_weekend_holiday": 237.0, "weekend_ratio": 0.971, "name": "Bandar Baru Klang", "codes": "SA17", "lat": 3.0625, "lon": 101.465556, "district": "Klang", "parlimen": "P.110 Klang" }, "geometry": { "type": "Point", "coordinates": [ 101.465556, 3.0625 ] } },
{ "type": "Feature", "properties": { "key": "bandarbukittinggi", "avg_daily_entries": 488.0, "avg_working_day": 460.0, "avg_weekend_holiday": 545.0, "weekend_ratio": 1.187, "name": "Bandar Bukit Tinggi", "codes": "SA24", "lat": 2.993056, "lon": 101.445833, "district": "Klang", "parlimen": "P.111 Kota Raja" }, "geometry": { "type": "Point", "coordinates": [ 101.445833, 2.993056 ] } },
{ "type": "Feature", "properties": { "key": "bandarputeri", "avg_daily_entries": 1595.0, "avg_working_day": 1863.0, "avg_weekend_holiday": 1068.0, "weekend_ratio": 0.573, "name": "Bandar Puteri", "codes": "SP27", "lat": 3.017111, "lon": 101.612855, "district": "Petaling", "parlimen": "P.104 Subang" }, "geometry": { "type": "Point", "coordinates": [ 101.612855, 3.017111 ] } },
{ "type": "Feature", "properties": { "key": "bandartasikselatan", "avg_daily_entries": 5337.0, "avg_working_day": 5454.0, "avg_weekend_holiday": 5109.0, "weekend_ratio": 0.937, "name": "Bandar Tasik Selatan", "codes": "SP15", "lat": 3.076058, "lon": 101.711107, "district": "W.P. Kuala Lumpur", "parlimen": "P.124 Bandar Tun Razak" }, "geometry": { "type": "Point", "coordinates": [ 101.711107, 3.076058 ] } },
{ "type": "Feature", "properties": { "key": "bandartunhussienonn", "avg_daily_entries": 3494.0, "avg_working_day": 4044.0, "avg_weekend_holiday": 2413.0, "weekend_ratio": 0.597, "name": "Bandar Tun Hussien Onn", "codes": "KG29", "lat": 3.048223, "lon": 101.775109, "district": "Ulu Langat", "parlimen": "P.102 Bangi" }, "geometry": { "type": "Point", "coordinates": [ 101.775109, 3.048223 ] } },
{ "type": "Feature", "properties": { "key": "bandartunrazak", "avg_daily_entries": 1549.0, "avg_working_day": 1801.0, "avg_weekend_holiday": 1052.0, "weekend_ratio": 0.584, "name": "Bandar Tun Razak", "codes": "SP14", "lat": 3.089576, "lon": 101.712466, "district": "W.P. Kuala Lumpur", "parlimen": "P.124 Bandar Tun Razak" }, "geometry": { "type": "Point", "coordinates": [ 101.712466, 3.089576 ] } },
{ "type": "Feature", "properties": { "key": "bandarutama", "avg_daily_entries": 13537.0, "avg_working_day": 14730.0, "avg_weekend_holiday": 11189.0, "weekend_ratio": 0.76, "name": "Bandar Utama", "codes": "KG9, SA1", "lat": 3.145716, "lon": 101.618605, "district": "Petaling", "parlimen": "P.106 Damansara" }, "geometry": { "type": "Point", "coordinates": [ 101.618605, 3.145716 ] } },
{ "type": "Feature", "properties": { "key": "bandarutama11", "avg_daily_entries": 139.0, "avg_working_day": 147.0, "avg_weekend_holiday": 124.0, "weekend_ratio": 0.843, "name": "Bandar Utama 11", "codes": "SA3", "lat": 3.133333, "lon": 101.604444, "district": "Petaling", "parlimen": "P.106 Damansara" }, "geometry": { "type": "Point", "coordinates": [ 101.604444, 3.133333 ] } },
{ "type": "Feature", "properties": { "key": "bankrakyatbangsar", "avg_daily_entries": 8241.0, "avg_working_day": 10137.0, "avg_weekend_holiday": 4510.0, "weekend_ratio": 0.445, "name": "Bank Rakyat Bangsar", "codes": "KJ16", "lat": 3.127588, "lon": 101.679062, "district": "W.P. Kuala Lumpur", "parlimen": "P.121 Lembah Pantai" }, "geometry": { "type": "Point", "coordinates": [ 101.679062, 3.127588 ] } },
{ "type": "Feature", "properties": { "key": "batu11cheras", "avg_daily_entries": 2757.0, "avg_working_day": 3086.0, "avg_weekend_holiday": 2110.0, "weekend_ratio": 0.684, "name": "Batu 11 Cheras", "codes": "KG30", "lat": 3.041339, "lon": 101.773383, "district": "Ulu Langat", "parlimen": "P.102 Bangi" }, "geometry": { "type": "Point", "coordinates": [ 101.773383, 3.041339 ] } },
{ "type": "Feature", "properties": { "key": "bukitbintang", "avg_daily_entries": 35031.0, "avg_working_day": 34965.0, "avg_weekend_holiday": 35160.0, "weekend_ratio": 1.006, "name": "Bukit Bintang", "codes": "KG18, MR6", "lat": 3.1462625, "lon": 101.7112235, "district": "W.P. Kuala Lumpur", "parlimen": "P.120 Bukit Bintang" }, "geometry": { "type": "Point", "coordinates": [ 101.7112235, 3.1462625 ] } },
{ "type": "Feature", "properties": { "key": "bukitdukung", "avg_daily_entries": 2485.0, "avg_working_day": 2915.0, "avg_weekend_holiday": 1638.0, "weekend_ratio": 0.562, "name": "Bukit Dukung", "codes": "KG31", "lat": 3.026413, "lon": 101.771072, "district": "Ulu Langat", "parlimen": "P.102 Bangi" }, "geometry": { "type": "Point", "coordinates": [ 101.771072, 3.026413 ] } },
{ "type": "Feature", "properties": { "key": "bukitjalil", "avg_daily_entries": 3041.0, "avg_working_day": 3158.0, "avg_weekend_holiday": 2812.0, "weekend_ratio": 0.89, "name": "Bukit Jalil", "codes": "SP17", "lat": 3.058196, "lon": 101.692125, "district": "W.P. Kuala Lumpur", "parlimen": "P.122 Seputeh" }, "geometry": { "type": "Point", "coordinates": [ 101.692125, 3.058196 ] } },
{ "type": "Feature", "properties": { "key": "bukitnanas", "avg_daily_entries": 4177.0, "avg_working_day": 4731.0, "avg_weekend_holiday": 3087.0, "weekend_ratio": 0.653, "name": "Bukit Nanas", "codes": "MR8", "lat": 3.156214, "lon": 101.704809, "district": "W.P. Kuala Lumpur", "parlimen": "P.120 Bukit Bintang" }, "geometry": { "type": "Point", "coordinates": [ 101.704809, 3.156214 ] } },
{ "type": "Feature", "properties": { "key": "cahaya", "avg_daily_entries": 2473.0, "avg_working_day": 2725.0, "avg_weekend_holiday": 1977.0, "weekend_ratio": 0.725, "name": "Cahaya", "codes": "AG17", "lat": 3.140575, "lon": 101.756677, "district": "Ulu Langat", "parlimen": "P.099 Ampang" }, "geometry": { "type": "Point", "coordinates": [ 101.756677, 3.140575 ] } },
{ "type": "Feature", "properties": { "key": "cempaka", "avg_daily_entries": 3443.0, "avg_working_day": 3909.0, "avg_weekend_holiday": 2525.0, "weekend_ratio": 0.646, "name": "Cempaka", "codes": "AG16", "lat": 3.138324, "lon": 101.752979, "district": "Ulu Langat", "parlimen": "P.100 Pandan" }, "geometry": { "type": "Point", "coordinates": [ 101.752979, 3.138324 ] } },
{ "type": "Feature", "properties": { "key": "cgcglenmarie", "avg_daily_entries": 8111.0, "avg_working_day": 9634.0, "avg_weekend_holiday": 5115.0, "weekend_ratio": 0.531, "name": "Cgc Glenmarie", "codes": "KJ27", "lat": 3.094732, "lon": 101.590622, "district": "Petaling", "parlimen": "P.105 Petaling Jaya" }, "geometry": { "type": "Point", "coordinates": [ 101.590622, 3.094732 ] } },
{ "type": "Feature", "properties": { "key": "chansowlin", "avg_daily_entries": 2936.0, "avg_working_day": 3306.0, "avg_weekend_holiday": 2209.0, "weekend_ratio": 0.668, "name": "Chan Sow Lin", "codes": "AG11, PYL24", "lat": 3.1282, "lon": 101.715968, "district": "W.P. Kuala Lumpur", "parlimen": "P.123 Cheras" }, "geometry": { "type": "Point", "coordinates": [ 101.715968, 3.1282 ] } },
{ "type": "Feature", "properties": { "key": "cheras", "avg_daily_entries": 2132.0, "avg_working_day": 2461.0, "avg_weekend_holiday": 1486.0, "weekend_ratio": 0.604, "name": "Cheras", "codes": "SP12", "lat": 3.112609, "lon": 101.714178, "district": "W.P. Kuala Lumpur", "parlimen": "P.124 Bandar Tun Razak" }, "geometry": { "type": "Point", "coordinates": [ 101.714178, 3.112609 ] } },
{ "type": "Feature", "properties": { "key": "chowkit", "avg_daily_entries": 3586.0, "avg_working_day": 3488.0, "avg_weekend_holiday": 3779.0, "weekend_ratio": 1.084, "name": "Chow Kit", "codes": "MR10", "lat": 3.167358, "lon": 101.698379, "district": "W.P. Kuala Lumpur", "parlimen": "P.119 Titiwangsa" }, "geometry": { "type": "Point", "coordinates": [ 101.698379, 3.167358 ] } },
{ "type": "Feature", "properties": { "key": "cochrane", "avg_daily_entries": 9101.0, "avg_working_day": 8818.0, "avg_weekend_holiday": 9660.0, "weekend_ratio": 1.095, "name": "Cochrane", "codes": "KG21", "lat": 3.132829, "lon": 101.722962, "district": "W.P. Kuala Lumpur", "parlimen": "P.119 Titiwangsa" }, "geometry": { "type": "Point", "coordinates": [ 101.722962, 3.132829 ] } },
{ "type": "Feature", "properties": { "key": "conlay", "avg_daily_entries": 2033.0, "avg_working_day": 2581.0, "avg_weekend_holiday": 954.0, "weekend_ratio": 0.369, "name": "Conlay", "codes": "PYL22", "lat": 3.15145, "lon": 101.71801, "district": "W.P. Kuala Lumpur", "parlimen": "P.120 Bukit Bintang" }, "geometry": { "type": "Point", "coordinates": [ 101.71801, 3.15145 ] } },
{ "type": "Feature", "properties": { "key": "cyberjayacitycentre", "avg_daily_entries": 736.0, "avg_working_day": 847.0, "avg_weekend_holiday": 518.0, "weekend_ratio": 0.611, "name": "Cyberjaya City Centre", "codes": "PYL40", "lat": 2.9384, "lon": 101.6659, "district": "Sepang", "parlimen": null }, "geometry": { "type": "Point", "coordinates": [ 101.6659, 2.9384 ] } },
{ "type": "Feature", "properties": { "key": "cyberjayautara", "avg_daily_entries": 1255.0, "avg_working_day": 1434.0, "avg_weekend_holiday": 902.0, "weekend_ratio": 0.629, "name": "Cyberjaya Utara", "codes": "PYL39", "lat": 2.95, "lon": 101.6573, "district": "Sepang", "parlimen": null }, "geometry": { "type": "Point", "coordinates": [ 101.6573, 2.95 ] } },
{ "type": "Feature", "properties": { "key": "damai", "avg_daily_entries": 1813.0, "avg_working_day": 2042.0, "avg_weekend_holiday": 1362.0, "weekend_ratio": 0.667, "name": "Damai", "codes": "KJ8", "lat": 3.164406, "lon": 101.724489, "district": "W.P. Kuala Lumpur", "parlimen": "P.119 Titiwangsa" }, "geometry": { "type": "Point", "coordinates": [ 101.724489, 3.164406 ] } },
{ "type": "Feature", "properties": { "key": "damansaradamai", "avg_daily_entries": 2381.0, "avg_working_day": 2748.0, "avg_weekend_holiday": 1660.0, "weekend_ratio": 0.604, "name": "Damansara Damai", "codes": "PYL5", "lat": 3.199892, "lon": 101.592623, "district": "Petaling", "parlimen": "P.106 Damansara" }, "geometry": { "type": "Point", "coordinates": [ 101.592623, 3.199892 ] } },
{ "type": "Feature", "properties": { "key": "damansaraidaman", "avg_daily_entries": 180.0, "avg_working_day": 202.0, "avg_weekend_holiday": 137.0, "weekend_ratio": 0.674, "name": "Damansara Idaman", "codes": "SA5", "lat": 3.122778, "lon": 101.594167, "district": "Petaling", "parlimen": "P.105 Petaling Jaya" }, "geometry": { "type": "Point", "coordinates": [ 101.594167, 3.122778 ] } },
{ "type": "Feature", "properties": { "key": "dangwangi", "avg_daily_entries": 4136.0, "avg_working_day": 5081.0, "avg_weekend_holiday": 2277.0, "weekend_ratio": 0.448, "name": "Dang Wangi", "codes": "KJ12", "lat": 3.156942, "lon": 101.701975, "district": "W.P. Kuala Lumpur", "parlimen": "P.119 Titiwangsa" }, "geometry": { "type": "Point", "coordinates": [ 101.701975, 3.156942 ] } },
{ "type": "Feature", "properties": { "key": "datokeramat", "avg_daily_entries": 1427.0, "avg_working_day": 1599.0, "avg_weekend_holiday": 1088.0, "weekend_ratio": 0.68, "name": "Dato' Keramat", "codes": "KJ7", "lat": 3.16509, "lon": 101.73184, "district": "W.P. Kuala Lumpur", "parlimen": "P.119 Titiwangsa" }, "geometry": { "type": "Point", "coordinates": [ 101.73184, 3.16509 ] } },
{ "type": "Feature", "properties": { "key": "datomenteri", "avg_daily_entries": 355.0, "avg_working_day": 388.0, "avg_weekend_holiday": 292.0, "weekend_ratio": 0.753, "name": "Dato' Menteri - SA Sentral", "codes": "SA12", "lat": 3.069722, "lon": 101.521111, "district": "Petaling", "parlimen": "P.108 Shah Alam" }, "geometry": { "type": "Point", "coordinates": [ 101.521111, 3.069722 ] } },
{ "type": "Feature", "properties": { "key": "glenmarie2", "avg_daily_entries": 2219.0, "avg_working_day": 2494.0, "avg_weekend_holiday": 1677.0, "weekend_ratio": 0.672, "name": "Glenmarie 2", "codes": "SA7", "lat": 3.095278, "lon": 101.588611, "district": "Petaling", "parlimen": "P.105 Petaling Jaya" }, "geometry": { "type": "Point", "coordinates": [ 101.588611, 3.095278 ] } },
{ "type": "Feature", "properties": { "key": "gombak", "avg_daily_entries": 4294.0, "avg_working_day": 5002.0, "avg_weekend_holiday": 2901.0, "weekend_ratio": 0.58, "name": "Gombak", "codes": "KJ1", "lat": 3.231793, "lon": 101.724427, "district": "W.P. Kuala Lumpur", "parlimen": "P.098 Gombak" }, "geometry": { "type": "Point", "coordinates": [ 101.724427, 3.231793 ] } },
{ "type": "Feature", "properties": { "key": "hangtuah", "avg_daily_entries": 9937.0, "avg_working_day": 9620.0, "avg_weekend_holiday": 10560.0, "weekend_ratio": 1.098, "name": "Hang Tuah", "codes": "AG9, MR4", "lat": 3.1401783333333335, "lon": 101.705999, "district": "W.P. Kuala Lumpur", "parlimen": "P.120 Bukit Bintang" }, "geometry": { "type": "Point", "coordinates": [ 101.705999, 3.140178333333334 ] } },
{ "type": "Feature", "properties": { "key": "hospitalkualalumpur", "avg_daily_entries": 2229.0, "avg_working_day": 2550.0, "avg_weekend_holiday": 1599.0, "weekend_ratio": 0.627, "name": "Hospital Kuala Lumpur", "codes": "PYL18", "lat": 3.17405, "lon": 101.70239, "district": "W.P. Kuala Lumpur", "parlimen": "P.118 Setiawangsa" }, "geometry": { "type": "Point", "coordinates": [ 101.70239, 3.17405 ] } },
{ "type": "Feature", "properties": { "key": "imbi", "avg_daily_entries": 5096.0, "avg_working_day": 4823.0, "avg_weekend_holiday": 5632.0, "weekend_ratio": 1.168, "name": "Imbi", "codes": "MR5", "lat": 3.14283, "lon": 101.70945, "district": "W.P. Kuala Lumpur", "parlimen": "P.120 Bukit Bintang" }, "geometry": { "type": "Point", "coordinates": [ 101.70945, 3.14283 ] } },
{ "type": "Feature", "properties": { "key": "ioipuchongjaya", "avg_daily_entries": 3019.0, "avg_working_day": 3217.0, "avg_weekend_holiday": 2630.0, "weekend_ratio": 0.817, "name": "IOI Puchong Jaya", "codes": "SP24", "lat": 3.048101, "lon": 101.62095, "district": "Petaling", "parlimen": "P.104 Subang" }, "geometry": { "type": "Point", "coordinates": [ 101.62095, 3.048101 ] } },
{ "type": "Feature", "properties": { "key": "jalanipoh", "avg_daily_entries": 650.0, "avg_working_day": 794.0, "avg_weekend_holiday": 367.0, "weekend_ratio": 0.463, "name": "Jalan Ipoh", "codes": "PYL15", "lat": 3.189319, "lon": 101.681145, "district": "W.P. Kuala Lumpur", "parlimen": "P.115 Batu" }, "geometry": { "type": "Point", "coordinates": [ 101.681145, 3.189319 ] } },
{ "type": "Feature", "properties": { "key": "jalanmeru", "avg_daily_entries": 122.0, "avg_working_day": 122.0, "avg_weekend_holiday": 122.0, "weekend_ratio": 0.997, "name": "Jalan Meru", "codes": "SA19", "lat": 3.058889, "lon": 101.451944, "district": "Klang", "parlimen": "P.110 Klang" }, "geometry": { "type": "Point", "coordinates": [ 101.451944, 3.058889 ] } },
{ "type": "Feature", "properties": { "key": "jambatankota", "avg_daily_entries": 466.0, "avg_working_day": 437.0, "avg_weekend_holiday": 524.0, "weekend_ratio": 1.2, "name": "Jambatan Kota", "codes": "SA20", "lat": 3.047222, "lon": 101.4475, "district": "Klang", "parlimen": "P.110 Klang" }, "geometry": { "type": "Point", "coordinates": [ 101.4475, 3.047222 ] } },
{ "type": "Feature", "properties": { "key": "jelatek", "avg_daily_entries": 3686.0, "avg_working_day": 4161.0, "avg_weekend_holiday": 2751.0, "weekend_ratio": 0.661, "name": "Jelatek", "codes": "KJ6", "lat": 3.167204, "lon": 101.735344, "district": "W.P. Kuala Lumpur", "parlimen": "P.098 Gombak" }, "geometry": { "type": "Point", "coordinates": [ 101.735344, 3.167204 ] } },
{ "type": "Feature", "properties": { "key": "jinjang", "avg_daily_entries": 1377.0, "avg_working_day": 1591.0, "avg_weekend_holiday": 954.0, "weekend_ratio": 0.6, "name": "Jinjang", "codes": "PYL11", "lat": 3.209544, "lon": 101.655829, "district": "W.P. Kuala Lumpur", "parlimen": "P.114 Kepong" }, "geometry": { "type": "Point", "coordinates": [ 101.655829, 3.209544 ] } },
{ "type": "Feature", "properties": { "key": "johansetia", "avg_daily_entries": 402.0, "avg_working_day": 388.0, "avg_weekend_holiday": 428.0, "weekend_ratio": 1.102, "name": "Johan Setia", "codes": "SA26", "lat": 2.976111, "lon": 101.459167, "district": "Klang", "parlimen": "P.111 Kota Raja" }, "geometry": { "type": "Point", "coordinates": [ 101.459167, 2.976111 ] } },
{ "type": "Feature", "properties": { "key": "kajang", "avg_daily_entries": 7135.0, "avg_working_day": 8309.0, "avg_weekend_holiday": 4824.0, "weekend_ratio": 0.581, "name": "Kajang", "codes": "KG35", "lat": 2.982778, "lon": 101.790278, "district": "Ulu Langat", "parlimen": "P.102 Bangi" }, "geometry": { "type": "Point", "coordinates": [ 101.790278, 2.982778 ] } },
{ "type": "Feature", "properties": { "key": "kampungbaru", "avg_daily_entries": 3113.0, "avg_working_day": 3209.0, "avg_weekend_holiday": 2924.0, "weekend_ratio": 0.911, "name": "Kampung Baru", "codes": "KJ11", "lat": 3.161386, "lon": 101.706608, "district": "W.P. Kuala Lumpur", "parlimen": "P.119 Titiwangsa" }, "geometry": { "type": "Point", "coordinates": [ 101.706608, 3.161386 ] } },
{ "type": "Feature", "properties": { "key": "kampungbatu", "avg_daily_entries": 1597.0, "avg_working_day": 1844.0, "avg_weekend_holiday": 1112.0, "weekend_ratio": 0.603, "name": "Kampung Batu", "codes": "PYL13", "lat": 3.205521, "lon": 101.675473, "district": "W.P. Kuala Lumpur", "parlimen": "P.115 Batu" }, "geometry": { "type": "Point", "coordinates": [ 101.675473, 3.205521 ] } },
{ "type": "Feature", "properties": { "key": "kampungselamat", "avg_daily_entries": 1466.0, "avg_working_day": 1692.0, "avg_weekend_holiday": 1020.0, "weekend_ratio": 0.603, "name": "Kampung Selamat", "codes": "PYL3", "lat": 3.197266, "lon": 101.578499, "district": "Petaling", "parlimen": "P.107 Sungai Buloh" }, "geometry": { "type": "Point", "coordinates": [ 101.578499, 3.197266 ] } },
{ "type": "Feature", "properties": { "key": "kayuara", "avg_daily_entries": 251.0, "avg_working_day": 256.0, "avg_weekend_holiday": 239.0, "weekend_ratio": 0.932, "name": "Kayu Ara", "codes": "SA2", "lat": 3.134722, "lon": 101.616667, "district": "Petaling", "parlimen": "P.106 Damansara" }, "geometry": { "type": "Point", "coordinates": [ 101.616667, 3.134722 ] } },
{ "type": "Feature", "properties": { "key": "kelanajaya", "avg_daily_entries": 2490.0, "avg_working_day": 3035.0, "avg_weekend_holiday": 1417.0, "weekend_ratio": 0.467, "name": "Kelana Jaya", "codes": "KJ24", "lat": 3.112497, "lon": 101.6043, "district": "Petaling", "parlimen": "P.106 Damansara" }, "geometry": { "type": "Point", "coordinates": [ 101.6043, 3.112497 ] } },
{ "type": "Feature", "properties": { "key": "kentomen", "avg_daily_entries": 1113.0, "avg_working_day": 1234.0, "avg_weekend_holiday": 873.0, "weekend_ratio": 0.707, "name": "Kentomen", "codes": "PYL14", "lat": 3.19563, "lon": 101.6797, "district": "W.P. Kuala Lumpur", "parlimen": "P.115 Batu" }, "geometry": { "type": "Point", "coordinates": [ 101.6797, 3.19563 ] } },
{ "type": "Feature", "properties": { "key": "kepongbaru", "avg_daily_entries": 1584.0, "avg_working_day": 1784.0, "avg_weekend_holiday": 1189.0, "weekend_ratio": 0.667, "name": "Kepong Baru", "codes": "PYL10", "lat": 3.211663, "lon": 101.648193, "district": "W.P. Kuala Lumpur", "parlimen": "P.114 Kepong" }, "geometry": { "type": "Point", "coordinates": [ 101.648193, 3.211663 ] } },
{ "type": "Feature", "properties": { "key": "kerinchi", "avg_daily_entries": 6550.0, "avg_working_day": 8703.0, "avg_weekend_holiday": 2314.0, "weekend_ratio": 0.266, "name": "Kerinchi", "codes": "KJ18", "lat": 3.115506, "lon": 101.668572, "district": "W.P. Kuala Lumpur", "parlimen": "P.121 Lembah Pantai" }, "geometry": { "type": "Point", "coordinates": [ 101.668572, 3.115506 ] } },
{ "type": "Feature", "properties": { "key": "kerjaya", "avg_daily_entries": 344.0, "avg_working_day": 404.0, "avg_weekend_holiday": 226.0, "weekend_ratio": 0.559, "name": "Kerjaya", "codes": "SA9", "lat": 3.082222, "lon": 101.561944, "district": "Petaling", "parlimen": "P.105 Petaling Jaya" }, "geometry": { "type": "Point", "coordinates": [ 101.561944, 3.082222 ] } },
{ "type": "Feature", "properties": { "key": "kinrara", "avg_daily_entries": 2642.0, "avg_working_day": 3134.0, "avg_weekend_holiday": 1673.0, "weekend_ratio": 0.534, "name": "Kinrara", "codes": "SP22", "lat": 3.050506, "lon": 101.644294, "district": "Petaling", "parlimen": "P.104 Subang" }, "geometry": { "type": "Point", "coordinates": [ 101.644294, 3.050506 ] } },
{ "type": "Feature", "properties": { "key": "klangjaya", "avg_daily_entries": 173.0, "avg_working_day": 176.0, "avg_weekend_holiday": 167.0, "weekend_ratio": 0.951, "name": "Klang Jaya", "codes": "SA23", "lat": 3.005278, "lon": 101.441667, "district": "Klang", "parlimen": "P.111 Kota Raja" }, "geometry": { "type": "Point", "coordinates": [ 101.441667, 3.005278 ] } },
{ "type": "Feature", "properties": { "key": "klcc", "avg_daily_entries": 21710.0, "avg_working_day": 24492.0, "avg_weekend_holiday": 16235.0, "weekend_ratio": 0.663, "name": "KLCC", "codes": "KJ10", "lat": 3.158935, "lon": 101.713287, "district": "W.P. Kuala Lumpur", "parlimen": "P.120 Bukit Bintang" }, "geometry": { "type": "Point", "coordinates": [ 101.713287, 3.158935 ] } },
{ "type": "Feature", "properties": { "key": "klsentral", "avg_daily_entries": 26398.0, "avg_working_day": 29455.0, "avg_weekend_holiday": 20383.0, "weekend_ratio": 0.692, "name": "KL Sentral", "codes": "KJ15, MR1", "lat": 3.133636, "lon": 101.6870335, "district": "W.P. Kuala Lumpur", "parlimen": "P.120 Bukit Bintang" }, "geometry": { "type": "Point", "coordinates": [ 101.6870335, 3.133636 ] } },
{ "type": "Feature", "properties": { "key": "kotadamansara", "avg_daily_entries": 4609.0, "avg_working_day": 5544.0, "avg_weekend_holiday": 2771.0, "weekend_ratio": 0.5, "name": "Kota Damansara", "codes": "KG6", "lat": 3.150134, "lon": 101.57869, "district": "Petaling", "parlimen": "P.107 Sungai Buloh" }, "geometry": { "type": "Point", "coordinates": [ 101.57869, 3.150134 ] } },
{ "type": "Feature", "properties": { "key": "kuchai", "avg_daily_entries": 2891.0, "avg_working_day": 3319.0, "avg_weekend_holiday": 2049.0, "weekend_ratio": 0.617, "name": "Kuchai", "codes": "PYL27", "lat": 3.089546, "lon": 101.694124, "district": "W.P. Kuala Lumpur", "parlimen": "P.122 Seputeh" }, "geometry": { "type": "Point", "coordinates": [ 101.694124, 3.089546 ] } },
{ "type": "Feature", "properties": { "key": "kwasadamansara", "avg_daily_entries": 1760.0, "avg_working_day": 2100.0, "avg_weekend_holiday": 1092.0, "weekend_ratio": 0.52, "name": "Kwasa Damansara", "codes": "KG4", "lat": 3.1762392, "lon": 101.5720988, "district": "Petaling", "parlimen": "P.107 Sungai Buloh" }, "geometry": { "type": "Point", "coordinates": [ 101.5720988, 3.1762392 ] } },
{ "type": "Feature", "properties": { "key": "kwasasentral", "avg_daily_entries": 3257.0, "avg_working_day": 3641.0, "avg_weekend_holiday": 2501.0, "weekend_ratio": 0.687, "name": "Kwasa Sentral", "codes": "KG5", "lat": 3.170112, "lon": 101.564651, "district": "Petaling", "parlimen": "P.107 Sungai Buloh" }, "geometry": { "type": "Point", "coordinates": [ 101.564651, 3.170112 ] } },
{ "type": "Feature", "properties": { "key": "lembahsubang", "avg_daily_entries": 3491.0, "avg_working_day": 4274.0, "avg_weekend_holiday": 1950.0, "weekend_ratio": 0.456, "name": "Lembah Subang", "codes": "KJ25", "lat": 3.112094, "lon": 101.591034, "district": "Petaling", "parlimen": "P.105 Petaling Jaya" }, "geometry": { "type": "Point", "coordinates": [ 101.591034, 3.112094 ] } },
{ "type": "Feature", "properties": { "key": "maharajalela", "avg_daily_entries": 1614.0, "avg_working_day": 1655.0, "avg_weekend_holiday": 1535.0, "weekend_ratio": 0.928, "name": "Maharajalela", "codes": "MR3", "lat": 3.138743, "lon": 101.699268, "district": "W.P. Kuala Lumpur", "parlimen": "P.120 Bukit Bintang" }, "geometry": { "type": "Point", "coordinates": [ 101.699268, 3.138743 ] } },
{ "type": "Feature", "properties": { "key": "maluri", "avg_daily_entries": 17395.0, "avg_working_day": 18654.0, "avg_weekend_holiday": 14916.0, "weekend_ratio": 0.8, "name": "Maluri", "codes": "AG13, KG22", "lat": 3.1234565, "lon": 101.727546, "district": "W.P. Kuala Lumpur", "parlimen": "P.123 Cheras" }, "geometry": { "type": "Point", "coordinates": [ 101.727546, 3.1234565 ] } },
{ "type": "Feature", "properties": { "key": "masjidjamek", "avg_daily_entries": 15786.0, "avg_working_day": 16911.0, "avg_weekend_holiday": 13575.0, "weekend_ratio": 0.803, "name": "Masjid Jamek", "codes": "AG7, KJ13", "lat": 3.149418, "lon": 101.696523, "district": "W.P. Kuala Lumpur", "parlimen": "P.120 Bukit Bintang" }, "geometry": { "type": "Point", "coordinates": [ 101.696523, 3.149418 ] } },
{ "type": "Feature", "properties": { "key": "medantuanku", "avg_daily_entries": 3618.0, "avg_working_day": 3812.0, "avg_weekend_holiday": 3236.0, "weekend_ratio": 0.849, "name": "Medan Tuanku", "codes": "MR9", "lat": 3.15935, "lon": 101.69888, "district": "W.P. Kuala Lumpur", "parlimen": "P.120 Bukit Bintang" }, "geometry": { "type": "Point", "coordinates": [ 101.69888, 3.15935 ] } },
{ "type": "Feature", "properties": { "key": "merdeka", "avg_daily_entries": 3591.0, "avg_working_day": 4467.0, "avg_weekend_holiday": 1869.0, "weekend_ratio": 0.418, "name": "Merdeka", "codes": "KG17", "lat": 3.141969, "lon": 101.70205, "district": "W.P. Kuala Lumpur", "parlimen": "P.120 Bukit Bintang" }, "geometry": { "type": "Point", "coordinates": [ 101.70205, 3.141969 ] } },
{ "type": "Feature", "properties": { "key": "metroprima", "avg_daily_entries": 2493.0, "avg_working_day": 2756.0, "avg_weekend_holiday": 1976.0, "weekend_ratio": 0.717, "name": "Metro Prima", "codes": "PYL9", "lat": 3.214438, "lon": 101.639402, "district": "W.P. Kuala Lumpur", "parlimen": "P.114 Kepong" }, "geometry": { "type": "Point", "coordinates": [ 101.639402, 3.214438 ] } },
{ "type": "Feature", "properties": { "key": "miharja", "avg_daily_entries": 1659.0, "avg_working_day": 1769.0, "avg_weekend_holiday": 1443.0, "weekend_ratio": 0.816, "name": "Miharja", "codes": "AG12", "lat": 3.120973, "lon": 101.717922, "district": "W.P. Kuala Lumpur", "parlimen": "P.124 Bandar Tun Razak" }, "geometry": { "type": "Point", "coordinates": [ 101.717922, 3.120973 ] } },
{ "type": "Feature", "properties": { "key": "muhibbah", "avg_daily_entries": 1837.0, "avg_working_day": 2153.0, "avg_weekend_holiday": 1215.0, "weekend_ratio": 0.564, "name": "Muhibbah", "codes": "SP20", "lat": 3.062229, "lon": 101.662552, "district": "W.P. Kuala Lumpur", "parlimen": "P.122 Seputeh" }, "geometry": { "type": "Point", "coordinates": [ 101.662552, 3.062229 ] } },
{ "type": "Feature", "properties": { "key": "mutiaradamansara", "avg_daily_entries": 6113.0, "avg_working_day": 7033.0, "avg_weekend_holiday": 4304.0, "weekend_ratio": 0.612, "name": "Mutiara Damansara", "codes": "KG8", "lat": 3.155301, "lon": 101.609077, "district": "Petaling", "parlimen": "P.106 Damansara" }, "geometry": { "type": "Point", "coordinates": [ 101.609077, 3.155301 ] } },
{ "type": "Feature", "properties": { "key": "muziumnegara", "avg_daily_entries": 10987.0, "avg_working_day": 13152.0, "avg_weekend_holiday": 6726.0, "weekend_ratio": 0.511, "name": "Muzium Negara", "codes": "KG15", "lat": 3.137317, "lon": 101.687336, "district": "W.P. Kuala Lumpur", "parlimen": "P.121 Lembah Pantai" }, "geometry": { "type": "Point", "coordinates": [ 101.687336, 3.137317 ] } },
{ "type": "Feature", "properties": { "key": "pandanindah", "avg_daily_entries": 2485.0, "avg_working_day": 2828.0, "avg_weekend_holiday": 1811.0, "weekend_ratio": 0.641, "name": "Pandan Indah", "codes": "AG15", "lat": 3.134581, "lon": 101.746509, "district": "Ulu Langat", "parlimen": "P.100 Pandan" }, "geometry": { "type": "Point", "coordinates": [ 101.746509, 3.134581 ] } },
{ "type": "Feature", "properties": { "key": "pandanjaya", "avg_daily_entries": 3192.0, "avg_working_day": 3617.0, "avg_weekend_holiday": 2357.0, "weekend_ratio": 0.652, "name": "Pandan Jaya", "codes": "AG14", "lat": 3.130141, "lon": 101.739122, "district": "W.P. Kuala Lumpur", "parlimen": "P.100 Pandan" }, "geometry": { "type": "Point", "coordinates": [ 101.739122, 3.130141 ] } },
{ "type": "Feature", "properties": { "key": "pasarklang", "avg_daily_entries": 482.0, "avg_working_day": 475.0, "avg_weekend_holiday": 496.0, "weekend_ratio": 1.043, "name": "Pasar Klang", "codes": "SA18", "lat": 3.067778, "lon": 101.450833, "district": "Klang", "parlimen": "P.110 Klang" }, "geometry": { "type": "Point", "coordinates": [ 101.450833, 3.067778 ] } },
{ "type": "Feature", "properties": { "key": "pasarseni", "avg_daily_entries": 19506.0, "avg_working_day": 17881.0, "avg_weekend_holiday": 22704.0, "weekend_ratio": 1.27, "name": "Pasar Seni", "codes": "KG16, KJ14", "lat": 3.1423661325000003, "lon": 101.6954371, "district": "W.P. Kuala Lumpur", "parlimen": "P.120 Bukit Bintang" }, "geometry": { "type": "Point", "coordinates": [ 101.6954371, 3.1423661325 ] } },
{ "type": "Feature", "properties": { "key": "persiaranklcc", "avg_daily_entries": 4489.0, "avg_working_day": 5321.0, "avg_weekend_holiday": 2852.0, "weekend_ratio": 0.536, "name": "Persiaran KLCC", "codes": "PYL21", "lat": 3.15712, "lon": 101.71834, "district": "W.P. Kuala Lumpur", "parlimen": "P.120 Bukit Bintang" }, "geometry": { "type": "Point", "coordinates": [ 101.71834, 3.15712 ] } },
{ "type": "Feature", "properties": { "key": "phileodamansara", "avg_daily_entries": 3540.0, "avg_working_day": 4438.0, "avg_weekend_holiday": 1772.0, "weekend_ratio": 0.399, "name": "Phileo Damansara", "codes": "KG12", "lat": 3.129864, "lon": 101.642471, "district": "Petaling", "parlimen": "P.117 Segambut" }, "geometry": { "type": "Point", "coordinates": [ 101.642471, 3.129864 ] } },
{ "type": "Feature", "properties": { "key": "plazarakyat", "avg_daily_entries": 3708.0, "avg_working_day": 4251.0, "avg_weekend_holiday": 2639.0, "weekend_ratio": 0.621, "name": "Plaza Rakyat", "codes": "AG8", "lat": 3.144049, "lon": 101.702105, "district": "W.P. Kuala Lumpur", "parlimen": "P.120 Bukit Bintang" }, "geometry": { "type": "Point", "coordinates": [ 101.702105, 3.144049 ] } },
{ "type": "Feature", "properties": { "key": "puchongperdana", "avg_daily_entries": 1699.0, "avg_working_day": 1934.0, "avg_weekend_holiday": 1237.0, "weekend_ratio": 0.64, "name": "Puchong Perdana", "codes": "SP28", "lat": 3.007913, "lon": 101.605021, "district": "Petaling", "parlimen": "P.104 Subang" }, "geometry": { "type": "Point", "coordinates": [ 101.605021, 3.007913 ] } },
{ "type": "Feature", "properties": { "key": "puchongprima", "avg_daily_entries": 2986.0, "avg_working_day": 3558.0, "avg_weekend_holiday": 1860.0, "weekend_ratio": 0.523, "name": "Puchong Prima", "codes": "SP29", "lat": 2.999808, "lon": 101.596692, "district": "Petaling", "parlimen": "P.103 Puchong" }, "geometry": { "type": "Point", "coordinates": [ 101.596692, 2.999808 ] } },
{ "type": "Feature", "properties": { "key": "pudu", "avg_daily_entries": 5330.0, "avg_working_day": 5569.0, "avg_weekend_holiday": 4860.0, "weekend_ratio": 0.873, "name": "Pudu", "codes": "AG10", "lat": 3.134879, "lon": 101.711957, "district": "W.P. Kuala Lumpur", "parlimen": "P.123 Cheras" }, "geometry": { "type": "Point", "coordinates": [ 101.711957, 3.134879 ] } },
{ "type": "Feature", "properties": { "key": "pusatbandardamansara", "avg_daily_entries": 4994.0, "avg_working_day": 6074.0, "avg_weekend_holiday": 2868.0, "weekend_ratio": 0.472, "name": "Pusat Bandar Damansara", "codes": "KG13", "lat": 3.143444, "lon": 101.662857, "district": "W.P. Kuala Lumpur", "parlimen": "P.121 Lembah Pantai" }, "geometry": { "type": "Point", "coordinates": [ 101.662857, 3.143444 ] } },
{ "type": "Feature", "properties": { "key": "pusatbandarpuchong", "avg_daily_entries": 2609.0, "avg_working_day": 2859.0, "avg_weekend_holiday": 2117.0, "weekend_ratio": 0.741, "name": "Pusat Bandar Puchong", "codes": "SP25", "lat": 3.033194, "lon": 101.616057, "district": "Petaling", "parlimen": "P.104 Subang" }, "geometry": { "type": "Point", "coordinates": [ 101.616057, 3.033194 ] } },
{ "type": "Feature", "properties": { "key": "putraheights", "avg_daily_entries": 3020.0, "avg_working_day": 3547.0, "avg_weekend_holiday": 1982.0, "weekend_ratio": 0.559, "name": "Putra Heights", "codes": "SP31", "lat": 2.9961215, "lon": 101.5754915, "district": "Petaling", "parlimen": "P.111 Kota Raja" }, "geometry": { "type": "Point", "coordinates": [ 101.5754915, 2.9961215 ] } },
{ "type": "Feature", "properties": { "key": "putrajayasentral", "avg_daily_entries": 3268.0, "avg_working_day": 3520.0, "avg_weekend_holiday": 2771.0, "weekend_ratio": 0.787, "name": "Putrajaya Sentral", "codes": "PYL41", "lat": 2.9313, "lon": 101.6715, "district": "W.P. Putrajaya", "parlimen": "P.125 Putrajaya" }, "geometry": { "type": "Point", "coordinates": [ 101.6715, 2.9313 ] } },
{ "type": "Feature", "properties": { "key": "putrapermai", "avg_daily_entries": 1017.0, "avg_working_day": 1181.0, "avg_weekend_holiday": 695.0, "weekend_ratio": 0.588, "name": "Putra Permai", "codes": "PYL37", "lat": 2.98339, "lon": 101.66099, "district": "Petaling", "parlimen": "P.103 Puchong" }, "geometry": { "type": "Point", "coordinates": [ 101.66099, 2.98339 ] } },
{ "type": "Feature", "properties": { "key": "pwtc", "avg_daily_entries": 5476.0, "avg_working_day": 5452.0, "avg_weekend_holiday": 5523.0, "weekend_ratio": 1.013, "name": "PWTC", "codes": "AG4", "lat": 3.166333, "lon": 101.693586, "district": "W.P. Kuala Lumpur", "parlimen": null }, "geometry": { "type": "Point", "coordinates": [ 101.693586, 3.166333 ] } },
{ "type": "Feature", "properties": { "key": "rajachulan", "avg_daily_entries": 3996.0, "avg_working_day": 5148.0, "avg_weekend_holiday": 1729.0, "weekend_ratio": 0.336, "name": "Raja Chulan", "codes": "MR7", "lat": 3.150878, "lon": 101.710432, "district": "W.P. Kuala Lumpur", "parlimen": "P.120 Bukit Bintang" }, "geometry": { "type": "Point", "coordinates": [ 101.710432, 3.150878 ] } },
{ "type": "Feature", "properties": { "key": "rajauda", "avg_daily_entries": 1382.0, "avg_working_day": 1620.0, "avg_weekend_holiday": 912.0, "weekend_ratio": 0.563, "name": "Raja Uda", "codes": "PYL19", "lat": 3.16794, "lon": 101.71017, "district": "W.P. Kuala Lumpur", "parlimen": "P.119 Titiwangsa" }, "geometry": { "type": "Point", "coordinates": [ 101.71017, 3.16794 ] } },
{ "type": "Feature", "properties": { "key": "salakselatan", "avg_daily_entries": 3784.0, "avg_working_day": 4398.0, "avg_weekend_holiday": 2574.0, "weekend_ratio": 0.585, "name": "Salak Selatan", "codes": "SP13", "lat": 3.102201, "lon": 101.706179, "district": "W.P. Kuala Lumpur", "parlimen": "P.120 Bukit Bintang" }, "geometry": { "type": "Point", "coordinates": [ 101.706179, 3.102201 ] } },
{ "type": "Feature", "properties": { "key": "seksyen7", "avg_daily_entries": 585.0, "avg_working_day": 578.0, "avg_weekend_holiday": 599.0, "weekend_ratio": 1.036, "name": "Seksyen 7", "codes": "SA15", "lat": 3.067222, "lon": 101.486667, "district": "Petaling", "parlimen": "P.108 Shah Alam" }, "geometry": { "type": "Point", "coordinates": [ 101.486667, 3.067222 ] } },
{ "type": "Feature", "properties": { "key": "semantan", "avg_daily_entries": 5228.0, "avg_working_day": 6772.0, "avg_weekend_holiday": 2189.0, "weekend_ratio": 0.323, "name": "Semantan", "codes": "KG14", "lat": 3.150977, "lon": 101.665497, "district": "W.P. Kuala Lumpur", "parlimen": "P.117 Segambut" }, "geometry": { "type": "Point", "coordinates": [ 101.665497, 3.150977 ] } },
{ "type": "Feature", "properties": { "key": "sentul", "avg_daily_entries": 2528.0, "avg_working_day": 2854.0, "avg_weekend_holiday": 1887.0, "weekend_ratio": 0.661, "name": "Sentul", "codes": "AG2", "lat": 3.178484, "lon": 101.695542, "district": "W.P. Kuala Lumpur", "parlimen": "P.115 Batu" }, "geometry": { "type": "Point", "coordinates": [ 101.695542, 3.178484 ] } },
{ "type": "Feature", "properties": { "key": "sentulbarat", "avg_daily_entries": 1842.0, "avg_working_day": 2060.0, "avg_weekend_holiday": 1413.0, "weekend_ratio": 0.686, "name": "Sentul Barat", "codes": "PYL16", "lat": 3.179369, "lon": 101.684742, "district": "W.P. Kuala Lumpur", "parlimen": "P.115 Batu" }, "geometry": { "type": "Point", "coordinates": [ 101.684742, 3.179369 ] } },
{ "type": "Feature", "properties": { "key": "sentultimur", "avg_daily_entries": 3817.0, "avg_working_day": 4366.0, "avg_weekend_holiday": 2737.0, "weekend_ratio": 0.627, "name": "Sentul Timur", "codes": "AG1", "lat": 3.185897, "lon": 101.695217, "district": "W.P. Kuala Lumpur", "parlimen": "P.115 Batu" }, "geometry": { "type": "Point", "coordinates": [ 101.695217, 3.185897 ] } },
{ "type": "Feature", "properties": { "key": "serdangjaya", "avg_daily_entries": 731.0, "avg_working_day": 796.0, "avg_weekend_holiday": 603.0, "weekend_ratio": 0.758, "name": "Serdang Jaya", "codes": "PYL33", "lat": 3.0216, "lon": 101.709, "district": "Petaling", "parlimen": "P.103 Puchong" }, "geometry": { "type": "Point", "coordinates": [ 101.709, 3.0216 ] } },
{ "type": "Feature", "properties": { "key": "serdangrayaselatan", "avg_daily_entries": 830.0, "avg_working_day": 916.0, "avg_weekend_holiday": 659.0, "weekend_ratio": 0.719, "name": "Serdang Raya Selatan", "codes": "PYL32", "lat": 3.028463, "lon": 101.707514, "district": "Petaling", "parlimen": "P.103 Puchong" }, "geometry": { "type": "Point", "coordinates": [ 101.707514, 3.028463 ] } },
{ "type": "Feature", "properties": { "key": "serdangrayautara", "avg_daily_entries": 1524.0, "avg_working_day": 1708.0, "avg_weekend_holiday": 1164.0, "weekend_ratio": 0.682, "name": "Serdang Raya Utara", "codes": "PYL31", "lat": 3.041674, "lon": 101.704928, "district": "Petaling", "parlimen": "P.103 Puchong" }, "geometry": { "type": "Point", "coordinates": [ 101.704928, 3.041674 ] } },
{ "type": "Feature", "properties": { "key": "seriandalas", "avg_daily_entries": 331.0, "avg_working_day": 350.0, "avg_weekend_holiday": 293.0, "weekend_ratio": 0.836, "name": "Seri Andalas", "codes": "SA22", "lat": 3.015833, "lon": 101.440556, "district": "Klang", "parlimen": "P.111 Kota Raja" }, "geometry": { "type": "Point", "coordinates": [ 101.440556, 3.015833 ] } },
{ "type": "Feature", "properties": { "key": "setiawangsa", "avg_daily_entries": 3892.0, "avg_working_day": 4576.0, "avg_weekend_holiday": 2547.0, "weekend_ratio": 0.557, "name": "Setiawangsa", "codes": "KJ5", "lat": 3.17576, "lon": 101.73584, "district": "Gombak", "parlimen": "P.098 Gombak" }, "geometry": { "type": "Point", "coordinates": [ 101.73584, 3.17576 ] } },
{ "type": "Feature", "properties": { "key": "sridamansarabarat", "avg_daily_entries": 1343.0, "avg_working_day": 1603.0, "avg_weekend_holiday": 830.0, "weekend_ratio": 0.518, "name": "Sri Damansara Barat", "codes": "PYL6", "lat": 3.198197, "lon": 101.608302, "district": "Petaling", "parlimen": "P.106 Damansara" }, "geometry": { "type": "Point", "coordinates": [ 101.608302, 3.198197 ] } },
{ "type": "Feature", "properties": { "key": "sridamansarasentral", "avg_daily_entries": 744.0, "avg_working_day": 868.0, "avg_weekend_holiday": 499.0, "weekend_ratio": 0.575, "name": "Sri Damansara Sentral", "codes": "PYL7", "lat": 3.198815, "lon": 101.621396, "district": "W.P. Kuala Lumpur", "parlimen": "P.106 Damansara" }, "geometry": { "type": "Point", "coordinates": [ 101.621396, 3.198815 ] } },
{ "type": "Feature", "properties": { "key": "sridamansaratimur", "avg_daily_entries": 1110.0, "avg_working_day": 1291.0, "avg_weekend_holiday": 753.0, "weekend_ratio": 0.583, "name": "Sri Damansara Timur", "codes": "PYL8", "lat": 3.207832, "lon": 101.628716, "district": "W.P. Kuala Lumpur", "parlimen": "P.106 Damansara" }, "geometry": { "type": "Point", "coordinates": [ 101.628716, 3.207832 ] } },
{ "type": "Feature", "properties": { "key": "sridelima", "avg_daily_entries": 967.0, "avg_working_day": 1105.0, "avg_weekend_holiday": 696.0, "weekend_ratio": 0.63, "name": "Sri Delima", "codes": "PYL12", "lat": 3.207108, "lon": 101.665749, "district": "W.P. Kuala Lumpur", "parlimen": "P.115 Batu" }, "geometry": { "type": "Point", "coordinates": [ 101.665749, 3.207108 ] } },
{ "type": "Feature", "properties": { "key": "sripetaling", "avg_daily_entries": 1215.0, "avg_working_day": 1439.0, "avg_weekend_holiday": 774.0, "weekend_ratio": 0.538, "name": "Sri Petaling", "codes": "SP18", "lat": 3.061445, "lon": 101.687074, "district": "W.P. Kuala Lumpur", "parlimen": "P.122 Seputeh" }, "geometry": { "type": "Point", "coordinates": [ 101.687074, 3.061445 ] } },
{ "type": "Feature", "properties": { "key": "srirampai", "avg_daily_entries": 4986.0, "avg_working_day": 5990.0, "avg_weekend_holiday": 3009.0, "weekend_ratio": 0.502, "name": "Sri Rampai", "codes": "KJ4", "lat": 3.199176, "lon": 101.73747, "district": "W.P. Kuala Lumpur", "parlimen": "P.116 Wangsa Maju" }, "geometry": { "type": "Point", "coordinates": [ 101.73747, 3.199176 ] } },
{ "type": "Feature", "properties": { "key": "sriraya", "avg_daily_entries": 2363.0, "avg_working_day": 2718.0, "avg_weekend_holiday": 1665.0, "weekend_ratio": 0.613, "name": "Sri Raya", "codes": "KG28", "lat": 3.062273, "lon": 101.772899, "district": "Ulu Langat", "parlimen": "P.101 Hulu Langat" }, "geometry": { "type": "Point", "coordinates": [ 101.772899, 3.062273 ] } },
{ "type": "Feature", "properties": { "key": "ss15", "avg_daily_entries": 4378.0, "avg_working_day": 5219.0, "avg_weekend_holiday": 2723.0, "weekend_ratio": 0.522, "name": "SS 15", "codes": "KJ29", "lat": 3.075972, "lon": 101.585983, "district": "Petaling", "parlimen": "P.104 Subang" }, "geometry": { "type": "Point", "coordinates": [ 101.585983, 3.075972 ] } },
{ "type": "Feature", "properties": { "key": "ss18", "avg_daily_entries": 1152.0, "avg_working_day": 1414.0, "avg_weekend_holiday": 636.0, "weekend_ratio": 0.45, "name": "SS 18", "codes": "KJ30", "lat": 3.067182, "lon": 101.585945, "district": "Petaling", "parlimen": "P.104 Subang" }, "geometry": { "type": "Point", "coordinates": [ 101.585945, 3.067182 ] } },
{ "type": "Feature", "properties": { "key": "stadiumkajang", "avg_daily_entries": 2881.0, "avg_working_day": 2930.0, "avg_weekend_holiday": 2783.0, "weekend_ratio": 0.95, "name": "Stadium Kajang", "codes": "KG34", "lat": 2.994514, "lon": 101.786338, "district": "Ulu Langat", "parlimen": "P.102 Bangi" }, "geometry": { "type": "Point", "coordinates": [ 101.786338, 2.994514 ] } },
{ "type": "Feature", "properties": { "key": "stadiumshahalam", "avg_daily_entries": 592.0, "avg_working_day": 638.0, "avg_weekend_holiday": 500.0, "weekend_ratio": 0.785, "name": "Stadium Shah Alam", "codes": "SA10", "lat": 3.079722, "lon": 101.548889, "district": "Petaling", "parlimen": "P.108 Shah Alam" }, "geometry": { "type": "Point", "coordinates": [ 101.548889, 3.079722 ] } },
{ "type": "Feature", "properties": { "key": "subang", "avg_daily_entries": 191.0, "avg_working_day": 224.0, "avg_weekend_holiday": 125.0, "weekend_ratio": 0.558, "name": "Subang", "codes": "SA6", "lat": 3.106111, "lon": 101.591111, "district": "Petaling", "parlimen": "P.105 Petaling Jaya" }, "geometry": { "type": "Point", "coordinates": [ 101.591111, 3.106111 ] } },
{ "type": "Feature", "properties": { "key": "subangalam", "avg_daily_entries": 558.0, "avg_working_day": 693.0, "avg_weekend_holiday": 291.0, "weekend_ratio": 0.42, "name": "Subang Alam", "codes": "KJ36", "lat": 3.009421, "lon": 101.572281, "district": "Petaling", "parlimen": "P.111 Kota Raja" }, "geometry": { "type": "Point", "coordinates": [ 101.572281, 3.009421 ] } },
{ "type": "Feature", "properties": { "key": "subangjaya", "avg_daily_entries": 4823.0, "avg_working_day": 6096.0, "avg_weekend_holiday": 2318.0, "weekend_ratio": 0.38, "name": "Subang Jaya", "codes": "KJ28", "lat": 3.08466, "lon": 101.588127, "district": "Petaling", "parlimen": "P.104 Subang" }, "geometry": { "type": "Point", "coordinates": [ 101.588127, 3.08466 ] } },
{ "type": "Feature", "properties": { "key": "sultanismail", "avg_daily_entries": 1746.0, "avg_working_day": 2241.0, "avg_weekend_holiday": 770.0, "weekend_ratio": 0.344, "name": "Sultan Ismail", "codes": "AG5", "lat": 3.161245, "lon": 101.694109, "district": "W.P. Kuala Lumpur", "parlimen": "P.120 Bukit Bintang" }, "geometry": { "type": "Point", "coordinates": [ 101.694109, 3.161245 ] } },
{ "type": "Feature", "properties": { "key": "sungaibesi", "avg_daily_entries": 2497.0, "avg_working_day": 2773.0, "avg_weekend_holiday": 1955.0, "weekend_ratio": 0.705, "name": "Sungai Besi", "codes": "PYL29, SP16", "lat": 3.0637895, "lon": 101.708231, "district": "W.P. Kuala Lumpur", "parlimen": "P.124 Bandar Tun Razak" }, "geometry": { "type": "Point", "coordinates": [ 101.708231, 3.0637895 ] } },
{ "type": "Feature", "properties": { "key": "sungaibuloh", "avg_daily_entries": 3259.0, "avg_working_day": 3615.0, "avg_weekend_holiday": 2558.0, "weekend_ratio": 0.708, "name": "Sungai Buloh", "codes": "PYL4", "lat": 3.206429, "lon": 101.581779, "district": "Petaling", "parlimen": "P.106 Damansara" }, "geometry": { "type": "Point", "coordinates": [ 101.581779, 3.206429 ] } },
{ "type": "Feature", "properties": { "key": "sungaijernih", "avg_daily_entries": 2887.0, "avg_working_day": 3492.0, "avg_weekend_holiday": 1696.0, "weekend_ratio": 0.486, "name": "Sungai Jernih", "codes": "KG33", "lat": 3.000948, "lon": 101.783857, "district": "Ulu Langat", "parlimen": "P.102 Bangi" }, "geometry": { "type": "Point", "coordinates": [ 101.783857, 3.000948 ] } },
{ "type": "Feature", "properties": { "key": "surian", "avg_daily_entries": 6269.0, "avg_working_day": 7090.0, "avg_weekend_holiday": 4653.0, "weekend_ratio": 0.656, "name": "Surian", "codes": "KG7", "lat": 3.14948, "lon": 101.593925, "district": "Petaling", "parlimen": "P.107 Sungai Buloh" }, "geometry": { "type": "Point", "coordinates": [ 101.593925, 3.14948 ] } },
{ "type": "Feature", "properties": { "key": "taipan", "avg_daily_entries": 2356.0, "avg_working_day": 2810.0, "avg_weekend_holiday": 1463.0, "weekend_ratio": 0.521, "name": "Taipan", "codes": "KJ32", "lat": 3.04815, "lon": 101.590233, "district": "Petaling", "parlimen": "P.104 Subang" }, "geometry": { "type": "Point", "coordinates": [ 101.590233, 3.04815 ] } },
{ "type": "Feature", "properties": { "key": "tamanbahagia", "avg_daily_entries": 2481.0, "avg_working_day": 3038.0, "avg_weekend_holiday": 1386.0, "weekend_ratio": 0.456, "name": "Taman Bahagia", "codes": "KJ23", "lat": 3.11079, "lon": 101.612856, "district": "Petaling", "parlimen": "P.106 Damansara" }, "geometry": { "type": "Point", "coordinates": [ 101.612856, 3.11079 ] } },
{ "type": "Feature", "properties": { "key": "tamanconnaught", "avg_daily_entries": 5083.0, "avg_working_day": 5921.0, "avg_weekend_holiday": 3433.0, "weekend_ratio": 0.58, "name": "Taman Connaught", "codes": "KG26", "lat": 3.079172, "lon": 101.74522, "district": "W.P. Kuala Lumpur", "parlimen": "P.123 Cheras" }, "geometry": { "type": "Point", "coordinates": [ 101.74522, 3.079172 ] } },
{ "type": "Feature", "properties": { "key": "tamanequine", "avg_daily_entries": 1607.0, "avg_working_day": 1876.0, "avg_weekend_holiday": 1079.0, "weekend_ratio": 0.575, "name": "Taman Equine", "codes": "PYL36", "lat": 2.98942, "lon": 101.67244, "district": "Petaling", "parlimen": "P.103 Puchong" }, "geometry": { "type": "Point", "coordinates": [ 101.67244, 2.98942 ] } },
{ "type": "Feature", "properties": { "key": "tamanjaya", "avg_daily_entries": 4163.0, "avg_working_day": 5173.0, "avg_weekend_holiday": 2175.0, "weekend_ratio": 0.42, "name": "Taman Jaya", "codes": "KJ20", "lat": 3.104086, "lon": 101.645248, "district": "Petaling", "parlimen": "P.105 Petaling Jaya" }, "geometry": { "type": "Point", "coordinates": [ 101.645248, 3.104086 ] } },
{ "type": "Feature", "properties": { "key": "tamanmelati", "avg_daily_entries": 5563.0, "avg_working_day": 6774.0, "avg_weekend_holiday": 3181.0, "weekend_ratio": 0.47, "name": "Taman Melati", "codes": "KJ2", "lat": 3.219558, "lon": 101.72197, "district": "W.P. Kuala Lumpur", "parlimen": "P.116 Wangsa Maju" }, "geometry": { "type": "Point", "coordinates": [ 101.72197, 3.219558 ] } },
{ "type": "Feature", "properties": { "key": "tamanmidah", "avg_daily_entries": 3484.0, "avg_working_day": 3949.0, "avg_weekend_holiday": 2568.0, "weekend_ratio": 0.65, "name": "Taman Midah", "codes": "KG24", "lat": 3.104505, "lon": 101.732186, "district": "W.P. Kuala Lumpur", "parlimen": "P.123 Cheras" }, "geometry": { "type": "Point", "coordinates": [ 101.732186, 3.104505 ] } },
{ "type": "Feature", "properties": { "key": "tamanmutiara", "avg_daily_entries": 6591.0, "avg_working_day": 7192.0, "avg_weekend_holiday": 5408.0, "weekend_ratio": 0.752, "name": "Taman Mutiara", "codes": "KG25", "lat": 3.090989, "lon": 101.740453, "district": "W.P. Kuala Lumpur", "parlimen": "P.123 Cheras" }, "geometry": { "type": "Point", "coordinates": [ 101.740453, 3.090989 ] } },
{ "type": "Feature", "properties": { "key": "tamannagaemas", "avg_daily_entries": 1362.0, "avg_working_day": 1624.0, "avg_weekend_holiday": 845.0, "weekend_ratio": 0.521, "name": "Taman Naga Emas", "codes": "PYL28", "lat": 3.077688, "lon": 101.699867, "district": "W.P. Kuala Lumpur", "parlimen": "P.122 Seputeh" }, "geometry": { "type": "Point", "coordinates": [ 101.699867, 3.077688 ] } },
{ "type": "Feature", "properties": { "key": "tamanparamount", "avg_daily_entries": 2506.0, "avg_working_day": 2997.0, "avg_weekend_holiday": 1538.0, "weekend_ratio": 0.513, "name": "Taman Paramount", "codes": "KJ22", "lat": 3.104716, "lon": 101.623192, "district": "Petaling", "parlimen": "P.106 Damansara" }, "geometry": { "type": "Point", "coordinates": [ 101.623192, 3.104716 ] } },
{ "type": "Feature", "properties": { "key": "tamanperindustrianpuchong", "avg_daily_entries": 1386.0, "avg_working_day": 1686.0, "avg_weekend_holiday": 797.0, "weekend_ratio": 0.473, "name": "Taman Perindustrian Puchong", "codes": "SP26", "lat": 3.022814, "lon": 101.613514, "district": "Petaling", "parlimen": "P.104 Subang" }, "geometry": { "type": "Point", "coordinates": [ 101.613514, 3.022814 ] } },
{ "type": "Feature", "properties": { "key": "tamanpertama", "avg_daily_entries": 3001.0, "avg_working_day": 3366.0, "avg_weekend_holiday": 2283.0, "weekend_ratio": 0.678, "name": "Taman Pertama", "codes": "KG23", "lat": 3.112547, "lon": 101.729371, "district": "W.P. Kuala Lumpur", "parlimen": "P.123 Cheras" }, "geometry": { "type": "Point", "coordinates": [ 101.729371, 3.112547 ] } },
{ "type": "Feature", "properties": { "key": "tamanselatan", "avg_daily_entries": 176.0, "avg_working_day": 191.0, "avg_weekend_holiday": 145.0, "weekend_ratio": 0.761, "name": "Taman Selatan", "codes": "SA21", "lat": 3.026667, "lon": 101.442222, "district": "Klang", "parlimen": "P.110 Klang" }, "geometry": { "type": "Point", "coordinates": [ 101.442222, 3.026667 ] } },
{ "type": "Feature", "properties": { "key": "tamansuntex", "avg_daily_entries": 4264.0, "avg_working_day": 4864.0, "avg_weekend_holiday": 3082.0, "weekend_ratio": 0.634, "name": "Taman Suntex", "codes": "KG27", "lat": 3.071578, "lon": 101.763552, "district": "Ulu Langat", "parlimen": "P.101 Hulu Langat" }, "geometry": { "type": "Point", "coordinates": [ 101.763552, 3.071578 ] } },
{ "type": "Feature", "properties": { "key": "titiwangsa", "avg_daily_entries": 5067.0, "avg_working_day": 5517.0, "avg_weekend_holiday": 4183.0, "weekend_ratio": 0.758, "name": "Titiwangsa", "codes": "AG3, MR11, PYL17", "lat": 3.1735665, "lon": 101.6956415, "district": "W.P. Kuala Lumpur", "parlimen": "P.119 Titiwangsa" }, "geometry": { "type": "Point", "coordinates": [ 101.6956415, 3.1735665 ] } },
{ "type": "Feature", "properties": { "key": "ttdi", "avg_daily_entries": 5031.0, "avg_working_day": 6199.0, "avg_weekend_holiday": 2732.0, "weekend_ratio": 0.441, "name": "TTDI", "codes": "KG10", "lat": 3.13613, "lon": 101.630539, "district": "W.P. Kuala Lumpur", "parlimen": "P.117 Segambut" }, "geometry": { "type": "Point", "coordinates": [ 101.630539, 3.13613 ] } },
{ "type": "Feature", "properties": { "key": "tunrazakexchange", "avg_daily_entries": 15566.0, "avg_working_day": 16444.0, "avg_weekend_holiday": 13839.0, "weekend_ratio": 0.842, "name": "Tun Razak Exchange", "codes": "KG20", "lat": 3.1426465, "lon": 101.720248, "district": "W.P. Kuala Lumpur", "parlimen": "P.120 Bukit Bintang" }, "geometry": { "type": "Point", "coordinates": [ 101.720248, 3.1426465 ] } },
{ "type": "Feature", "properties": { "key": "tunsambanthan", "avg_daily_entries": 2036.0, "avg_working_day": 2427.0, "avg_weekend_holiday": 1267.0, "weekend_ratio": 0.522, "name": "Tun Sambanthan", "codes": "MR2", "lat": 3.13132, "lon": 101.69085, "district": "W.P. Kuala Lumpur", "parlimen": "P.120 Bukit Bintang" }, "geometry": { "type": "Point", "coordinates": [ 101.69085, 3.13132 ] } },
{ "type": "Feature", "properties": { "key": "uitmshahalam", "avg_daily_entries": 204.0, "avg_working_day": 221.0, "avg_weekend_holiday": 172.0, "weekend_ratio": 0.778, "name": "UiTM Shah Alam", "codes": "SA14", "lat": 3.0625, "lon": 101.501111, "district": "Petaling", "parlimen": "P.108 Shah Alam" }, "geometry": { "type": "Point", "coordinates": [ 101.501111, 3.0625 ] } },
{ "type": "Feature", "properties": { "key": "universiti", "avg_daily_entries": 6722.0, "avg_working_day": 8115.0, "avg_weekend_holiday": 3982.0, "weekend_ratio": 0.491, "name": "Universiti", "codes": "KJ19", "lat": 3.114616, "lon": 101.661639, "district": "W.P. Kuala Lumpur", "parlimen": "P.121 Lembah Pantai" }, "geometry": { "type": "Point", "coordinates": [ 101.661639, 3.114616 ] } },
{ "type": "Feature", "properties": { "key": "upm", "avg_daily_entries": 1500.0, "avg_working_day": 1712.0, "avg_weekend_holiday": 1083.0, "weekend_ratio": 0.632, "name": "UPM", "codes": "PYL34", "lat": 3.008489, "lon": 101.705396, "district": "Petaling", "parlimen": "P.103 Puchong" }, "geometry": { "type": "Point", "coordinates": [ 101.705396, 3.008489 ] } },
{ "type": "Feature", "properties": { "key": "usj21", "avg_daily_entries": 1521.0, "avg_working_day": 1835.0, "avg_weekend_holiday": 903.0, "weekend_ratio": 0.492, "name": "USJ 21", "codes": "KJ34", "lat": 3.029881, "lon": 101.581711, "district": "Petaling", "parlimen": "P.104 Subang" }, "geometry": { "type": "Point", "coordinates": [ 101.581711, 3.029881 ] } },
{ "type": "Feature", "properties": { "key": "usj7", "avg_daily_entries": 2198.0, "avg_working_day": 2499.0, "avg_weekend_holiday": 1607.0, "weekend_ratio": 0.643, "name": "USJ 7", "codes": "KJ31", "lat": 3.055128, "lon": 101.592047, "district": "Petaling", "parlimen": "P.104 Subang" }, "geometry": { "type": "Point", "coordinates": [ 101.592047, 3.055128 ] } },
{ "type": "Feature", "properties": { "key": "wangsamaju", "avg_daily_entries": 8656.0, "avg_working_day": 10366.0, "avg_weekend_holiday": 5290.0, "weekend_ratio": 0.51, "name": "Wangsa Maju", "codes": "KJ3", "lat": 3.205751, "lon": 101.731796, "district": "W.P. Kuala Lumpur", "parlimen": "P.116 Wangsa Maju" }, "geometry": { "type": "Point", "coordinates": [ 101.731796, 3.205751 ] } },
{ "type": "Feature", "properties": { "key": "wawasan", "avg_daily_entries": 1547.0, "avg_working_day": 1826.0, "avg_weekend_holiday": 998.0, "weekend_ratio": 0.546, "name": "Wawasan", "codes": "KJ33", "lat": 3.035062, "lon": 101.588348, "district": "Petaling", "parlimen": "P.104 Subang" }, "geometry": { "type": "Point", "coordinates": [ 101.588348, 3.035062 ] } }
]
}
